,Nom_du_POI,Categories_de_POI,Latitude,Longitude,Adresse_postale,Code_postal,Telephone,Mail,Site_web,Commune,Description
0,Croisière Exclusive,https://www.datatourisme.fr/ontology/core#PlaceOfInterest|https://www.datatourisme.fr/ontology/core#PointOfInterest|https://www.datatourisme.fr/ontology/core#SportsAndLeisurePlace|https://www.datatourisme.fr/ontology/core#SightseeingBoat|http://schema.org/LocalBusiness,41.590132,9.283183,Port de plaisance Quai Pascal Paoli,20137,+33 6 25 81 20 84,a@gmail.com,http://www.croisiere-exclusive.fr/,Porto-Vecchio,"Croisières en mer et location de bateaux avec skipper à la journée ou demi-journée, avec ou sans repas à bord. Départ du ponton de Moby Dick à Santa Giulia et/ou du Port de Plaisance de Porto-Vecchio. 12 pers. max à bord. Privatisation possible."
2,Touristra La Balagne,https://www.datatourisme.fr/ontology/core#PlaceOfInterest|https://www.datatourisme.fr/ontology/core#PointOfInterest|https://www.datatourisme.fr/ontology/core#Accommodation|https://www.datatourisme.fr/ontology/core#ClubOrHolidayVillage|https://www.datatourisme.fr/ontology/core#CollectiveAccommodation|http://schema.org/Accommodation|http://schema.org/LodgingBusiness,42.556401,8.759972,BP 112 Avenue Christophe Colomb -,20260,+33 890 56 75 67,calvi@touristravacances.com,https://www.touristravacances.com/fiche-etablissement/saison-ete/calvi-la-balagne,Calvi,Village club avec pension complète ou 1/2 pension avec piscine et animation adulte et enfants situé à Calvi en Corse.
4,A Casa di Mà,https://www.datatourisme.fr/ontology/core#FoodEstablishment|https://www.datatourisme.fr/ontology/core#PlaceOfInterest|https://www.datatourisme.fr/ontology/core#PointOfInterest|https://www.datatourisme.fr/ontology/core#Restaurant|https://www.datatourisme.fr/ontology/core#Accommodation|https://www.datatourisme.fr/ontology/core#Hotel|https://www.datatourisme.fr/ontology/core#HotelRestaurant|https://www.datatourisme.fr/ontology/core#HotelTrade|http://schema.org/Accommodation|http://schema.org/FoodEstablishment|http://schema.org/LodgingBusiness|http://schema.org/Restaurant|http://schema.org/Hotel,42.58108,8.832131,Village - RT 30,20260,+33 4 95 60 61 71,contact@acasadima.com,https://www.acasadima.com/,Lumio,"A Casa di Mà, hôtel 4 étoiles situé à Lumio, à 5 minutes de Calvi, village de beauté, à mi chemin de la mer et de la montagne, offre à ses nombreux visiteurs l'un des panoramas les plus beaux de Balagne."
5,Holzer,https://www.datatourisme.fr/ontology/core#PlaceOfInterest|https://www.datatourisme.fr/ontology/core#PointOfInterest|https://www.datatourisme.fr/ontology/core#Accommodation|https://www.datatourisme.fr/ontology/core#Hotel|https://www.datatourisme.fr/ontology/core#HotelTrade|http://schema.org/Accommodation|http://schema.org/LodgingBusiness|http://schema.org/Hotel,41.59,9.2769,12 rue Jean Jaures,20137,+33 4 95 70 05 93,contact@hotel-holzer.com,http://www.hotel-holzer.com/,Porto-Vecchio,"Idéalement situé en centre-ville, hôtel entièrement rénové, tout équipé. Parking. Wifi. Chambres climatisées, chaines TV étrangères. Garage moto/vélo et parking voiture gratuit (nombre de places limité)."
6,L'Autre Croisière,https://www.datatourisme.fr/ontology/core#PlaceOfInterest|https://www.datatourisme.fr/ontology/core#PointOfInterest|https://www.datatourisme.fr/ontology/core#SportsAndLeisurePlace|https://www.datatourisme.fr/ontology/core#SightseeingBoat|http://schema.org/LocalBusiness,41.389,9.1653,Port de Plaisance,20169,+33 6 07 04 22 55,lautrecroisiere@gmail.com,http://www.lautrecroisiere.com/,Bonifacio,"Dégustez nos fameuses pâtes à la langouste dans une crique des îles Lavezzi, au cœur de la Réserve Naturelle des Bouches de Bonifacio ! Journée détente et farniente. Tous les jours, départ 9h30, retour 18h. Sortie à la journée avec repas."
7,Société des Promenades en Mer de Bonifacio,https://www.datatourisme.fr/ontology/core#PlaceOfInterest|https://www.datatourisme.fr/ontology/core#PointOfInterest|https://www.datatourisme.fr/ontology/core#SportsAndLeisurePlace|https://www.datatourisme.fr/ontology/core#SightseeingBoat|http://schema.org/LocalBusiness,41.38859,9.158226,Port de Plaisance,20169,+33 4 95 10 97 50,spmbonifacio@orange.fr,http://www.spmbonifacio.com/,Bonifacio,"La Société des Promenades en Mer de Bonifacio, SPMB vous conduit au cœur de la Réserve Naturelle des Bouches de Bonifacio.
Formidables découvertes, d’1h pour les grottes et falaises et d’une journée ou une demi-journée pour l’archipel des îles Lavezzi."
8,Les Pins,https://www.datatourisme.fr/ontology/core#PlaceOfInterest|https://www.datatourisme.fr/ontology/core#PointOfInterest|https://www.datatourisme.fr/ontology/core#Accommodation|https://www.datatourisme.fr/ontology/core#CollectiveAccommodation|https://www.datatourisme.fr/ontology/core#HolidayResort|http://schema.org/Accommodation|http://schema.org/LodgingBusiness,42.564269,8.744466,Route de Porto (par la côte),20260,+33 4 95 65 26 95,residence-les-pins@calvi-location.fr,http://www.residence-les-pins.com/<>https://www.calvi-location.fr/fr/motel-les-pins_4.html,Calvi,"Résidence de vacances en corse avec piscine , située à Calvi en Balagne, au calme, dans un parc ombragé et à proximité de la mer. Connexion internet WiFi gratuite.
Promesse d'une rencontre avec... Philippe et sa réceptionniste Maria"
9,Le Saint Erasme,https://www.datatourisme.fr/ontology/core#PlaceOfInterest|https://www.datatourisme.fr/ontology/core#PointOfInterest|https://www.datatourisme.fr/ontology/core#Accommodation|https://www.datatourisme.fr/ontology/core#Hotel|https://www.datatourisme.fr/ontology/core#HotelTrade|http://schema.org/Accommodation|http://schema.org/LodgingBusiness|http://schema.org/Hotel,42.568137,8.750731,Route de Porto (par la côte),20260,+33 4 95 65 04 50,info@hotel-st-erasme.com,http://www.hotel-st-erasme.com/,Calvi,"L'hôtel Le Saint Erasme, situé à Calvi en Balagne et dominant la mer jouit d'une vue exceptionnelle surtout au coucher du soleil !
Il adhère au programme ""Rispettu"" afin de mesurer et, surtout, réduire les impacts  de l'établissement sur l'environnement."
10,Tramariccia,https://www.datatourisme.fr/ontology/core#PlaceOfInterest|https://www.datatourisme.fr/ontology/core#PointOfInterest|https://www.datatourisme.fr/ontology/core#Accommodation|https://www.datatourisme.fr/ontology/core#CollectiveAccommodation|https://www.datatourisme.fr/ontology/core#HolidayResort|http://schema.org/Accommodation|http://schema.org/LodgingBusiness,42.565083,8.746188,Route de Porto (par la côte),20260,+33 4 95 65 94 00,residence.tramariccia@wanadoo.fr,http://www.residence-tramariccia.com/,Calvi,"La Résidence Tramariccia en Balagne en Corse, vous propose différents types de locations en plein cœur d’une magnifique pinède."
11,Calvi Résidence,https://www.datatourisme.fr/ontology/core#PlaceOfInterest|https://www.datatourisme.fr/ontology/core#PointOfInterest|https://www.datatourisme.fr/ontology/core#Accommodation|https://www.datatourisme.fr/ontology/core#CollectiveAccommodation|https://www.datatourisme.fr/ontology/core#HolidayResort|http://schema.org/Accommodation|http://schema.org/LodgingBusiness,42.563953,8.742781,Route de Porto (par la côte),20260,+33 4 95 65 26 95,calvi-residence@calvi-location.fr,https://www.calviresidence.com/,Calvi,"Appartements standing climatisés, situés à Calvi, en bord de mer avec terrasse  vue imprenable sur  la Revellata.
1 place de parking privative par appartement. Promesse d'une rencontre avec... Marie-Ange, Philippe et leur réceptionniste Virginie"
13,Casa Bianca,https://www.datatourisme.fr/ontology/core#PlaceOfInterest|https://www.datatourisme.fr/ontology/core#PointOfInterest|https://www.datatourisme.fr/ontology/core#Accommodation|https://www.datatourisme.fr/ontology/core#Hotel|https://www.datatourisme.fr/ontology/core#HotelTrade|http://schema.org/Accommodation|http://schema.org/LodgingBusiness|http://schema.org/Hotel,42.563021,8.753575,Route de Santore Chemin San Francesco,20260,+33 4 95 60 08 33,info@hotel-casa-bianca.com,https://www.hotel-casa-bianca.com/,Calvi,"Les chambres de cet hôtel *** situé à Calvi en Balagne sont modernes et élégantes. Elles vous offrent une atmosphère calme et reposante qui vous laissera rêveur, pour le plus grand plaisir des amoureux et des familles en vacances en Corse."
14,Best Western Premier Santa Maria,https://www.datatourisme.fr/ontology/core#PlaceOfInterest|https://www.datatourisme.fr/ontology/core#PointOfInterest|https://www.datatourisme.fr/ontology/core#Accommodation|https://www.datatourisme.fr/ontology/core#Hotel|https://www.datatourisme.fr/ontology/core#HotelTrade|http://schema.org/Accommodation|http://schema.org/LodgingBusiness|http://schema.org/Hotel,42.638412,8.934802,Route du Port,20220,+33 4 95 63 05 05,infos@hotelsantamaria.com,http://www.hotelsantamaria.com/,L'Île-Rousse,"Idéalement situé face aux îles rousses de la ville, les pieds dans l'eau avec accès direct à la plage pour un séjour de rêve. Tout le confort d'un 4 étoiles, des terrasses et salons avec vue sur mer."
18,Fort Torretta - Fort Charlet,https://www.datatourisme.fr/ontology/core#CulturalSite|https://www.datatourisme.fr/ontology/core#PlaceOfInterest|https://www.datatourisme.fr/ontology/core#PointOfInterest|https://www.datatourisme.fr/ontology/core#DefenceSite,42.566671,8.751931,Avenue du Commandant Marche Centre de Conservation et de Restauration du Patrimoine Mobilier de Corse,20260,+33 4 20 03 94 75,contact@corse.fr,https://www.corse.fr/<>https://www.isula.corsica/,Calvi,"Cet ancien fort militaire dont la construction s'est achevée en 1845, a été bâti d'après les dessins du Capitaine de Génie Militaire Esmenard."
20,Isula Rossa,https://www.datatourisme.fr/ontology/core#PlaceOfInterest|https://www.datatourisme.fr/ontology/core#PointOfInterest|https://www.datatourisme.fr/ontology/core#Accommodation|https://www.datatourisme.fr/ontology/core#Hotel|https://www.datatourisme.fr/ontology/core#HotelTrade|http://schema.org/Accommodation|http://schema.org/LodgingBusiness|http://schema.org/Hotel,42.637996,8.935111,Route du port,20220,+33 4 95 60 01 32,hotelisularossa@wanadoo.fr,http://www.isularossa.com/,L'Île-Rousse,"L'hôtel Isula Rossa vous accueille pour votre séjour à L'Ile-Rousse. Une équipe jeune et dynamique vous attend dans cet établissement de charme situé face à la mer et à 300m du centre ville, de la plage et du port."
22,Les Oliviers,https://www.datatourisme.fr/ontology/core#PlaceOfInterest|https://www.datatourisme.fr/ontology/core#PointOfInterest|https://www.datatourisme.fr/ontology/core#Accommodation|https://www.datatourisme.fr/ontology/core#Camping|https://www.datatourisme.fr/ontology/core#CampingAndCaravanning|http://schema.org/Accommodation|http://schema.org/LodgingBusiness,42.631253,8.952512,La ferme Route de Bastia RT30,20220,+33 4 95 60 19 92,contact@camping-oliviers.com,http://www.camping-oliviers.com/,Monticello,Le camping les Oliviers vous accueille pour vos prochaines vacances sur son terrain ombragé de vieux oliviers à quelques minutes à pied du centre ville de L'Ile-Rousse et des plages. Vous pourrez vous y restaurer directement sur place.
27,Chiocca Croisières,https://www.datatourisme.fr/ontology/core#PlaceOfInterest|https://www.datatourisme.fr/ontology/core#PointOfInterest|https://www.datatourisme.fr/ontology/core#SportsAndLeisurePlace|https://www.datatourisme.fr/ontology/core#SightseeingBoat|http://schema.org/LocalBusiness,41.591235,9.283752,Port de Plaisance,20137,+33 4 95 70 33 67,vincentchiocca@aol.com,http://www.croisieres-ruscana.com/,Porto-Vecchio,"Promenade en mer à bord de nos bateaux, Ruscana et Ile de Beauté, à destination des îles Lavezzi. Repas à bord, trois menus au choix : le menu de la mer (bouillabaisse), le menu corse et le menu végétarien. Départs de Porto-Vecchio et Pinarellu."
34,A Marina,https://www.datatourisme.fr/ontology/core#PlaceOfInterest|https://www.datatourisme.fr/ontology/core#PointOfInterest|https://www.datatourisme.fr/ontology/core#Accommodation|https://www.datatourisme.fr/ontology/core#Camping|https://www.datatourisme.fr/ontology/core#CampingAndCaravanning|http://schema.org/Accommodation|http://schema.org/LodgingBusiness,42.608523,8.87424,RT30 - Lieu dit Padule Aregno Plage,20220,+33 4 95 60 75 41,info@marinacamping.fr,http://www.marinacamping.fr/,Aregno,"Camping situé à Aregno Plage, en Balagne en Corse.
Accès piétonnier (50 m) à la magnifique plage de la baie d’Algajola.
Promesse d'une rencontre avec...Isabelle et son équipe"
39,Santa Vittoria - Hôtel de la Plage,https://www.datatourisme.fr/ontology/core#FoodEstablishment|https://www.datatourisme.fr/ontology/core#PlaceOfInterest|https://www.datatourisme.fr/ontology/core#PointOfInterest|https://www.datatourisme.fr/ontology/core#Restaurant|https://www.datatourisme.fr/ontology/core#Accommodation|https://www.datatourisme.fr/ontology/core#Hotel|https://www.datatourisme.fr/ontology/core#HotelRestaurant|https://www.datatourisme.fr/ontology/core#HotelTrade|http://schema.org/Accommodation|http://schema.org/FoodEstablishment|http://schema.org/LodgingBusiness|http://schema.org/Restaurant|http://schema.org/Hotel,42.607708,8.864472,Hôtel de la Plage,20220,+33 4 95 35 17 03,martelli-jhp@orange.fr,http://www.hotelplage-vittoria-corse.com/,Algajola,"L'Hôtel de la Plage ""Santa Vittoria"" vous invite à séjourner en Balagne et en Corse dans un véritable havre de paix. Entre mer et montagne, Algajola bénéficie d'une situation exceptionnelle."
42,Bureau d'Information Touristique de la Citadelle,https://www.datatourisme.fr/ontology/core#PlaceOfInterest|https://www.datatourisme.fr/ontology/core#PointOfInterest|https://www.datatourisme.fr/ontology/core#Store|https://www.datatourisme.fr/ontology/core#LocalTouristOffice|https://www.datatourisme.fr/ontology/core#TouristInformationCenter|http://schema.org/LocalBusiness|http://schema.org/TouristInformationCenter,42.568,8.7595,Citadelle Porche d'entrée,20260,+33 4 95 65 16 67,tourisme@balagne-corsica.com,https://www.balagne-corsica.com/,Calvi,"En saison, le Bureau d'Information Touristique vous accueille à l'entrée de la Citadelle de Calvi du XIIIème siècle."
43,MUDACC - Musée des Arts de la Citadelle de Calvi,http://schema.org/Museum|https://www.datatourisme.fr/ontology/core#CulturalSite|https://www.datatourisme.fr/ontology/core#Museum|https://www.datatourisme.fr/ontology/core#PlaceOfInterest|https://www.datatourisme.fr/ontology/core#PointOfInterest|http://schema.org/LocalBusiness,42.568,8.7595,Citadelle Porche d'entrée,20260,+33 4 95 38 33 93,patrimoine.oti.calvi@gmail.com,https://www.balagne-corsica.com/,Calvi,Musée des Arts de la Citadelle de Calvi
44,Belvédère de Palombaggia,https://www.datatourisme.fr/ontology/core#PlaceOfInterest|https://www.datatourisme.fr/ontology/core#PointOfInterest|https://www.datatourisme.fr/ontology/core#Accommodation|https://www.datatourisme.fr/ontology/core#CollectiveAccommodation|https://www.datatourisme.fr/ontology/core#HolidayResort|http://schema.org/Accommodation|http://schema.org/LodgingBusiness,41.564,9.3193,Route de Palombaggia,20137,+33 4 95 70 95 70,infopalombaggia@gmail.com,http://www.palombaggia.com/,Porto-Vecchio,"A 900 mètres de la plage de Palombaggia, résidence de 16 mini-villas :
Pour 2 personnes - 55m² - 1 chambre climatisée et 1 salle d'eau ;
Pour 4 personnes - 65m² - 2 chambres climatisées et 2 salles d'eau."
45,Funtana Marina,https://www.datatourisme.fr/ontology/core#PlaceOfInterest|https://www.datatourisme.fr/ontology/core#PointOfInterest|https://www.datatourisme.fr/ontology/core#Accommodation|https://www.datatourisme.fr/ontology/core#CollectiveAccommodation|https://www.datatourisme.fr/ontology/core#HolidayResort|http://schema.org/Accommodation|http://schema.org/LodgingBusiness,41.549489,9.298516,Route de Palombaggia,20137,+33 4 95 70 33 72,info@funtanamarina.com,http://www.funtanamarina.com/,Porto-Vecchio,"Funtana Marina est un petit havre de paix face à la mer où il fait bon vivre.
La résidence vous propose 15 logements tout confort avec vue panoramique sur la mer, piscine chauffée et accès piéton aux plages d'Asciaghju, Folaca et Palombaggia."
46,Isulella Hôtel Restaurant,https://www.datatourisme.fr/ontology/core#FoodEstablishment|https://www.datatourisme.fr/ontology/core#PlaceOfInterest|https://www.datatourisme.fr/ontology/core#PointOfInterest|https://www.datatourisme.fr/ontology/core#Restaurant|https://www.datatourisme.fr/ontology/core#Accommodation|https://www.datatourisme.fr/ontology/core#Hotel|https://www.datatourisme.fr/ontology/core#HotelRestaurant|https://www.datatourisme.fr/ontology/core#HotelTrade|http://schema.org/Accommodation|http://schema.org/FoodEstablishment|http://schema.org/LodgingBusiness|http://schema.org/Restaurant|http://schema.org/Hotel,41.591485,9.308531,Route de Palombaggia,20137,+33 4 95 53 78 82,contact@isulella-hotel.com,http://www.isulella-hotel.com/,Porto-Vecchio,"Isulella, situé sur la route de Palombaggia, dans un cadre paisible, pieds dans l’eau, offrant une vue spectaculaire sur le golfe de Porto-Vecchio, avec la montagne en toile de fond. 
Animaux de compagnie acceptés / Pets Friendly."
47,U Cantu di I Cardellini,https://www.datatourisme.fr/ontology/core#PlaceOfInterest|https://www.datatourisme.fr/ontology/core#PointOfInterest|https://www.datatourisme.fr/ontology/core#Accommodation|https://www.datatourisme.fr/ontology/core#CollectiveAccommodation|https://www.datatourisme.fr/ontology/core#HolidayResort|http://schema.org/Accommodation|http://schema.org/LodgingBusiness,41.584013,9.307353,Route de Palombaggia,20137,+33 4 95 70 43 37,info@icardellini.com,http://www.icardellini.com/,Porto-Vecchio,"Promesse d'un agréable séjour dans notre coin de paradis entre plage et ville, avec piscine chauffée, terrasse et son inoubliable vue aux magnifiques couchés de soleil dignes de cartes postales."
48,U Pirellu,https://www.datatourisme.fr/ontology/core#PlaceOfInterest|https://www.datatourisme.fr/ontology/core#PointOfInterest|https://www.datatourisme.fr/ontology/core#Accommodation|https://www.datatourisme.fr/ontology/core#Camping|https://www.datatourisme.fr/ontology/core#CampingAndCaravanning|http://schema.org/Accommodation|http://schema.org/LodgingBusiness,41.589251,9.331112,Route de Palombaggia,20137,+33 4 95 70 23 44,u.pirellu@wanadoo.fr,http://camping-palombaggia.cors,Porto-Vecchio,"Notre Camping est situé dans un site exceptionnel de plus de 10 ha, au cœur de la suberaie sur la presqu’île de Palombaggia.
Le camping vous propose des emplacements très ombragés et des chalets climatisés avec vue sur la mer."
50,Hôtel Palombaggia,https://www.datatourisme.fr/ontology/core#FoodEstablishment|https://www.datatourisme.fr/ontology/core#PlaceOfInterest|https://www.datatourisme.fr/ontology/core#PointOfInterest|https://www.datatourisme.fr/ontology/core#Restaurant|https://www.datatourisme.fr/ontology/core#Accommodation|https://www.datatourisme.fr/ontology/core#Hotel|https://www.datatourisme.fr/ontology/core#HotelRestaurant|https://www.datatourisme.fr/ontology/core#HotelTrade|http://schema.org/Accommodation|http://schema.org/FoodEstablishment|http://schema.org/LodgingBusiness|http://schema.org/Restaurant|http://schema.org/Hotel,41.566187,9.334261,Route de Palombaggia,20137,+33 6 48 85 45 95,contact@hotelpalombaggia.fr,https://www.hotelpalombaggia.fr/,Porto-Vecchio,"Dans un écrin de verdure, au milieu de pins laricci endémique à la Corse et à quelques minutes à pied de la célèbre plage de Palombaggia, l’hôtel Palombaggia offre sérénité et détente."
51,Private Hôtel,https://www.datatourisme.fr/ontology/core#PlaceOfInterest|https://www.datatourisme.fr/ontology/core#PointOfInterest|https://www.datatourisme.fr/ontology/core#Accommodation|https://www.datatourisme.fr/ontology/core#Hotel|https://www.datatourisme.fr/ontology/core#HotelTrade|http://schema.org/Accommodation|http://schema.org/LodgingBusiness|http://schema.org/Hotel,41.592139,9.309837,Route de Palombaggia,20137,+33 4 95 70 13 66,contact@private-hotel-corsica.com,http://private-hotel-corsica.com/,Porto-Vecchio,"Hôtel de charme dans un parc arboré et fleuri à 300 m de la mer, avec sa vue panoramique sur le golfe de Porto-Vecchio, réservé aux adultes, vous propose 16 chambres pavillonnaires dans un style contemporain."
52,Les Terrasses de Rondinara,https://www.datatourisme.fr/ontology/core#PlaceOfInterest|https://www.datatourisme.fr/ontology/core#PointOfInterest|https://www.datatourisme.fr/ontology/core#Accommodation|https://www.datatourisme.fr/ontology/core#CollectiveAccommodation|https://www.datatourisme.fr/ontology/core#HolidayResort|http://schema.org/Accommodation|http://schema.org/LodgingBusiness,41.477,9.2676,Lieu dit Suartone Route de la plage Rondinara,20169,+33 4 95 24 28 45,terrasses@rondinara.fr,http://www.lesterrassesderondinara.com/,Bonifacio,"Villas haut de gamme, avec vue mer d'exception, en plein cœur du maquis.
La résidence vous accueille au sein d'un domaine niché dans la sérénité du maquis corse et à proximité de la magnifique plage de Rondinara. Chaque villa offre une décoration soignée."
54,Roc e Fiori,https://www.datatourisme.fr/ontology/core#PlaceOfInterest|https://www.datatourisme.fr/ontology/core#PointOfInterest|https://www.datatourisme.fr/ontology/core#Accommodation|https://www.datatourisme.fr/ontology/core#Hotel|https://www.datatourisme.fr/ontology/core#HotelTrade|http://schema.org/Accommodation|http://schema.org/LodgingBusiness|http://schema.org/Hotel,41.546736,9.284826,Bocca d'Oro,20137,+33 4 95 70 45 20,info@rocefiori.com,http://www.rocefiori.com/,Porto-Vecchio,"Laissez-vous séduire par ce véritable havre de quiétude, plein de charme.
Le Roc E Fiori se compose de 2 ensembles : « La Villa » 17 chambres et suites organisées autour du jardin et de la piscine, et « La Boiserie » 6 juniors suites au cœur des chênes."
56,L'Ondine,https://www.datatourisme.fr/ontology/core#FoodEstablishment|https://www.datatourisme.fr/ontology/core#PlaceOfInterest|https://www.datatourisme.fr/ontology/core#PointOfInterest|https://www.datatourisme.fr/ontology/core#Restaurant|https://www.datatourisme.fr/ontology/core#Accommodation|https://www.datatourisme.fr/ontology/core#Hotel|https://www.datatourisme.fr/ontology/core#HotelRestaurant|https://www.datatourisme.fr/ontology/core#HotelTrade|http://schema.org/Accommodation|http://schema.org/FoodEstablishment|http://schema.org/LodgingBusiness|http://schema.org/Restaurant|http://schema.org/Hotel,42.608218,8.863331,7A rue A Marina,20220,+33 4 95 60 70 02,contact@hotelondine.com,http://www.hotelondine.com/,Algajola,"L'Hôtel l'Ondine est situé au coeur d'Algajola, charmant petit village de bord de mer, en Balagne, sans aucun doute, l'une des plus belles régions pour d'agréables vacances en Corse, à mi-chemin entre Calvi (15 minutes) et Ile Rousse (10 minutes)."
58,Cesario,https://www.datatourisme.fr/ontology/core#PlaceOfInterest|https://www.datatourisme.fr/ontology/core#PointOfInterest|https://www.datatourisme.fr/ontology/core#Accommodation|https://www.datatourisme.fr/ontology/core#Hotel|https://www.datatourisme.fr/ontology/core#HotelTrade|http://schema.org/Accommodation|http://schema.org/LodgingBusiness|http://schema.org/Hotel,42.543739,8.798235,Route de Calenzana,20260,+33 4 95 65 95 00,contact@hotelcesario.fr,https://www.hotel-cesario.fr/,Calvi,"A seulement 5 mn en voiture des plages de Calvi et de Balagne, découvrez l'Hôtel Cesario, situé en plein maquis. Le calme dont jouit cet établissement est la promesse de vacances en Corse réussies !"
59,Le Padro,https://www.datatourisme.fr/ontology/core#PlaceOfInterest|https://www.datatourisme.fr/ontology/core#PointOfInterest|https://www.datatourisme.fr/ontology/core#Accommodation|https://www.datatourisme.fr/ontology/core#CollectiveAccommodation|https://www.datatourisme.fr/ontology/core#HolidayResort|http://schema.org/Accommodation|http://schema.org/LodgingBusiness,42.543739,8.798235,Route de Calenzana,20260,+33 4 95 65 95 00,info@viacalvi.fr,http://www.calvi-location-corse.fr/,Calvi,"A 5 mn en voiture des plages de Calvi et de Balagne, découvrez la Résidence Padro, située au calme en plein maquis et bénéficiez des prestations de l'hôtel Cesario."
60,Bureau d'Information Touristique d'Algajola,https://www.datatourisme.fr/ontology/core#PlaceOfInterest|https://www.datatourisme.fr/ontology/core#PointOfInterest|https://www.datatourisme.fr/ontology/core#Store|https://www.datatourisme.fr/ontology/core#LocalTouristOffice|https://www.datatourisme.fr/ontology/core#TouristInformationCenter|http://schema.org/LocalBusiness|http://schema.org/TouristInformationCenter,42.608405,8.860407,Gare d'Algajola,20220,+33 4 95 65 16 67,tourisme@balagne-corsica.com,https://www.balagne-corsica.com/,Algajola,Nos services … Accueil – Information – Réservation hébergement – vente de fiches randonnées – Billetterie concerts et spectacle – Billetterie train
63,Hôtel-Club Joseph Charles,https://www.datatourisme.fr/ontology/core#FoodEstablishment|https://www.datatourisme.fr/ontology/core#PlaceOfInterest|https://www.datatourisme.fr/ontology/core#PointOfInterest|https://www.datatourisme.fr/ontology/core#Restaurant|https://www.datatourisme.fr/ontology/core#Accommodation|https://www.datatourisme.fr/ontology/core#Hotel|https://www.datatourisme.fr/ontology/core#HotelRestaurant|https://www.datatourisme.fr/ontology/core#HotelTrade|http://schema.org/Accommodation|http://schema.org/FoodEstablishment|http://schema.org/LodgingBusiness|http://schema.org/Restaurant|http://schema.org/Hotel,42.632058,8.948708,Route de Bastia,20220,+33 3 87 75 77 45,info@univac.net,http://www.univac.net/,L'Île-Rousse,"Pour vos vacances, l'hôtel Joseph Charles situé pieds dans l'eau et à proximité du centre ville, vous propose une restauration avec vin inclus."
65,Bella Vista,https://www.datatourisme.fr/ontology/core#PointOfInterest|https://www.datatourisme.fr/ontology/core#Accommodation|https://www.datatourisme.fr/ontology/core#Camping|https://www.datatourisme.fr/ontology/core#CampingAndCaravanning|http://schema.org/Accommodation|http://schema.org/LodgingBusiness|https://www.datatourisme.fr/ontology/core#PlaceOfInterest,42.552492,8.756453,Route de Pietramaggiore,20260,+33 4 20 19 00 90,resa@sejoya.fr,https://www.camping-bellavista.com/,Calvi,"Le camping Bella Vista est situé à Calvi, en Balagne, dans un parc de 7 ha d'arbres et de fleurs. Vous apprécierez son calme, son confort, son accueil chaleureux pour un agréable séjour camping en Corse ."
66,La Clé des Champs,https://www.datatourisme.fr/ontology/core#PlaceOfInterest|https://www.datatourisme.fr/ontology/core#PointOfInterest|https://www.datatourisme.fr/ontology/core#Accommodation|https://www.datatourisme.fr/ontology/core#Camping|https://www.datatourisme.fr/ontology/core#CampingAndCaravanning|http://schema.org/Accommodation|http://schema.org/LodgingBusiness,42.556613,8.755347,Route de Pietramaggiore,20260,+33 4 95 65 00 86,,https://www.calvi-cledeschamps.fr/,Calvi,"La Clé des Champs, camping ombragé situé à Calvi en Corse, à proximité des activités de Balagne, vous accueille pour des vacances camping en corse.
Au cœur d'une plantation d'eucalyptus, amis campeurs vous pouvez installer vos tentes où bon vous semble."
67,Hôtel Corsica,https://www.datatourisme.fr/ontology/core#FoodEstablishment|https://www.datatourisme.fr/ontology/core#PlaceOfInterest|https://www.datatourisme.fr/ontology/core#PointOfInterest|https://www.datatourisme.fr/ontology/core#Restaurant|https://www.datatourisme.fr/ontology/core#Accommodation|https://www.datatourisme.fr/ontology/core#Hotel|https://www.datatourisme.fr/ontology/core#HotelRestaurant|https://www.datatourisme.fr/ontology/core#HotelTrade|http://schema.org/Accommodation|http://schema.org/FoodEstablishment|http://schema.org/LodgingBusiness|http://schema.org/Restaurant|http://schema.org/Hotel,42.543,8.7574,Route de Pietramaggiore,20260,+33 4 95 65 03 64,info@hotel-calvi-corsica.com,https://www.hotel-calvi-corsica.com/,Calvi,"Cet hôtel situé sur les hauteurs de Calvi en Corse, vous offre le calme et une qualité de services pour la réussite de votre séjour en Balagne. Bonnes vacances et bon séjour à Calvi !"
68,Les Castors,https://www.datatourisme.fr/ontology/core#PlaceOfInterest|https://www.datatourisme.fr/ontology/core#PointOfInterest|https://www.datatourisme.fr/ontology/core#Accommodation|https://www.datatourisme.fr/ontology/core#Camping|https://www.datatourisme.fr/ontology/core#CampingAndCaravanning|http://schema.org/Accommodation|http://schema.org/LodgingBusiness,42.557264,8.756045,Route de Pietramaggiore,20260,+33 4 20 19 00 90,resa@sejoya.fr,https://www.camping-castors.fr/,Calvi,"Réservez dès à présent votre camping à Calvi en Corse, en Balagne....""Les Castors""  possède un parc de 2 ha boisé d' eucalyptus et de peupliers.
En complément des emplacements et des mobil-homes, Les Castors vous proposent également des studios meublés."
69,Les Arbousiers,https://www.datatourisme.fr/ontology/core#PlaceOfInterest|https://www.datatourisme.fr/ontology/core#PointOfInterest|https://www.datatourisme.fr/ontology/core#Accommodation|https://www.datatourisme.fr/ontology/core#Hotel|https://www.datatourisme.fr/ontology/core#HotelTrade|http://schema.org/Accommodation|http://schema.org/LodgingBusiness|http://schema.org/Hotel,42.558387,8.756436,Route de Pietramaggiore,20260,+33 4 95 65 04 47,hotel.lesarbousiers@orange.fr,https://www.hotel-calvi-lesarbousiers.com/,Calvi,Vous rêviez d'un séjour à Calvi en Corse ? L'hôtel Les Arbousiers vous invite à profiter de sa situation privilégiée ainsi que de son jardin calme et reposant pour vos vacances en Balagne.
70,Campo di Fiori,https://www.datatourisme.fr/ontology/core#PlaceOfInterest|https://www.datatourisme.fr/ontology/core#PointOfInterest|https://www.datatourisme.fr/ontology/core#Accommodation|https://www.datatourisme.fr/ontology/core#CollectiveAccommodation|https://www.datatourisme.fr/ontology/core#HolidayResort|http://schema.org/Accommodation|http://schema.org/LodgingBusiness,42.556603,8.755357,Route de Pietramaggiore,20260,+33 4 95 48 34 60,contact@location-campodifiori.com,https://www.location-campodifiori.com/,Calvi,"Pour votre séjour de vacances en corse, optez pour cette résidence hôtelière à Calvi en Balagne.... ""Le charme et le calme d'une vaste propriété familiale"" dans un parc arboré de 4000 m²."
71,Pascal Paoli,https://www.datatourisme.fr/ontology/core#FoodEstablishment|https://www.datatourisme.fr/ontology/core#PlaceOfInterest|https://www.datatourisme.fr/ontology/core#PointOfInterest|https://www.datatourisme.fr/ontology/core#Restaurant|https://www.datatourisme.fr/ontology/core#Accommodation|https://www.datatourisme.fr/ontology/core#Hotel|https://www.datatourisme.fr/ontology/core#HotelRestaurant|https://www.datatourisme.fr/ontology/core#HotelTrade|http://schema.org/Accommodation|http://schema.org/FoodEstablishment|http://schema.org/LodgingBusiness|http://schema.org/Restaurant|http://schema.org/Hotel,42.608509,8.874985,RT 30,20220,+33 4 95 60 71 56,,http://www.hotel-pascal-paoli.fr/,Algajola,"Par sa position entre la mer et la montagne et à quelques mètres d'une plage de l'Hotel Pascal Paoli, vous offre à la fois la possibilité de vacances détente en bord de mer ou riches d'activités grâce aux nombreux équipements de loisirs dont il dispose."
82,La Bergerie,https://www.datatourisme.fr/ontology/core#FoodEstablishment|https://www.datatourisme.fr/ontology/core#PlaceOfInterest|https://www.datatourisme.fr/ontology/core#PointOfInterest|https://www.datatourisme.fr/ontology/core#Restaurant|https://www.datatourisme.fr/ontology/core#Accommodation|https://www.datatourisme.fr/ontology/core#Hotel|https://www.datatourisme.fr/ontology/core#HotelRestaurant|https://www.datatourisme.fr/ontology/core#HotelTrade|http://schema.org/Accommodation|http://schema.org/FoodEstablishment|http://schema.org/LodgingBusiness|http://schema.org/Restaurant|http://schema.org/Hotel,42.629966,8.946202,Route de Monticello,20220,+33 4 95 60 01 28,info@labergerie-corse.com,http://www.labergerie-corse.com/,Monticello,"Située sur les hauteurs de L'Ile-Rousse, la Bergerie offre une vue panoramique sur la ville et la mer. Sous l'ombre de l'olivier et au bord de la piscine, vous apprécierez la quiétude de cet endroit unique et ses 20 chambres climatisées au cœur du jardin."
83,Funtana Marina,https://www.datatourisme.fr/ontology/core#PlaceOfInterest|https://www.datatourisme.fr/ontology/core#PointOfInterest|https://www.datatourisme.fr/ontology/core#Accommodation|https://www.datatourisme.fr/ontology/core#Hotel|https://www.datatourisme.fr/ontology/core#HotelTrade|http://schema.org/Accommodation|http://schema.org/LodgingBusiness|http://schema.org/Hotel,42.627313,8.942948,Route de Monticello,20220,+33 4 95 60 16 12,hotel-funtana-marina@wanadoo.fr,http://www.hotel-funtana.com/,Monticello,"Pour votre séjour à L'Ile-Rousse et en Balagne, profitez du confort et de la vue exceptionnelle de l'hôtel Funtana Marina *** sur les hauteurs de la ville, ainsi que de son ambiance conviviale et chaleureuse."
88,La Caravelle,https://www.datatourisme.fr/ontology/core#PlaceOfInterest|https://www.datatourisme.fr/ontology/core#PointOfInterest|https://www.datatourisme.fr/ontology/core#Accommodation|https://www.datatourisme.fr/ontology/core#Hotel|https://www.datatourisme.fr/ontology/core#HotelTrade|http://schema.org/Accommodation|http://schema.org/LodgingBusiness|http://schema.org/Hotel,42.559928,8.75708,Avenue Christophe Colomb L'Orée des Pins,20260,+33 4 95 65 95 50,hotel-la-caravelle-calvi@wanadoo.fr,https://www.hotel-la-caravelle.com/,Calvi,"Dans un cadre verdoyant, La Caravelle vous offre une situation privilégiée en bordure de la plage de sable fin de Calvi pour vos vacances farniente en Balagne et en Corse !"
89,Marina Corsica,https://www.datatourisme.fr/ontology/core#FoodEstablishment|https://www.datatourisme.fr/ontology/core#PlaceOfInterest|https://www.datatourisme.fr/ontology/core#PointOfInterest|https://www.datatourisme.fr/ontology/core#Restaurant|https://www.datatourisme.fr/ontology/core#Accommodation|https://www.datatourisme.fr/ontology/core#Hotel|https://www.datatourisme.fr/ontology/core#HotelRestaurant|https://www.datatourisme.fr/ontology/core#HotelTrade|http://schema.org/Accommodation|http://schema.org/FoodEstablishment|http://schema.org/LodgingBusiness|http://schema.org/Restaurant|http://schema.org/Hotel,41.609,9.2873,Marina di Fiori Voie d'Arena,20137,+33 4 95 70 91 91,contact@marinacorsica.com,https://www.hotelmarinacorsica.com/,Porto-Vecchio,"Hôtel pieds dans l’eau à 2 min du centre-ville et du port. 
Chambres design 25 m², 3 suites familiales 60 m², piscine chauffée, plage aménagée, bar-restaurant, grand parc arboré, tennis."
90,Paese Serenu,https://www.datatourisme.fr/ontology/core#PlaceOfInterest|https://www.datatourisme.fr/ontology/core#PointOfInterest|https://www.datatourisme.fr/ontology/core#Accommodation|https://www.datatourisme.fr/ontology/core#CollectiveAccommodation|https://www.datatourisme.fr/ontology/core#HolidayResort|http://schema.org/Accommodation|http://schema.org/LodgingBusiness,41.608561,9.287016,Marina di Fiori Voie d'Arena,20137,+33 4 95 70 91 00,contact@paese-serenu.com,http://www.paese-serenu.com/,Porto-Vecchio,"Résidence 3 étoiles, les pieds dans l’eau, à 2 min du centre-ville et du port.
Appartements de 2 à 6 pers., piscine chauffée,  plage aménagée, bar restaurant, tennis, grand parc arboré."
91,"Croisière Catamaran ""Aria""",https://www.datatourisme.fr/ontology/core#PlaceOfInterest|https://www.datatourisme.fr/ontology/core#PointOfInterest|https://www.datatourisme.fr/ontology/core#SportsAndLeisurePlace|https://www.datatourisme.fr/ontology/core#SightseeingBoat|http://schema.org/LocalBusiness,41.620258,9.303755,Baie du Stagnolo,20137,+33 6 83 74 48 41,,,Porto-Vecchio,"Balade à la journée au cœur de la Réserve Naturelle des Bouches de Bonifacio et des îles Cerbicale sur un catamaran de 13 m rapide et sécurisant, accompagné par Philippe, skipper professionnel. Mouillage hors des sentiers battus !"
93,Promenade en mer Tra Mare è Monti,https://www.datatourisme.fr/ontology/core#PlaceOfInterest|https://www.datatourisme.fr/ontology/core#PointOfInterest|https://www.datatourisme.fr/ontology/core#SportsAndLeisurePlace|https://www.datatourisme.fr/ontology/core#SightseeingBoat|http://schema.org/LocalBusiness,42.565163,8.7567,Port de plaissance,20260,+33 6 32 89 33 47,tmmcalvi@gmail.com,http://www.promenadesenmercalviscandola.com/,Calvi,"Promenade en mer et Taxi Boat : lors de vos vacances en Corse, profitez de la mer à bord du Santa Regina, notre nouveau bateau de 10 mètres pouvant accueillir jusqu'à 12 personnes, pour une découverte des côtes de Corse."
96,Casa Rossa,https://www.datatourisme.fr/ontology/core#PlaceOfInterest|https://www.datatourisme.fr/ontology/core#PointOfInterest|https://www.datatourisme.fr/ontology/core#Accommodation|https://www.datatourisme.fr/ontology/core#Hotel|https://www.datatourisme.fr/ontology/core#HotelTrade|http://schema.org/Accommodation|http://schema.org/LodgingBusiness|http://schema.org/Hotel,42.631959,8.932295,Route du Fogata Boulevard Pierre Pasquini,20220,+33 4 95 60 22 76,info@hotel-casa-rossa.com,https://www.hotel-casarossa.com/,L'Île-Rousse,"Situé à 500m du centre ville et de la plage, cet hôtel de charme vous offre un cadre calme avec ses murs en pierres, sa piscine extérieure, son jardin, son spa et sa terrasse ombragée. Possibilité de séjour en formule chambre ou studio."
100,Best Western Alcyon,https://www.datatourisme.fr/ontology/core#PlaceOfInterest|https://www.datatourisme.fr/ontology/core#PointOfInterest|https://www.datatourisme.fr/ontology/core#Accommodation|https://www.datatourisme.fr/ontology/core#Hotel|https://www.datatourisme.fr/ontology/core#HotelTrade|http://schema.org/Accommodation|http://schema.org/LodgingBusiness|http://schema.org/Hotel,41.593,9.2785,Rue du Maréchal Leclerc,20137,+33 4 95 70 50 50,info@hotel-alcyon.com,https://hotel-alcyon.com/,Porto-Vecchio,"Situé face au golfe et à la citadelle de Porto-Vecchio, découvrez notre hôtel 3* contemporain.
Le Best Western Alcyon vous accueille pour vos séjours en famille, entre amis ou pour vos déplacements professionnels."
106,L'Escale Côté Sud,https://www.datatourisme.fr/ontology/core#PlaceOfInterest|https://www.datatourisme.fr/ontology/core#PointOfInterest|https://www.datatourisme.fr/ontology/core#Accommodation|https://www.datatourisme.fr/ontology/core#Hotel|https://www.datatourisme.fr/ontology/core#HotelTrade|http://schema.org/Accommodation|http://schema.org/LodgingBusiness|http://schema.org/Hotel,42.635721,8.938504,Rue Notre Dame,20220,+33 4 95 63 01 70,info@hotel-cotesud.com,https://www.escale-cote-sud.hotel-ilerousse.com/,L'Île-Rousse,"Au coeur de la cité paoline, tout proche des plages, profitez de nos  18 chambres côté mer ou ville dans un style raffiné et moderne. Pour vos soirées et dîners, le Lounge Bar ""Le Rendez-Vous"" ou l'Escale vous accueillent midi et soir face à la mer."
116,La Signoria,https://www.datatourisme.fr/ontology/core#FoodEstablishment|https://www.datatourisme.fr/ontology/core#PlaceOfInterest|https://www.datatourisme.fr/ontology/core#PointOfInterest|https://www.datatourisme.fr/ontology/core#Restaurant|https://www.datatourisme.fr/ontology/core#Accommodation|https://www.datatourisme.fr/ontology/core#Hotel|https://www.datatourisme.fr/ontology/core#HotelRestaurant|https://www.datatourisme.fr/ontology/core#HotelTrade|http://schema.org/Accommodation|http://schema.org/FoodEstablishment|http://schema.org/LodgingBusiness|http://schema.org/Restaurant|http://schema.org/Hotel,42.5372,8.785338,Route de la Forêt de Bonifato,20260,+33 4 95 65 93 00,info@hotel-la-signoria.com,https://www.hotel-la-signoria.com/,Calvi,"Aux portes de Calvi, l'ancien domaine génois de la Paratella fut concédé par Louis XV au Marquis Murat de Sistrière et c'est dans ce décor que vous attend aujourd'hui votre hôtel de charme en Corse. Bon séjour en Balagne !"
121,Paduella,https://www.datatourisme.fr/ontology/core#PlaceOfInterest|https://www.datatourisme.fr/ontology/core#PointOfInterest|https://www.datatourisme.fr/ontology/core#Accommodation|https://www.datatourisme.fr/ontology/core#Camping|https://www.datatourisme.fr/ontology/core#CampingAndCaravanning|http://schema.org/Accommodation|http://schema.org/LodgingBusiness,42.552348,8.764396,Avenue Christophe Colomb,20260,+33 4 95 65 06 16,info@campingpaduella.com,http://www.campingpaduella.com/,Calvi,"Soigneusement entretenu et familial, le Camping Paduella est situé à Calvi, en Balagne en Corse. Il offre au voyageur un espace varié et ombragé pour un séjour camping en corse inoubliable."
122,Cyrnea,https://www.datatourisme.fr/ontology/core#PlaceOfInterest|https://www.datatourisme.fr/ontology/core#PointOfInterest|https://www.datatourisme.fr/ontology/core#Accommodation|https://www.datatourisme.fr/ontology/core#Hotel|https://www.datatourisme.fr/ontology/core#HotelTrade|http://schema.org/Accommodation|http://schema.org/LodgingBusiness|http://schema.org/Hotel,42.552622,8.764062,Avenue Christophe Colomb,20260,+33 4 95 65 03 35,reservation@hotel-cyrnea.fr,https://www.hotel-cyrnea.fr/,Calvi,"Calvi en Balagne...au coeur de la Méditerranée, terre d'histoire et de culture, île de Beauté aux multiples facettes. Un soleil fidèle et généreux, des plages de sable fin, des criques sauvages pour des vacances réussies en Corse."
123,Calvi Hôtel,https://www.datatourisme.fr/ontology/core#PlaceOfInterest|https://www.datatourisme.fr/ontology/core#PointOfInterest|https://www.datatourisme.fr/ontology/core#Accommodation|https://www.datatourisme.fr/ontology/core#Hotel|https://www.datatourisme.fr/ontology/core#HotelTrade|http://schema.org/Accommodation|http://schema.org/LodgingBusiness|http://schema.org/Hotel,42.557567,8.758636,Avenue Christophe Colomb,20260,+33 4 95 65 26 79,calvi-hotel@wanadoo.fr,https://www.calvi-hotel.com/,Calvi,"Hôtel 3 étoiles en corse, situé en Balagne, à 50 m. de la plage de sable fin de Calvi. Vous pourrez visiter les villages alentours et la Corse grâce aux excursions en autocars proposées au départ de l'hôtel."
124,L'Onda,https://www.datatourisme.fr/ontology/core#PlaceOfInterest|https://www.datatourisme.fr/ontology/core#PointOfInterest|https://www.datatourisme.fr/ontology/core#Accommodation|https://www.datatourisme.fr/ontology/core#Hotel|https://www.datatourisme.fr/ontology/core#HotelTrade|http://schema.org/Accommodation|http://schema.org/LodgingBusiness|http://schema.org/Hotel,42.558128,8.75798,Avenue Christophe Colomb,20260,+33 4 95 65 35 00,hotelonda.calvi@gmail.com,http://www.hotel-londa.com/,Calvi,"L'hôtel jouit d'une situation privilégiée en bordure de la pinède de Calvi en Corse, au bord de la plage de sable fin, à proximité du port de plaisance, du centre ville, des boutiques et des grandes surfaces. Toutes les chambres ont une loggia privée."
128,Nave Va,https://www.datatourisme.fr/ontology/core#PlaceOfInterest|https://www.datatourisme.fr/ontology/core#PointOfInterest|https://www.datatourisme.fr/ontology/core#SportsAndLeisurePlace|https://www.datatourisme.fr/ontology/core#SightseeingBoat|http://schema.org/LocalBusiness,42.268455,8.693683,Place de la Marine Porto,20198,+33 4 95 25 94 14,naveva@naveva.com,http://www.naveva.com/,Ota,"Découvrez des paysages exceptionnels, vivez des moments inoubliables à bord de navires hybrides silencieux et d'embarcations semi-rigides. De Porto à Ajaccio, embarquez pour les calanche de Piana, Scandola, Bonifacio ou les îles sanguinaires."
133,Office de Tourisme Calvi Balagne,https://www.datatourisme.fr/ontology/core#PlaceOfInterest|https://www.datatourisme.fr/ontology/core#PointOfInterest|https://www.datatourisme.fr/ontology/core#Store|https://www.datatourisme.fr/ontology/core#LocalTouristOffice|https://www.datatourisme.fr/ontology/core#TouristInformationCenter|http://schema.org/LocalBusiness|http://schema.org/TouristInformationCenter,42.565109,8.75635,Port de Plaisance Chemin de la Plage,20260,+33 4 95 65 16 67,tourisme@balagne-corsica.com,https://www.balagne-corsica.com/,Calvi,"L'Office de Tourisme Intercommunal Calvi-Balagne vous accueille toute l'année dans ses bureaux du port de plaisance avec vue sur la mer et les montagnes.
En saison, un bureau d'accueil est ouvert à l'entrée de la Citadelle du XIIIème siècle."
134,Eglise Sainte Marie Majeure,https://www.datatourisme.fr/ontology/core#CulturalSite|https://www.datatourisme.fr/ontology/core#PlaceOfInterest|https://www.datatourisme.fr/ontology/core#PointOfInterest|https://www.datatourisme.fr/ontology/core#ReligiousSite|https://www.datatourisme.fr/ontology/core#Church,42.566551,8.757658,Rue Clemenceau,20260,+33 4 95 65 00 72,,,Calvi,"Un peu d'histoire...
Construite à partir de 1774, elle présente un plan centré agrémenté d'un clocher néo-gothique érigé au cours du XIXème.
Le décor intérieur néo-classique lui a valu son classement en 1988."
140,Le Niobel,https://www.datatourisme.fr/ontology/core#FoodEstablishment|https://www.datatourisme.fr/ontology/core#PlaceOfInterest|https://www.datatourisme.fr/ontology/core#PointOfInterest|https://www.datatourisme.fr/ontology/core#Restaurant|https://www.datatourisme.fr/ontology/core#Accommodation|https://www.datatourisme.fr/ontology/core#Hotel|https://www.datatourisme.fr/ontology/core#HotelRestaurant|https://www.datatourisme.fr/ontology/core#HotelTrade|http://schema.org/Accommodation|http://schema.org/FoodEstablishment|http://schema.org/LodgingBusiness|http://schema.org/Restaurant|http://schema.org/Hotel,42.587183,9.021134,Lieu-dit Aghjola Quartier Rimessa,20226,+33 4 95 61 34 00,hotel.leniobel@yahoo.fr,http://www.leniobel.com/,Belgodère,L'Hôtel Le Niobel situé au cœur du village de Belgodère à 14km de l'Ile-Rousse vous propose un séjour authentique et convivial avec ses 11 chambres au confort douillet qui vous fera vous sentir comme à la maison.
141,Eglise Saint Roch de Zilia,https://www.datatourisme.fr/ontology/core#CulturalSite|https://www.datatourisme.fr/ontology/core#PlaceOfInterest|https://www.datatourisme.fr/ontology/core#PointOfInterest|https://www.datatourisme.fr/ontology/core#ReligiousSite|https://www.datatourisme.fr/ontology/core#Church,42.530433,8.900879,,20214,+33 4 95 62 71 59,,,Zilia,"L'église de Zilia est située au coeur du village; elle est dédiée à Saint Roch, San Roccu, saint très vénéré en Balagne."
142,Plage de Calvi,https://www.datatourisme.fr/ontology/core#PlaceOfInterest|https://www.datatourisme.fr/ontology/core#PointOfInterest|https://www.datatourisme.fr/ontology/core#SportsAndLeisurePlace|https://www.datatourisme.fr/ontology/core#Beach|https://www.datatourisme.fr/ontology/core#NaturalHeritage|http://schema.org/Landform,42.562343,8.756381,,20260,+33 4 95 47 07 21,,,Calvi,"La plage de Calvi… l’une des plus belles plages et golfe de Corse
Les 5 km de sable blanc de la plage de Calvi forment un arc de cercle naturel et dévoilent au visiteur une vue imprenable sur la citadelle génoise et la Cité
de Christophe Colomb."
145,Résidence Les Castors,https://www.datatourisme.fr/ontology/core#PlaceOfInterest|https://www.datatourisme.fr/ontology/core#PointOfInterest|https://www.datatourisme.fr/ontology/core#Accommodation|https://www.datatourisme.fr/ontology/core#CollectiveAccommodation|https://www.datatourisme.fr/ontology/core#HolidayResort|http://schema.org/Accommodation|http://schema.org/LodgingBusiness,42.557256,8.75607,,20260,+33 4 20 19 00 90,resa@sejoya.fr,https://residence-castors.fr/,Calvi,"Avec un emplacement de premier ordre en Balagne, la résidence de vacances Les Castors se trouve seulement à quelques mètres de la plage de sable fin de Calvi et vous offre l'avantage de pouvoir accéder à tout sans avoir besoin de votre véhicule ."
152,Voyage à voile,https://www.datatourisme.fr/ontology/core#PlaceOfInterest|https://www.datatourisme.fr/ontology/core#PointOfInterest|https://www.datatourisme.fr/ontology/core#SportsAndLeisurePlace|https://www.datatourisme.fr/ontology/core#SightseeingBoat|http://schema.org/LocalBusiness,42.565196,8.756928,,20260,+33 6 87 49 24 04,christophepoirat@gmail.com,https://www.voyageavoile.com/,Calvi,"Location de voilier avec Capitaine  Skipper à Calvi ou l’Île-Rousse en Corse.
Embarquer pour une sortie en voilier en mer à la journée en voilier pour vivre une promenade en mer inoubliable !"
153,Ruines du couvent Saint François,https://www.datatourisme.fr/ontology/core#CulturalSite|https://www.datatourisme.fr/ontology/core#PlaceOfInterest|https://www.datatourisme.fr/ontology/core#PointOfInterest|https://www.datatourisme.fr/ontology/core#ReligiousSite|https://www.datatourisme.fr/ontology/core#Convent,42.570249,8.755506,,20260,+33 4 95 65 00 72,,,Calvi,"Ruines de l'ancien couvent observantin San Francescu Vechju fondé en 1236 par un disciple de Saint François. Achevé vers 1257, il possédait une marine au lieu dit Roncu et occupait l'ensemble de la pointe. Il sera ruiné par le siège de Calvi en 1554 ."
158,Village abandonné d'Oci ou Occi,https://www.datatourisme.fr/ontology/core#ArcheologicalSite|https://www.datatourisme.fr/ontology/core#CulturalSite|https://www.datatourisme.fr/ontology/core#PlaceOfInterest|https://www.datatourisme.fr/ontology/core#PointOfInterest|https://www.datatourisme.fr/ontology/core#Ruins,42.584157,8.839069,,20260,+33 4 95 65 16 67,casacumuna@paesedilumiu.fr,https://www.mairie-lumio.fr/,Lumio,"Oci, quand la lumière rencontre la pierre…
Le village abandonné d’Occi se situe au dessus de Lumio, en Balagne, niché sur un plateau à 377 mètres d’altitude offrant une vue panoramique époustouflante.... A vos souliers… un, deux, trois, partez !"
159,Le Monte Ortu,https://www.datatourisme.fr/ontology/core#PlaceOfInterest|https://www.datatourisme.fr/ontology/core#PointOfInterest|https://www.datatourisme.fr/ontology/core#Accommodation|https://www.datatourisme.fr/ontology/core#Camping|https://www.datatourisme.fr/ontology/core#CampingAndCaravanning|http://schema.org/Accommodation|http://schema.org/LodgingBusiness,42.583916,8.822034,,20260,+33 4 95 60 73 93,,https://camping-monteortu.cors,Lumio,"Camping, restaurant-pizzeria, bar situé à Lumio en Balagne avec vue panoramique sur la baie et la citadelle de Calvi en Corse."
166,La Santa,https://www.datatourisme.fr/ontology/core#FoodEstablishment|https://www.datatourisme.fr/ontology/core#PlaceOfInterest|https://www.datatourisme.fr/ontology/core#PointOfInterest|https://www.datatourisme.fr/ontology/core#Restaurant|https://www.datatourisme.fr/ontology/core#Accommodation|https://www.datatourisme.fr/ontology/core#Hotel|https://www.datatourisme.fr/ontology/core#HotelRestaurant|https://www.datatourisme.fr/ontology/core#HotelTrade|http://schema.org/Accommodation|http://schema.org/FoodEstablishment|http://schema.org/LodgingBusiness|http://schema.org/Restaurant|http://schema.org/Hotel,42.604342,8.930222,,20220,+33 4 95 60 04 73,hotelasanta@orange.fr,http://www.hotel-la-santa.com/,Santa-Reparata-di-Balagna,"L'hôtel La Santa*** , à l'image de la Corse et de ses valeurs séculaires, est un établissement où se côtoient accueil chaleureux, convivialité, confort de chambres rénovées dans un esprit moderne, et une table reconnue par le Titre de Maître Restaurateur"
168,A Flatta,https://www.datatourisme.fr/ontology/core#FoodEstablishment|https://www.datatourisme.fr/ontology/core#PlaceOfInterest|https://www.datatourisme.fr/ontology/core#PointOfInterest|https://www.datatourisme.fr/ontology/core#Restaurant|https://www.datatourisme.fr/ontology/core#Accommodation|https://www.datatourisme.fr/ontology/core#Hotel|https://www.datatourisme.fr/ontology/core#HotelRestaurant|https://www.datatourisme.fr/ontology/core#HotelTrade|http://schema.org/Accommodation|http://schema.org/FoodEstablishment|http://schema.org/LodgingBusiness|http://schema.org/Restaurant|http://schema.org/Hotel,42.495422,8.881248,,20214,+33 4 95 62 80 38,info@aflatta.com,http://www.aflatta.com/,Calenzana,"Cet établissement de charme alliant luxe et authenticité,  situé au pied des montagnes et de la forêt de la Flatta à Calenzana en Balagne, surplombe le golfe de Calvi. A proximité de nombreuses activités, du GR20 et à 20 mn de Calvi et de ses plages."
169,Eglise Saint Blaise,https://www.datatourisme.fr/ontology/core#CulturalSite|https://www.datatourisme.fr/ontology/core#PlaceOfInterest|https://www.datatourisme.fr/ontology/core#PointOfInterest|https://www.datatourisme.fr/ontology/core#ReligiousSite|https://www.datatourisme.fr/ontology/core#Church,42.508316,8.855248,,20214,+33 4 95 62 70 08,,,Calenzana,"L'église paroissiale de Calenzana, classée monument historique, est un des principaux édifices baroques de la Balagne."
170,Eglise Saint Roch de Moncale,https://www.datatourisme.fr/ontology/core#CulturalSite|https://www.datatourisme.fr/ontology/core#PlaceOfInterest|https://www.datatourisme.fr/ontology/core#PointOfInterest|https://www.datatourisme.fr/ontology/core#ReligiousSite|https://www.datatourisme.fr/ontology/core#Church,42.509683,8.836827,,20214,+33 4 95 62 71 12,moncale.mairie@wanadoo.fr,,Moncale,L'église baroque de Moncale est dédiée à Saint Roch que l'on fête chaque année le 16 août.
172,Couvent de Marcassu,https://www.datatourisme.fr/ontology/core#CulturalSite|https://www.datatourisme.fr/ontology/core#PlaceOfInterest|https://www.datatourisme.fr/ontology/core#PointOfInterest|https://www.datatourisme.fr/ontology/core#ReligiousSite|https://www.datatourisme.fr/ontology/core#Convent,42.574085,8.886734,,20225,,,,Cateri,"La première pierre de ce couvent de Balagne fût posée le 5 septembre 1623, sur des terrains cédés gracieusement par trois habitants de Cateri. Elle fit l'objet d'une cérémonie officielle. L'édifice domine toute la plaine d'Aregno."
178,Eglise A Nunziata,https://www.datatourisme.fr/ontology/core#CulturalSite|https://www.datatourisme.fr/ontology/core#PlaceOfInterest|https://www.datatourisme.fr/ontology/core#PointOfInterest|https://www.datatourisme.fr/ontology/core#ReligiousSite|https://www.datatourisme.fr/ontology/core#Convent,42.615232,8.906988,,20220,,,,Corbara,"Cet édifice baroque datant du 17e siècle a été construit pour remplacer l’ancienne église devenue trop petite, qui se situait à « Piazza Save ». Annexe de la cathédrale d’Aléria, elle a été élevée au rang de Collégiale par le Pape Benoît XIV."
179,Couvent Saint Dominique,https://www.datatourisme.fr/ontology/core#CulturalSite|https://www.datatourisme.fr/ontology/core#PlaceOfInterest|https://www.datatourisme.fr/ontology/core#PointOfInterest|https://www.datatourisme.fr/ontology/core#ReligiousSite|https://www.datatourisme.fr/ontology/core#Convent,42.603079,8.91216,,20220,,,,Corbara,"Le couvent de Saint-Dominique fondé en 1456 par deux religieux Franciscains de l’Ordre des Observantins. Après avoir été détruit lors de la Révolution, les Dominicains le reconstruisent en lieu d’étude. Il est occupé par la communauté de Saint-Jean."
180,Plage de Ghjunchitu et Bodri,https://www.datatourisme.fr/ontology/core#PlaceOfInterest|https://www.datatourisme.fr/ontology/core#PointOfInterest|https://www.datatourisme.fr/ontology/core#SportsAndLeisurePlace|https://www.datatourisme.fr/ontology/core#Beach|https://www.datatourisme.fr/ontology/core#NaturalHeritage|http://schema.org/Landform,42.627,8.9058,,20220,,,,Corbara,"Venez profiter des plages de Bodri et de Ghjunchitu. Vous les trouverez en contrebas de la route qui vous mène de L’Ile-Rousse à Calvi. Et si vous préférez oublier la voiture,  prenez le tramway des plages qui vous déposera sur le sentier qui y emmène."
199,Plage de L'Ile-Rousse,https://www.datatourisme.fr/ontology/core#PlaceOfInterest|https://www.datatourisme.fr/ontology/core#PointOfInterest|https://www.datatourisme.fr/ontology/core#SportsAndLeisurePlace|https://www.datatourisme.fr/ontology/core#Beach|https://www.datatourisme.fr/ontology/core#NaturalHeritage|http://schema.org/Landform,42.634,8.9418,,20220,,,,L'Île-Rousse,Vous venez d’arriver à L’Ile-Rousse en Balagne ? La mer borde notre belle cité paoline depuis les îles de la Pietra jusqu’à la plage de Caruchettu. Ce n’est pas une plage qui vous attend à L’Ile-Rousse mais bien trois plages.
200,Serra di Scopamena : découvrez l'histoire pastorale corse sur ce sentier du patrimoine,https://www.datatourisme.fr/ontology/core#PlaceOfInterest|https://www.datatourisme.fr/ontology/core#PointOfInterest|https://www.datatourisme.fr/ontology/core#SportsAndLeisurePlace|https://www.datatourisme.fr/ontology/core#Tour|https://www.datatourisme.fr/ontology/core#WalkingTour|https://www.datatourisme.fr/ontology/core#EducationalTrail|http://purl.org/ontology/olo/core#OrderedList,41.753497,9.097305,,20127,,,,Serra-di-Scopamène,"Au coeur du village de Serra di Scopamena, empruntez un magnifique chemin qui serpente entre des murs en pierre sèche bordant d’anciens jardins potagers à la découverte d’un bâti traditionnel emblématique de la culture montagnarde du sud de la Corse."
204,Corsica Sud Croisières,https://www.datatourisme.fr/ontology/core#PlaceOfInterest|https://www.datatourisme.fr/ontology/core#PointOfInterest|https://www.datatourisme.fr/ontology/core#SportsAndLeisurePlace|https://www.datatourisme.fr/ontology/core#SightseeingBoat|http://schema.org/LocalBusiness,41.591196,9.283819,Port de Plaisance Quai Pascal Paoli,20137,+33 6 18 90 79 23,resa@corsicasudcroisieres.com,http://corsicasudcroisieres.com/,Porto-Vecchio,Excursions en mer depuis Porto-Vecchio à la découverte des joyaux de l'Extrême-Sud de la Corse (Lavezzi - Bonifacio) et de la Sardaigne en petit comité 12 personnes maximum . Nous sensibilisons nos passagers sur la protection de l'environnement.
206,Casa di Luna,https://www.datatourisme.fr/ontology/core#PlaceOfInterest|https://www.datatourisme.fr/ontology/core#PointOfInterest|https://www.datatourisme.fr/ontology/core#Accommodation|https://www.datatourisme.fr/ontology/core#Camping|https://www.datatourisme.fr/ontology/core#CampingAndCaravanning|http://schema.org/Accommodation|http://schema.org/LodgingBusiness,42.412766,8.691103,Domaine de Vaitella,20245,+33 6 77 72 84 19,casadiluna@live.fr,https://casadiluna.net/,Galéria,"Camping idéalement situé près de Calvi en Balagne, entre mer et montagne, à cheval sur deux torrents dans la vallée du Fango, à 5 km de la mer, 1 km de la rivière, aux portes de Scandola, au pied de plus belles montagnes de Corse."
209,San Giovanni,https://www.datatourisme.fr/ontology/core#FoodEstablishment|https://www.datatourisme.fr/ontology/core#PlaceOfInterest|https://www.datatourisme.fr/ontology/core#PointOfInterest|https://www.datatourisme.fr/ontology/core#Restaurant|https://www.datatourisme.fr/ontology/core#Accommodation|https://www.datatourisme.fr/ontology/core#Hotel|https://www.datatourisme.fr/ontology/core#HotelRestaurant|https://www.datatourisme.fr/ontology/core#HotelTrade|http://schema.org/Accommodation|http://schema.org/FoodEstablishment|http://schema.org/LodgingBusiness|http://schema.org/Restaurant|http://schema.org/Hotel,41.579909,9.254862,Route d'Arca,20137,+33 4 95 70 22 25,info@hotel-san-giovanni.com,http://www.hotel-san-giovanni.com/,Porto-Vecchio,"Niché dans un domaine floral, le San Giovanni est un lieu de détente absolue alliant charme & sérénité.
Proche du centre et des plages pour une escapade romantique ou en famille, profitez de la piscine, du jacuzzi, restaurez-vous avec nos menus gourmands."
210,Le Panoramic,https://www.datatourisme.fr/ontology/core#PlaceOfInterest|https://www.datatourisme.fr/ontology/core#PointOfInterest|https://www.datatourisme.fr/ontology/core#Accommodation|https://www.datatourisme.fr/ontology/core#Camping|https://www.datatourisme.fr/ontology/core#CampingAndCaravanning|http://schema.org/Accommodation|http://schema.org/LodgingBusiness,42.588916,8.847114,Route de Lavatoggio,20260,+33 5 61 69 05 07,panoramic@vacances-andretrigano.com,https://vacances-andretrigano.com/camping/haute-corse/le-panoramic-lavatoggio,Lumio,"A 10 mn en voiture de plusieurs belles plages de sable fin de la Balagne, le Camping Panoramic occupe un site privilégié entre L'Ile-Rousse et Calvi, dans un cadre exceptionnel entre Mer et Montagne. Vue imprenable sur la Marine de Sant'Ambroggio."
211,Casa Orfea,https://www.datatourisme.fr/ontology/core#PlaceOfInterest|https://www.datatourisme.fr/ontology/core#PointOfInterest|https://www.datatourisme.fr/ontology/core#Accommodation|https://www.datatourisme.fr/ontology/core#Hotel|https://www.datatourisme.fr/ontology/core#HotelTrade|http://schema.org/Accommodation|http://schema.org/LodgingBusiness|http://schema.org/Hotel,42.608,8.8637,1 Rue A Marina,20220,+33 4 95 57 90 08,casa.orfea.algajola@gmail.com,https://www.hotel-algajola-corsica.com/,Algajola,"Casa Orfea est un établissement familial situé à Algajola, village de pêcheurs près de Calvi. L’hôtel, au style vintage, offre une atmosphère chaleureuse, entre charme désuet et authenticité. Les mots d’ordre sont simplicité, hospitalité et convivialité."
216,Sole di Dume,https://www.datatourisme.fr/ontology/core#PlaceOfInterest|https://www.datatourisme.fr/ontology/core#PointOfInterest|https://www.datatourisme.fr/ontology/core#Accommodation|https://www.datatourisme.fr/ontology/core#Hotel|https://www.datatourisme.fr/ontology/core#HotelTrade|http://schema.org/Accommodation|http://schema.org/LodgingBusiness|http://schema.org/Hotel,41.523839,9.219267,Pasteloso,20146,+33 6 25 95 55 81,cecile.vacca@orange.fr,http://www.stelladidiana.com/,Sotta,"Au calme dans la campagne corse, Sole di Dumè vous propose 10 mini villas tout confort en formule locative ou hôtelière pour 2 à 5 pers, grande piscine commune, 6 km de Santa Giulia, 10 km de Porto Vecchio, 5 km du village de Sotta (premiers commerces)."
219,Arinella,https://www.datatourisme.fr/ontology/core#PlaceOfInterest|https://www.datatourisme.fr/ontology/core#PointOfInterest|https://www.datatourisme.fr/ontology/core#Accommodation|https://www.datatourisme.fr/ontology/core#CollectiveAccommodation|https://www.datatourisme.fr/ontology/core#HolidayResort|http://schema.org/Accommodation|http://schema.org/LodgingBusiness,42.576678,8.808554,Route de la Mer,20260,+33 4 95 60 60 60,infos@arinella.com,https://www.arinella.fr/,Lumio,"Vous apprécierez la situation de cette résidence, située au calme, près de la mer et de la plage de Lumio que vous pouvez rejoindre à pied. Vous vous laisserez également séduire par la vue sur la baie et la citadelle de Calvi."
220,La Villa Calvi,https://www.datatourisme.fr/ontology/core#FoodEstablishment|https://www.datatourisme.fr/ontology/core#PlaceOfInterest|https://www.datatourisme.fr/ontology/core#PointOfInterest|https://www.datatourisme.fr/ontology/core#Restaurant|https://www.datatourisme.fr/ontology/core#Accommodation|https://www.datatourisme.fr/ontology/core#Hotel|https://www.datatourisme.fr/ontology/core#HotelRestaurant|https://www.datatourisme.fr/ontology/core#HotelTrade|http://schema.org/Accommodation|http://schema.org/FoodEstablishment|http://schema.org/LodgingBusiness|http://schema.org/Restaurant|http://schema.org/Hotel,42.555582,8.745255,Chemin Notre Dame de la Serra,20260,+33 4 95 65 10 10,reservation@lavilla.fr,https://www.lavilla.fr/,Calvi,Hôtel d'exception dominant la baie et la citadelle de Calvi en Corse. Votre séjour en Balagne dans un établissement alliant caractère et modernité.
221,Hôtel Davia,https://www.datatourisme.fr/ontology/core#PlaceOfInterest|https://www.datatourisme.fr/ontology/core#PointOfInterest|https://www.datatourisme.fr/ontology/core#Accommodation|https://www.datatourisme.fr/ontology/core#Hotel|https://www.datatourisme.fr/ontology/core#HotelTrade|http://schema.org/Accommodation|http://schema.org/LodgingBusiness|http://schema.org/Hotel,42.626831,8.921511,5 Col Fogata,20220,+33 4 95 60 87 09,daviahotel@gmail.com,,L'Île-Rousse,"Calme et raffiné, l'Hôtel Davia est un établissement convivial et contemporain, idéalement situé pour profiter en couple et en famille, d'une vue panoramique sur la mer mais aussi, pour partir à la découverte des trésors de  Balagne."
222,A Piattatella,https://www.datatourisme.fr/ontology/core#FoodEstablishment|https://www.datatourisme.fr/ontology/core#PlaceOfInterest|https://www.datatourisme.fr/ontology/core#PointOfInterest|https://www.datatourisme.fr/ontology/core#Restaurant|https://www.datatourisme.fr/ontology/core#Accommodation|https://www.datatourisme.fr/ontology/core#Hotel|https://www.datatourisme.fr/ontology/core#HotelRestaurant|https://www.datatourisme.fr/ontology/core#HotelTrade|http://schema.org/Accommodation|http://schema.org/FoodEstablishment|http://schema.org/LodgingBusiness|http://schema.org/Restaurant|http://schema.org/Hotel,42.612201,8.958262,Chemin Saint François,20220,+33 4 95 60 07 00,info@apiattatella.com,https://www.hotel-corse-apiattatella.com/,Monticello,"A Piattatella, littéralement une cachette en Corse vous accueille dans son univers luxe au naturel. Les 17 chambres de ce petit hôtel spa de charme partagent outre des équipements et services dignes d'un hôtel 5 étoiles, une vue sur la vallée du Reginu."
224,Perla Rossa,https://www.datatourisme.fr/ontology/core#PlaceOfInterest|https://www.datatourisme.fr/ontology/core#PointOfInterest|https://www.datatourisme.fr/ontology/core#Accommodation|https://www.datatourisme.fr/ontology/core#Hotel|https://www.datatourisme.fr/ontology/core#HotelTrade|http://schema.org/Accommodation|http://schema.org/LodgingBusiness|http://schema.org/Hotel,42.636093,8.938393,20220 30 rue Notre Dame,20220,+33 4 95 48 45 30,info@hotelperlarossa.com,http://www.hotelperlarossa.com/,L'Île-Rousse,"Cet ancien Palais du XVIIIe siècle avec ses neuf suites à la décoration minimaliste et épurée, se situe en bordure d'une magnifique plage de sable fin, l'hôtel Perla Rossa vous offre un service personnalisé et raffiné, pour un séjour inoubliable."
225,Villa Joséphine,https://www.datatourisme.fr/ontology/core#FoodEstablishment|https://www.datatourisme.fr/ontology/core#PlaceOfInterest|https://www.datatourisme.fr/ontology/core#PointOfInterest|https://www.datatourisme.fr/ontology/core#Restaurant|https://www.datatourisme.fr/ontology/core#Accommodation|https://www.datatourisme.fr/ontology/core#Hotel|https://www.datatourisme.fr/ontology/core#HotelRestaurant|https://www.datatourisme.fr/ontology/core#HotelTrade|http://schema.org/Accommodation|http://schema.org/FoodEstablishment|http://schema.org/LodgingBusiness|http://schema.org/Restaurant|http://schema.org/Hotel,42.627661,8.934496,Lieu-dit Miratu Polu Rue Bisgambiglia,20220,+33 4 95 58 95 80,contact@villajosephine.corsic,https://www.villajosephine.cors,L'Île-Rousse,"La Villa Joséphine se situe dans une végétation méditerranéenne apaisante. À proximité du centre ville et des plages, savourez l’intimité et  la tranquillité qu’il offre. Telle une maison de famille, l'hôtel décline le vocabulaire des bâtisses corses."
226,Les Terrasses d'Arsella,https://www.datatourisme.fr/ontology/core#PlaceOfInterest|https://www.datatourisme.fr/ontology/core#PointOfInterest|https://www.datatourisme.fr/ontology/core#Accommodation|https://www.datatourisme.fr/ontology/core#CollectiveAccommodation|https://www.datatourisme.fr/ontology/core#HolidayResort|http://schema.org/Accommodation|http://schema.org/LodgingBusiness,41.661749,9.322202,Route de Portovecchiaccio,20137,+33 4 95 71 25 36,contact@residencearsella.com,https://www.pierreetvacances.com/,Lecci,"RESIDENCE PREMIUM PIERRE & VACANCES. Nichée au cœur d'un environnement calme et préservé, la récente résidence premium Les Terrasses d'Arsella vous invite à vivre une expérience unique et relaxante en pleine nature."
228,L'Isula di i Sogni,https://www.datatourisme.fr/ontology/core#CulturalSite|https://www.datatourisme.fr/ontology/core#PlaceOfInterest|https://www.datatourisme.fr/ontology/core#PointOfInterest|https://www.datatourisme.fr/ontology/core#SportsAndLeisurePlace|https://www.datatourisme.fr/ontology/core#Farm|https://www.datatourisme.fr/ontology/core#TeachingFarm|https://www.datatourisme.fr/ontology/core#TechnicalHeritage,42.604791,8.873169,Ferme Pédagogique Plaine d'Aregno,20220,+33 6 33 29 93 58,,,Aregno,"La ferme pédagogique l’Isula di i Sogni sera heureuse de vous accueillir au sein de son parc de 3 hectares avec vue mer et coucher de soleil.
Un lieu idéal pour découvrir le monde animal pour les petits et les grands !"
230,L'Alba,https://www.datatourisme.fr/ontology/core#FoodEstablishment|https://www.datatourisme.fr/ontology/core#PlaceOfInterest|https://www.datatourisme.fr/ontology/core#PointOfInterest|https://www.datatourisme.fr/ontology/core#SportsAndLeisurePlace|https://www.datatourisme.fr/ontology/core#BistroOrWineBar|http://schema.org/FoodEstablishment|http://schema.org/Winery,41.59027,9.279853,43 rue Borgo Porte Génoise,20137,+33 6 10 73 16 53,lataverneduroi@hotmail.com,,Porto-Vecchio,"Bar-cabaret où tout au long de la soirée, le répertoire évolue, des chants corses pour les amateurs d’authenticité, à la variété française et internationale, entraînant le spectateur au fil de la nuit dans un voyage tour à tour bucolique et endiablé."
232,Domaine A Marella,https://www.datatourisme.fr/ontology/core#PlaceOfInterest|https://www.datatourisme.fr/ontology/core#PointOfInterest|https://www.datatourisme.fr/ontology/core#Accommodation|https://www.datatourisme.fr/ontology/core#CollectiveAccommodation|https://www.datatourisme.fr/ontology/core#HolidayResort|http://schema.org/Accommodation|http://schema.org/LodgingBusiness,42.628792,8.942627,BP118 Funtana Marina,20220,+33 4 95 65 84 10,contact@amarella.corsic,https://www.amarella.cors,L'Île-Rousse,"Située dans un quartier résidentiel aux abords de L'Ile-Rousse, à moins de 15 minutes à pied de sa place, de son marché et de des plages, le Domaine A Marella vous accueille de mars à novembre."
240,L'évasion turquoise,https://www.datatourisme.fr/ontology/core#PlaceOfInterest|https://www.datatourisme.fr/ontology/core#PointOfInterest|https://www.datatourisme.fr/ontology/core#SportsAndLeisurePlace|https://www.datatourisme.fr/ontology/core#SightseeingBoat|http://schema.org/LocalBusiness,41.637625,9.34782,Baie de Saint Cyprien,20137,+33 6 42 92 18 18,levasionturquoise@orange.fr,https://www.levasionturquoise.com/,Lecci,"Journée évasion nature en petit comité, jusqu'à 8 pers. Embarquez sur l'Isulella (petite île en Corse) avec votre skipper Olivier et partons à la découverte de baies préservées d'une exceptionnelle beauté, nichées sur le littoral sud-est de la Corse."
241,Rocabella,https://www.datatourisme.fr/ontology/core#PlaceOfInterest|https://www.datatourisme.fr/ontology/core#PointOfInterest|https://www.datatourisme.fr/ontology/core#Accommodation|https://www.datatourisme.fr/ontology/core#Hotel|https://www.datatourisme.fr/ontology/core#HotelTrade|http://schema.org/Accommodation|http://schema.org/LodgingBusiness|http://schema.org/Hotel,42.636689,8.936124,2 Rue Pontellole,20220,+33 4 95 47 12 20,contact@hotel-rocabella.com,http://www.hotel-rocabella.com/,L'Île-Rousse,"L'Hôtel spa Rocabella 4 étoiles est situé à Ile Rousse en Balagne, à 200 mètres de la grande plage de sable blanc, 600 mètres du port de plaisance et 900 m du phare de la Pietra. Il est équipé d'une grande terrasse et de chambres climatisées."
242,Résidence Capra Scorsa,https://www.datatourisme.fr/ontology/core#PlaceOfInterest|https://www.datatourisme.fr/ontology/core#PointOfInterest|https://www.datatourisme.fr/ontology/core#Accommodation|https://www.datatourisme.fr/ontology/core#CollectiveAccommodation|https://www.datatourisme.fr/ontology/core#HolidayResort|http://schema.org/Accommodation|http://schema.org/LodgingBusiness,42.635161,9.019568,Losari,20226,+33 4 95 36 13 87,corsalys.vacances@orange.fr,http://www.odalys-vacances.com/,Belgodère,"Situé à 500m de la magnifique plage de Losari, la résidence Capra Scorsa vous propose des appartements entièrement équipés et climatisés. Vous profiterez de la piscine pour vos moment de détente en famille."
243,Plage de Losari,https://www.datatourisme.fr/ontology/core#PlaceOfInterest|https://www.datatourisme.fr/ontology/core#PointOfInterest|https://www.datatourisme.fr/ontology/core#SportsAndLeisurePlace|https://www.datatourisme.fr/ontology/core#Beach|https://www.datatourisme.fr/ontology/core#NaturalHeritage|http://schema.org/Landform,42.641,9.0139,Losari,20226,,,,Belgodère,"Non loin de L’Ile-Rousse, sur la côte de Belgodère, la plage de Losari vous invite à venir savourer des moments délicieux dans un cadre enchanteur et préservé. Aujourd’hui, le Conservatoire du Littoral en a fait un havre de paix."
252,Exclusive Sailing,https://www.datatourisme.fr/ontology/core#PlaceOfInterest|https://www.datatourisme.fr/ontology/core#PointOfInterest|https://www.datatourisme.fr/ontology/core#SportsAndLeisurePlace|https://www.datatourisme.fr/ontology/core#SightseeingBoat|http://schema.org/LocalBusiness,41.524123,9.272116,Baie de Santa Giulia Ponton de l'hôtel Moby Dick,20137,+33 6 25 81 20 84,exclusive.sailing.bw@gmail.com,http://www.croisiere-exclusive.fr/,Porto-Vecchio,"Cap au large à bord de notre Maxi-Catamaran CIAO pour une navigation dans la Réserve Naturelle des Bouches de Bonifacio. Arrêt de 2h30 pour déjeuner dans l’un de nos plus beaux spots : les Îles Lavezzi, Sperone... au gré du vent. Privatisation possible."
253,Les Voiles de Porto-Vecchio,https://www.datatourisme.fr/ontology/core#PlaceOfInterest|https://www.datatourisme.fr/ontology/core#PointOfInterest|https://www.datatourisme.fr/ontology/core#SportsAndLeisurePlace|https://www.datatourisme.fr/ontology/core#SightseeingBoat|http://schema.org/LocalBusiness,41.589858,9.28319,Capitainerie du Port de Plaisance,20137,+33 6 31 07 61 16,info@voilesdeportovecchio.com,,Porto-Vecchio,"Croisière en catamaran à voile au départ du port de Porto-Vecchio. Découverte des plus beaux sites (Pinarello, Saint Cyprien, Îles Cerbicale, Porto Novo...). Possibilité de repas à bord - Escales Snorkeling, Paddle board - Privatisation sur demande."
255,Kasano,https://www.datatourisme.fr/ontology/core#PlaceOfInterest|https://www.datatourisme.fr/ontology/core#PointOfInterest|https://www.datatourisme.fr/ontology/core#Accommodation|https://www.datatourisme.fr/ontology/core#Hotel|https://www.datatourisme.fr/ontology/core#HotelTrade|http://schema.org/Accommodation|http://schema.org/LodgingBusiness|http://schema.org/Hotel,42.568126,8.757943,Avenue de l'Uruguay,20260,+33 6 82 15 47 66,info@hotelkasano.com,https://www.hotelkasano.com/fr,Calvi,"Kasano hôtel & spa, à la décoration vintage et l’esprit seventies, est posé au pied de la citadelle de Calvi. Vos hôtes, Léria et Lolla Ceccaldi, ont grandi dans l’hôtellerie et l’art du bien recevoir."
257,"I Stritonni, le sentier du patrimoine de Monacia d'Aullène",https://www.datatourisme.fr/ontology/core#PlaceOfInterest|https://www.datatourisme.fr/ontology/core#PointOfInterest|https://www.datatourisme.fr/ontology/core#SportsAndLeisurePlace|https://www.datatourisme.fr/ontology/core#Tour|https://www.datatourisme.fr/ontology/core#WalkingTour|https://www.datatourisme.fr/ontology/core#EducationalTrail|http://purl.org/ontology/olo/core#OrderedList,41.512668,9.010952,D50 Lieu dit Caserne,20171,+33 4 95 71 81 09,,https://monacia-aullene.fr/,Monacia-d'Aullène,"« I stritonni » qui signifie « petits chemins » en corse, est une boucle de 4 km, pour un temps de parcours de 2 heures environ. 
Une agréable balade familiale, à la redécouverte d’un chemin d’autrefois, accessible et adapté à tous."
260,Dolce Paese,https://www.datatourisme.fr/ontology/core#PlaceOfInterest|https://www.datatourisme.fr/ontology/core#PointOfInterest|https://www.datatourisme.fr/ontology/core#Accommodation|https://www.datatourisme.fr/ontology/core#CollectiveAccommodation|https://www.datatourisme.fr/ontology/core#HolidayResort|http://schema.org/Accommodation|http://schema.org/LodgingBusiness,42.6068,8.865841,Vigna al Porto,20220,+33 4 95 34 17 43,contact@dolcepaese.fr,https://www.dolcepaese.com/,Algajola,"En passant la porte de DOLCE PAESE, votre résidence à Algajola en Haute-Corse, un sentiment d’ailleurs vous envahit. Les services d´un hôtel de luxe se conjuguent avec l´indépendance d`un appartement."
263,Corsica Sailing,https://www.datatourisme.fr/ontology/core#PlaceOfInterest|https://www.datatourisme.fr/ontology/core#PointOfInterest|https://www.datatourisme.fr/ontology/core#SportsAndLeisurePlace|https://www.datatourisme.fr/ontology/core#SightseeingBoat|http://schema.org/LocalBusiness,41.474748,9.071887,Port de Pianottoli Caldarello,20131,+33 6 60 65 39 90,corsicasailing@gmail.com,http://www.corsicasailing.com/,Pianottoli-Caldarello,Location de catamarans en sortie journée privative avec skipper (de 1300 € à 1600 € hors repas pour 12 personnes max) ou à la semaine au départ du port de Pianottoli / Figari les samedis et dimanches. Devis sur demande. N'hésitez pas à nous contacter !
265,Vesna Rossa,https://www.datatourisme.fr/ontology/core#PlaceOfInterest|https://www.datatourisme.fr/ontology/core#PointOfInterest|https://www.datatourisme.fr/ontology/core#Accommodation|https://www.datatourisme.fr/ontology/core#CollectiveAccommodation|https://www.datatourisme.fr/ontology/core#HolidayResort|http://schema.org/Accommodation|http://schema.org/LodgingBusiness,41.625011,9.335586,24 lotissement Marina Rossa,20137,+33 4 95 71 43 68,contact@vesnarossa.com,https://www.pierreetvacances.com/,Lecci,"RESIDENCE PREMIUM PIERRE & VACANCES. 
Villas avec piscines privatives chauffées à 300 m de la plage de Cala Rossa.
Une situation exceptionnelle pour des maisons tout confort. 
Salles d'eaux individuelles par chambre et grands espaces."
266,Son De Mar,https://www.datatourisme.fr/ontology/core#FoodEstablishment|https://www.datatourisme.fr/ontology/core#PlaceOfInterest|https://www.datatourisme.fr/ontology/core#PointOfInterest|https://www.datatourisme.fr/ontology/core#Restaurant|https://www.datatourisme.fr/ontology/core#Accommodation|https://www.datatourisme.fr/ontology/core#Hotel|https://www.datatourisme.fr/ontology/core#HotelRestaurant|https://www.datatourisme.fr/ontology/core#HotelTrade|http://schema.org/Accommodation|http://schema.org/FoodEstablishment|http://schema.org/LodgingBusiness|http://schema.org/Restaurant|http://schema.org/Hotel,41.638498,9.346679,27 Corsu Napoleonu San Ciprianu,20137,+33 4 20 19 03 35,front@sondemar.fr,https://sondemar.fr/,Lecci,"Comme une ode au farniente et au bien être, le Son De Mar a vu le jour au printemps 2022. Au cœur du village marin de San Ciprianu, à deux pas de l'eau. 
Le spa et la table complètent l'expérience d'un séjour unique, entre simplicité et raffinement."
267,Résidence Saletta Mare,https://www.datatourisme.fr/ontology/core#PlaceOfInterest|https://www.datatourisme.fr/ontology/core#PointOfInterest|https://www.datatourisme.fr/ontology/core#Accommodation|https://www.datatourisme.fr/ontology/core#CollectiveAccommodation|https://www.datatourisme.fr/ontology/core#HolidayResort|http://schema.org/Accommodation|http://schema.org/LodgingBusiness,42.632894,8.944848,1 Bd Charles Marie Savelli,20220,+33 4 95 31 60 52,reservation@residence-saletta.com,http://www.residences-saletta.com/,L'Île-Rousse,"La Résidence Saletta Mare vous accueille à l'Île Rousse, à deux pas de la plage. Dans une résidence de standing avec piscine à débordement, dans des appartements modernes, et de nombreux services à disposition tel qu'une salle de courtoisie."
268,Le Balamina,https://www.datatourisme.fr/ontology/core#PlaceOfInterest|https://www.datatourisme.fr/ontology/core#PointOfInterest|https://www.datatourisme.fr/ontology/core#Accommodation|https://www.datatourisme.fr/ontology/core#CollectiveAccommodation|https://www.datatourisme.fr/ontology/core#HolidayResort|http://schema.org/Accommodation|http://schema.org/LodgingBusiness,41.599358,9.268614,21 rue des Turriccioli,20137,+33 4 20 13 03 77,contact@balamina.com,https://balamina.com/,Porto-Vecchio,"La résidence hôtelière, le Balamina, ouverte à l'année, dipose de 53 chambres spacieuses et parfaitement équipées pour vous garantir un confort optimal tout au long de votre séjour."
270,Ecoparc de la Vallée d'Asco,http://schema.org/Zoo|https://www.datatourisme.fr/ontology/core#PlaceOfInterest|https://www.datatourisme.fr/ontology/core#PointOfInterest|https://www.datatourisme.fr/ontology/core#SportsAndLeisurePlace|https://www.datatourisme.fr/ontology/core#ZooAnimalPark|http://schema.org/LocalBusiness,42.477812,9.138231,Vallée d'Asco,20276,+33 6 84 62 43 40,,https://ecoparc-vallee-asco.fr/,Asco,"A l'entrée des Gorges de l'Asco, venez découvrir la faune et la flore de Corse de façon inattendue dans un espace totalement naturel et préservé qui a pour mission de nous sensibiliser à l'environnement et au développement durable."
272,La plage de Santa Giulia,https://www.datatourisme.fr/ontology/core#PlaceOfInterest|https://www.datatourisme.fr/ontology/core#PointOfInterest|https://www.datatourisme.fr/ontology/core#SportsAndLeisurePlace|https://www.datatourisme.fr/ontology/core#Beach|https://www.datatourisme.fr/ontology/core#NaturalHeritage|http://schema.org/Landform,41.532755,9.271844,Santa Giulia,20137,+33 4 95 70 09 58,,,Porto-Vecchio,"Au sud de Porto-Vecchio : voici une des plages les plus célèbres de la Corse du Sud.
Un lagon baignant au pied d’une montagne sur des kilomètres de sable blanc et fin... 
Ces eaux peu profondes en font un véritable jardin de la mer pour les enfants."
273,La plage de Cala Rossa,https://www.datatourisme.fr/ontology/core#PlaceOfInterest|https://www.datatourisme.fr/ontology/core#PointOfInterest|https://www.datatourisme.fr/ontology/core#SportsAndLeisurePlace|https://www.datatourisme.fr/ontology/core#Beach|https://www.datatourisme.fr/ontology/core#NaturalHeritage|http://schema.org/Landform,41.620128,9.331364,Cala Rossa,20137,+33 4 95 71 05 75,,,Lecci,"Un joyau de plus pour la commune de Lecci, Cala Rossa constitue un haut lieu pour le tourisme de grand standing. Un dégradé de vert et de bleu avec en toile de fond les Aiguilles de Bavella…"
274,La plage de San Giovanni,https://www.datatourisme.fr/ontology/core#PlaceOfInterest|https://www.datatourisme.fr/ontology/core#PointOfInterest|https://www.datatourisme.fr/ontology/core#SportsAndLeisurePlace|https://www.datatourisme.fr/ontology/core#Beach|https://www.datatourisme.fr/ontology/core#NaturalHeritage|http://schema.org/Landform,41.460968,9.046606,Saint Jean,20131,+33 4 95 71 80 06,,,Pianottoli-Caldarello,"Entre la tour de Caldarello et la pointe de Capineru, se trouve la plage de San Giovanni (du nom des marais que l’on trouve à proximité). 
En continuant à pied le long de la plage, vous arriverez à la Tour génoise de Caldarellu."
275,La plage de Saint Cyprien,https://www.datatourisme.fr/ontology/core#PlaceOfInterest|https://www.datatourisme.fr/ontology/core#PointOfInterest|https://www.datatourisme.fr/ontology/core#SportsAndLeisurePlace|https://www.datatourisme.fr/ontology/core#Beach|https://www.datatourisme.fr/ontology/core#NaturalHeritage|http://schema.org/Landform,41.632348,9.345355,Saint Cyprien,20137,+33 4 95 71 05 75,,,Lecci,"Ce petit golfe renferme une magnifique plage bordée par l’étang d’Arasu.
Une tour génoise domine ce site et de nombreux vestiges ont été découvert à proximité de l’embouchure de l’Osu."
276,Sentier du littoral de Tamaricciu,https://www.datatourisme.fr/ontology/core#PlaceOfInterest|https://www.datatourisme.fr/ontology/core#PointOfInterest|https://www.datatourisme.fr/ontology/core#SportsAndLeisurePlace|https://www.datatourisme.fr/ontology/core#Tour|https://www.datatourisme.fr/ontology/core#WalkingTour|https://www.datatourisme.fr/ontology/core#EducationalTrail|http://purl.org/ontology/olo/core#OrderedList,41.552709,9.312643,Tamaricciu,20137,+33 4 95 70 09 58,,,Porto-Vecchio,"Situé au nord de la réserve naturelle des Bouches de Bonifacio, Tamaricciu est, par la beauté et la diversité de ses milieux naturels, un site emblématique."
277,La plage du Benedettu,https://www.datatourisme.fr/ontology/core#PlaceOfInterest|https://www.datatourisme.fr/ontology/core#PointOfInterest|https://www.datatourisme.fr/ontology/core#SportsAndLeisurePlace|https://www.datatourisme.fr/ontology/core#Beach|https://www.datatourisme.fr/ontology/core#NaturalHeritage|http://schema.org/Landform,41.616494,9.318192,Benedettu,20137,+33 4 95 71 05 75,,,Lecci,"Encrée dans le golfe de Porto-Vecchio, une baie bénie par les dieux, autrement dit, un havre de paix…
La petite plage du Benedettu est blottie au fond de sa presqu’île du même nom, protégée par un oppidum romain."
278,Plage d'Ostriconi,https://www.datatourisme.fr/ontology/core#PlaceOfInterest|https://www.datatourisme.fr/ontology/core#PointOfInterest|https://www.datatourisme.fr/ontology/core#SportsAndLeisurePlace|https://www.datatourisme.fr/ontology/core#Beach|https://www.datatourisme.fr/ontology/core#NaturalHeritage|http://schema.org/Landform,42.66,9.0584,Ostriconi,20226,,,,Palasca,"La plage de l’Ostriconi se situe à environ 15 km de L’Ile-Rousse en direction de Bastia. Elle est une des plus belles plages de Corse, aux portes du célèbre désert des Agriate, connu pour son littoral paradisiaque."
279,Le sentier du patrimoine de Ste Lucie de Tallano : une promenade immersive dans l'histoire corse,https://www.datatourisme.fr/ontology/core#PlaceOfInterest|https://www.datatourisme.fr/ontology/core#PointOfInterest|https://www.datatourisme.fr/ontology/core#SportsAndLeisurePlace|https://www.datatourisme.fr/ontology/core#Tour|https://www.datatourisme.fr/ontology/core#WalkingTour|https://www.datatourisme.fr/ontology/core#EducationalTrail|http://purl.org/ontology/olo/core#OrderedList,41.69757,9.063494,Village,20112,,,,Sainte-Lucie-de-Tallano,Le sentier du patrimoine de Santa Lucia di Tallà est un incontournable pour découvrir le riche passé de cette région. Ce sentier vous mènera à travers l'une des oliveraies historiques qui témoignent de l'importance de cette culture dans l'économie corse.
280,"À la découverte du patrimoine de Carbini sur les traces d'i Ghjovannali""",https://www.datatourisme.fr/ontology/core#PlaceOfInterest|https://www.datatourisme.fr/ontology/core#PointOfInterest|https://www.datatourisme.fr/ontology/core#SportsAndLeisurePlace|https://www.datatourisme.fr/ontology/core#Tour|https://www.datatourisme.fr/ontology/core#WalkingTour|https://www.datatourisme.fr/ontology/core#EducationalTrail|http://purl.org/ontology/olo/core#OrderedList,41.680102,9.147443,Église de Carbini,20170,,,,Carbini,"Le ""Sentier des Giovannali"", un itinéraire de randonnée chargé d'histoire qui vous transporte à travers les siècles. Le sentier commence à l'église de Carbini et mène jusqu'à la Punta. Un sentier entre nature et culture."
281,0 - Introitu,https://www.datatourisme.fr/ontology/core#PlaceOfInterest|https://www.datatourisme.fr/ontology/core#PointOfInterest|https://www.datatourisme.fr/ontology/core#SportsAndLeisurePlace|https://www.datatourisme.fr/ontology/core#Tour|https://www.datatourisme.fr/ontology/core#WalkingTour|https://www.datatourisme.fr/ontology/core#EducationalTrail|http://purl.org/ontology/olo/core#OrderedList,41.591566,9.278541,"Parvis du centre culturel Rue Fred Scamaroni,",20137,+33 4 95 70 09 58,accueil@destination-sudcorse.com,http://www.ot-portovecchio.com/,Porto-Vecchio,
287,9 - Ghjesa San Ghjuvanni Battista,https://www.datatourisme.fr/ontology/core#CulturalSite|https://www.datatourisme.fr/ontology/core#PlaceOfInterest|https://www.datatourisme.fr/ontology/core#PointOfInterest|https://www.datatourisme.fr/ontology/core#ReligiousSite|https://www.datatourisme.fr/ontology/core#Church,41.59074,9.2791,Parvis Sainte Croix,20137,+33 4 95 70 09 58,accueil@destination-sudcorse.com,http://www.ot-portovecchio.com/,Porto-Vecchio,
296,Belambra Clubs de Losari,https://www.datatourisme.fr/ontology/core#PlaceOfInterest|https://www.datatourisme.fr/ontology/core#PointOfInterest|https://www.datatourisme.fr/ontology/core#Accommodation|https://www.datatourisme.fr/ontology/core#CollectiveAccommodation|https://www.datatourisme.fr/ontology/core#HolidayResort|http://schema.org/Accommodation|http://schema.org/LodgingBusiness,42.641175,9.019761,Losari golfe de lozari,20226,+33 4 95 63 00 60,hebergement.belgodere@belambra.fr,http://www.belambra.fr/club-belgodere-golfe-de-lozari/ete,Belgodère,"Situé au bord de mer, sur la magnifique plage de Losari, le Belambra de Losari vous accueille dans des appartements lovés au cœur d'une pinède et les pieds dans l'eau. Pour votre confort, piscine, pataugeoire et tous les services des clubs Belambra."
298,Bureau d'Information du Ghjunsani,https://www.datatourisme.fr/ontology/core#PlaceOfInterest|https://www.datatourisme.fr/ontology/core#PointOfInterest|https://www.datatourisme.fr/ontology/core#Store|https://www.datatourisme.fr/ontology/core#LocalTouristOffice|https://www.datatourisme.fr/ontology/core#TouristInformationCenter|http://schema.org/LocalBusiness|http://schema.org/TouristInformationCenter,42.52841,9.019866,Casa Battaglini,20259,+33 4 95 60 04 35,info@ileroussetourisme.com,,Olmi-Cappella,Le bureau d'Information Touristique du Ghjunsani est à votre entière disposition pour l'organisation de votre séjour en Balagne et en Corse. Nos conseillers en séjour sont à votre écoute et répondent à toutes vos questions.
299,Le Grillon,https://www.datatourisme.fr/ontology/core#PlaceOfInterest|https://www.datatourisme.fr/ontology/core#PointOfInterest|https://www.datatourisme.fr/ontology/core#Accommodation|https://www.datatourisme.fr/ontology/core#Hotel|https://www.datatourisme.fr/ontology/core#HotelTrade|http://schema.org/Accommodation|http://schema.org/LodgingBusiness|http://schema.org/Hotel,42.632424,8.940731,Avenue Paul Doumer,20220,+33 4 95 60 00 49,hr-le-grillon@wanadoo.fr,https://www.hotelgrillon.com/,L'Île-Rousse,"L'hôtel Le Grillon de bon rapport qualité prix est situé à proximité des plages et du centre ville. Pour votre confort, les chambres ont été rénovées récemment. Service petit déjeuner (produits frais et maison)."
304,Shegara,https://www.datatourisme.fr/ontology/core#FoodEstablishment|https://www.datatourisme.fr/ontology/core#PlaceOfInterest|https://www.datatourisme.fr/ontology/core#PointOfInterest|https://www.datatourisme.fr/ontology/core#Restaurant|https://www.datatourisme.fr/ontology/core#Accommodation|https://www.datatourisme.fr/ontology/core#Hotel|https://www.datatourisme.fr/ontology/core#HotelRestaurant|https://www.datatourisme.fr/ontology/core#HotelTrade|http://schema.org/Accommodation|http://schema.org/FoodEstablishment|http://schema.org/LodgingBusiness|http://schema.org/Restaurant|http://schema.org/Hotel,41.594,9.284,Avenue Georges Pompidou,20137,+33 4 95 70 04 31,shegara@gmail.com,http://www.shegara.fr/,Porto-Vecchio,"Un lieu privilégié face au golfe de Porto-Vecchio, près du port de plaisance et de la vieille ville.
Des chambres spacieuses, avec vue mer ou vue jardin. 
Un établissement hôtelier entièrement climatisé et rénové avec piscine chauffée."
305,Casa Santini x Roc Seven,https://www.datatourisme.fr/ontology/core#FoodEstablishment|https://www.datatourisme.fr/ontology/core#PlaceOfInterest|https://www.datatourisme.fr/ontology/core#PointOfInterest|https://www.datatourisme.fr/ontology/core#Restaurant|https://www.datatourisme.fr/ontology/core#Accommodation|https://www.datatourisme.fr/ontology/core#Hotel|https://www.datatourisme.fr/ontology/core#HotelRestaurant|https://www.datatourisme.fr/ontology/core#HotelTrade|http://schema.org/Accommodation|http://schema.org/FoodEstablishment|http://schema.org/LodgingBusiness|http://schema.org/Restaurant|http://schema.org/Hotel,41.595181,9.284643,Avenue Georges Pompidou,20137,+33 4 95 70 14 15,povo@rocseven.com,https://www.fahrenheitseven.com/les-destinations/roc-seven-casa-santini-hotel-porto-vecchio.html,Porto-Vecchio,"Idéalement situé, au cœur de la baie de Porto-Vecchio, à deux pas du port de plaisance et de la citadelle.
Découvrez le charme d’un hôtel-restaurant à l’accueil chaleureux et authentique."
309,Porto-Vecchio Croisières Destination Lavezzi,https://www.datatourisme.fr/ontology/core#PlaceOfInterest|https://www.datatourisme.fr/ontology/core#PointOfInterest|https://www.datatourisme.fr/ontology/core#SportsAndLeisurePlace|https://www.datatourisme.fr/ontology/core#SightseeingBoat|http://schema.org/LocalBusiness,41.591231,9.283668,Port de plaisance,20137,+33 6 15 48 51 52,portovecchiocroisiere@orange.fr,http://www.portovecchio-croisieres.com/,Porto-Vecchio,Embarquez sur le Maria Serena pour un déjeuner et une journée inoubliable dans la Réserve Naturelle des Bouches de Bonifacio et dégustez à bord nos menus « Côté Maquis » ou « Côté Mer ».
313,Le Magnolia,https://www.datatourisme.fr/ontology/core#FoodEstablishment|https://www.datatourisme.fr/ontology/core#PlaceOfInterest|https://www.datatourisme.fr/ontology/core#PointOfInterest|https://www.datatourisme.fr/ontology/core#Restaurant|https://www.datatourisme.fr/ontology/core#Accommodation|https://www.datatourisme.fr/ontology/core#Hotel|https://www.datatourisme.fr/ontology/core#HotelRestaurant|https://www.datatourisme.fr/ontology/core#HotelTrade|http://schema.org/Accommodation|http://schema.org/FoodEstablishment|http://schema.org/LodgingBusiness|http://schema.org/Restaurant|http://schema.org/Hotel,42.566729,8.757881,Place du marché Rue Alsace Lorraine,20260,+33 4 95 65 19 16,hotel.magnolia@orange.fr,http://www.hotel-le-magnolia.com/,Calvi,"Au cœur de Calvi, la cité Semper Fidelis, nous vous accueillons dans notre hôtel de charme. Cette maison de maître du siècle dernier vous séduira par sa décoration romantique et son beau patio à la touche florentine, à l'ombre d'un magnolia centenaire."
315,Résidence Saletta Casale,https://www.datatourisme.fr/ontology/core#PlaceOfInterest|https://www.datatourisme.fr/ontology/core#PointOfInterest|https://www.datatourisme.fr/ontology/core#Accommodation|https://www.datatourisme.fr/ontology/core#CollectiveAccommodation|https://www.datatourisme.fr/ontology/core#HolidayResort|http://schema.org/Accommodation|http://schema.org/LodgingBusiness,42.63617,8.936168,Boulevard Jean Lançon,20220,+33 4 95 31 21 06,reservation@residence-saletta.com,http://www.residences-saletta.com/,L'Île-Rousse,"La Résidence Saletta Casale vous accueille au cœur de L'Île-Rousse, à quelques pas de la mer. Vous séjournerez dans une résidence de standing avec piscines, des appartements modernes, climatisés et entièrement équipés. De nombreux services à disposition."
316,Bureau d'Information Touristique Galeria-Falasorma,https://www.datatourisme.fr/ontology/core#PlaceOfInterest|https://www.datatourisme.fr/ontology/core#PointOfInterest|https://www.datatourisme.fr/ontology/core#Store|https://www.datatourisme.fr/ontology/core#LocalTouristOffice|https://www.datatourisme.fr/ontology/core#TouristInformationCenter|http://schema.org/LocalBusiness|http://schema.org/TouristInformationCenter,42.411478,8.681614,Carrefour des Cinque Arcate,20245,+33 4 95 65 16 67,tourisme@balagne-corsica.com,https://www.balagne-corsica.com/,Galéria,Nos services … Accueil – Information – Réservation hébergement
319,Résidence Saint Michel,https://www.datatourisme.fr/ontology/core#PlaceOfInterest|https://www.datatourisme.fr/ontology/core#PointOfInterest|https://www.datatourisme.fr/ontology/core#Accommodation|https://www.datatourisme.fr/ontology/core#CollectiveAccommodation|https://www.datatourisme.fr/ontology/core#HolidayResort|http://schema.org/Accommodation|http://schema.org/LodgingBusiness,42.632506,8.931884,16 Boulevard Pierre Pasquini,20220,+33 4 95 60 55 19,info@motelsaintmichel.fr,http://www.motelsaintmichel.fr/,L'Île-Rousse,"Cette petite résidence vous propose des appartements entièrement équipés et climatisés. Elle bénéficie d'un emplacement idéal à L'Ile-Rousse, à proximité du centre ville et à 500 mètres des plages et des commerces.
Disposant d'une borne de recharge elec."
320,Corse Adrénaline,https://www.datatourisme.fr/ontology/core#PlaceOfInterest|https://www.datatourisme.fr/ontology/core#PointOfInterest|https://www.datatourisme.fr/ontology/core#SportsAndLeisurePlace|https://www.datatourisme.fr/ontology/core#SightseeingBoat|http://schema.org/LocalBusiness,42.26704,8.693502,Place de la Marine Porto,20150,+33 6 23 06 44 93,contact@corseadrenaline.fr,http://www.corseadrenaline.fr/,Ota,"Corse Adrénaline vous accueille à Porto pour des croisières en mer en bateau offshore de 12 places pour un moment inoubliable vers la Réserve Naturelle de Scandola, les calanche de Piana, le Capo Rosso et Girolata."
327,Balagne Aventures Corsica,https://www.datatourisme.fr/ontology/core#PlaceOfInterest|https://www.datatourisme.fr/ontology/core#PointOfInterest|https://www.datatourisme.fr/ontology/core#SportsAndLeisurePlace|https://www.datatourisme.fr/ontology/core#SightseeingBoat|http://schema.org/LocalBusiness,42.604,8.8271,Port de Sant Ambroggio,20260,+33 6 29 49 69 84,infos@balagne-aventures-corsica.com,https://www.balagne-aventures-corsica.com/,Lumio,"Balagne Aventures Corsica vous propose de vivre des aventures en mer inoubliables dans un cadre d'exception, du Cap Corse aux calanques de Piana."
332,Camping de la Plage,https://www.datatourisme.fr/ontology/core#PlaceOfInterest|https://www.datatourisme.fr/ontology/core#PointOfInterest|https://www.datatourisme.fr/ontology/core#Accommodation|https://www.datatourisme.fr/ontology/core#Camping|https://www.datatourisme.fr/ontology/core#CampingAndCaravanning|http://schema.org/Accommodation|http://schema.org/LodgingBusiness,42.608492,8.873847,RT30,20220,+33 4 95 60 71 76,campingalgajola@wanadoo.fr,http://www.camping-de-la-plage-en-balagne.com/,Algajola,"Le Camping de la Plage, situé à Algajola, en Balagne, entre Ile-Rousse et Calvi, longe l’une des plus belles plages de Corse, mariant son sable blond à l’ombrage de la forêt de pins parasols et d’eucalyptus.
Rencontre avec... Karine et toute son équipe"
333,Le Mariana,https://www.datatourisme.fr/ontology/core#PlaceOfInterest|https://www.datatourisme.fr/ontology/core#PointOfInterest|https://www.datatourisme.fr/ontology/core#Accommodation|https://www.datatourisme.fr/ontology/core#Hotel|https://www.datatourisme.fr/ontology/core#HotelTrade|http://schema.org/Accommodation|http://schema.org/LodgingBusiness|http://schema.org/Hotel,42.564839,8.753216,Avenue Santa Maria,20260,+33 4 95 65 31 38,info@hotel-mariana.com,http://www.hotel-mariana.com/,Calvi,"Situé en Corse, sur les hauteurs de Calvi, le Mariana bénéficie d'une vue panoramique sur le golfe et les montagnes depuis la piscine. A 10 minutes de la plage et 5 minutes du centre ville, restaurants et boutiques à proximité. Bon séjour en Balagne !"
334,Acquale,https://www.datatourisme.fr/ontology/core#PlaceOfInterest|https://www.datatourisme.fr/ontology/core#PointOfInterest|https://www.datatourisme.fr/ontology/core#Accommodation|https://www.datatourisme.fr/ontology/core#Hotel|https://www.datatourisme.fr/ontology/core#HotelTrade|http://schema.org/Accommodation|http://schema.org/LodgingBusiness|http://schema.org/Hotel,42.565,8.7536,Avenue Santa Maria,20260,+33 4 95 65 24 23,info@hotelacquale.com,https://www.hotelacquale.com/,Calvi,Venez passer un séjour de rêve et d'exception en Balagne en Corse. Cet hôtel du centre ville vous offre tout le confort moderne et une proximité de la mer et de la plage pour des vacances réussies à Calvi !
336,Le Belvédère,https://www.datatourisme.fr/ontology/core#PlaceOfInterest|https://www.datatourisme.fr/ontology/core#PointOfInterest|https://www.datatourisme.fr/ontology/core#Accommodation|https://www.datatourisme.fr/ontology/core#Hotel|https://www.datatourisme.fr/ontology/core#HotelTrade|http://schema.org/Accommodation|http://schema.org/LodgingBusiness|http://schema.org/Hotel,42.567935,8.758204,Place Christophe Colomb,20260,+33 4 95 65 01 25,info@calvi-location.fr,http://www.belvedere-calvi-hotel.com/,Calvi,"Idéalement placé en face de la Citadelle de Calvi et du parking public, à proximité des boutiques, Le Belvédère est à seulement 100 mètres de la mer et du port de plaisance.  La plage de sable est à 5 minutes à pied. Bienvenue en Corse !"
341,Bel Horizon,https://www.datatourisme.fr/ontology/core#PlaceOfInterest|https://www.datatourisme.fr/ontology/core#PointOfInterest|https://www.datatourisme.fr/ontology/core#Accommodation|https://www.datatourisme.fr/ontology/core#Hotel|https://www.datatourisme.fr/ontology/core#HotelTrade|http://schema.org/Accommodation|http://schema.org/LodgingBusiness|http://schema.org/Hotel,42.508347,8.854934,4 place du Prince Pierre,20214,+33 4 95 62 71 72,contact@calenzana.com,http://www.calenzana.com/,Calenzana,"Situé au cœur du village de Calenzana, face à l’église Saint Blaise, l’hôtel offre un confort simple et soigné. Nos amis randonneurs qui souhaitent se mesurer au GR20 ou Mare è Monti puisque il n'est qu'à 2 minutes du départ de ces grandes randonnées."
343,Parc de Saleccia,https://www.datatourisme.fr/ontology/core#CulturalSite|https://www.datatourisme.fr/ontology/core#ParkAndGarden|https://www.datatourisme.fr/ontology/core#PlaceOfInterest|https://www.datatourisme.fr/ontology/core#PointOfInterest|http://schema.org/Park,42.635929,8.978947,"Lieu-dit Saleccia Route de Bastia, T 30",20220,+33 4 95 36 88 83,parc.de.saleccia@wanadoo.fr,http://www.parc-saleccia.fr/,L'Île-Rousse,"Découvrez la végétation corse et méditerranéenne mis en scène par un paysagiste. Une promenade nature inédite. Un vrai moment de détentes, de découverte et de partage à vivre entre amis ou en famille."
346,Croisière des Îles,https://www.datatourisme.fr/ontology/core#PlaceOfInterest|https://www.datatourisme.fr/ontology/core#PointOfInterest|https://www.datatourisme.fr/ontology/core#SportsAndLeisurePlace|https://www.datatourisme.fr/ontology/core#SightseeingBoat|http://schema.org/LocalBusiness,41.376854,9.221687,Piantarella,20169,+33 6 83 17 37 17,info@voilesdebonifacio.com,http://www.voilesdebonifacio.com/,Bonifacio,"Croisière en mer en catamaran à voile au départ de Bonifacio pour les Îles Lavezzi - Cavallo ou Nord Sardaigne. À la journée ou demie-journée. Repas à bord à la demande. Escales Snorkeling, Paddle board. Possibilité de privatisation. Affilié FF Voile."
349,Santa Giulia Palace,https://www.datatourisme.fr/ontology/core#PlaceOfInterest|https://www.datatourisme.fr/ontology/core#PointOfInterest|https://www.datatourisme.fr/ontology/core#Accommodation|https://www.datatourisme.fr/ontology/core#CollectiveAccommodation|https://www.datatourisme.fr/ontology/core#HolidayResort|http://schema.org/Accommodation|http://schema.org/LodgingBusiness,41.536,9.2761,Baie de Santa Giulia,20137,+33 4 95 70 49 88,info@santa-giulia.net,https://www.santa-giulia.net/,Porto-Vecchio,"Un cadre privilégié entre ciel, mer et maquis, idéal pour se ressourcer.
Le Domaine SANTA GIULIA PALACE est un Domaine hôtelier de luxe composé de 63 logements avec vue mer (villas, appartements, suites et chambres haut de gamme) située à Porto-Vecchio."
351,Costa Nera,https://www.datatourisme.fr/ontology/core#PlaceOfInterest|https://www.datatourisme.fr/ontology/core#PointOfInterest|https://www.datatourisme.fr/ontology/core#Accommodation|https://www.datatourisme.fr/ontology/core#CollectiveAccommodation|https://www.datatourisme.fr/ontology/core#HolidayResort|http://schema.org/Accommodation|http://schema.org/LodgingBusiness,41.533,9.2719,Baie de Santa Giulia,20137,+33 4 95 21 12 43,contact@costa-nera.com,http://www.costa-nera.com/,Porto-Vecchio,"Située au cœur de la baie de Santa Giulia, la résidence Costa Nera constitue un ensemble de charme, composé d’appartements en duplex avec patios privatifs et de studios avec terrasses."
356,Le Grand Hôtel,https://www.datatourisme.fr/ontology/core#FoodEstablishment|https://www.datatourisme.fr/ontology/core#PlaceOfInterest|https://www.datatourisme.fr/ontology/core#PointOfInterest|https://www.datatourisme.fr/ontology/core#Restaurant|https://www.datatourisme.fr/ontology/core#Accommodation|https://www.datatourisme.fr/ontology/core#Hotel|https://www.datatourisme.fr/ontology/core#HotelRestaurant|https://www.datatourisme.fr/ontology/core#HotelTrade|http://schema.org/Accommodation|http://schema.org/FoodEstablishment|http://schema.org/LodgingBusiness|http://schema.org/Restaurant|http://schema.org/Hotel,42.566253,8.756348,Boulevard Wilson,20260,+33 4 95 65 09 74,contacts@grand-hotel-calvi.com,http://www.grand-hotel-calvi.com/,Calvi,"Le Grand Hôtel à Calvi en Corse, jouit d'un emplacement exceptionnel, au coeur de la station balnéaire. Situé à deux pas des commerces, du port et des principales attractions touristiques de Balagne et, surtout, de la plage de sable fin."
357,Le Rocher,https://www.datatourisme.fr/ontology/core#PlaceOfInterest|https://www.datatourisme.fr/ontology/core#PointOfInterest|https://www.datatourisme.fr/ontology/core#Accommodation|https://www.datatourisme.fr/ontology/core#Hotel|https://www.datatourisme.fr/ontology/core#HotelTrade|http://schema.org/Accommodation|http://schema.org/LodgingBusiness|http://schema.org/Hotel,42.566099,8.756323,Boulevard Wilson,20260,+33 4 95 65 20 04,hotel.lerocher@wanadoo.fr,https://www.hotel-le-rocher.com/,Calvi,"Situé en plein coeur de Calvi en Balagne, à proximité des restaurants, commerces et animations et à 200 m. de la plage de sable fin."
358,La Ferme de Padula,https://www.datatourisme.fr/ontology/core#CulturalSite|https://www.datatourisme.fr/ontology/core#PlaceOfInterest|https://www.datatourisme.fr/ontology/core#PointOfInterest|https://www.datatourisme.fr/ontology/core#SportsAndLeisurePlace|https://www.datatourisme.fr/ontology/core#Farm|https://www.datatourisme.fr/ontology/core#TeachingFarm|https://www.datatourisme.fr/ontology/core#TechnicalHeritage,41.56314,9.282138,Route de Porra,20137,+33 6 11 79 96 76,fermedepadula@hotmail.fr,http://www.fermepedagogiquecorse.com/,Porto-Vecchio,"SUR RESERVATION : 
Au cours d'une visite guidée de la Ferme, venez nourrir et caresser les animaux. 
Vous aller découvrir et rencontrer :  poules d'ornements, Léon le paon, dindon, tortues, canards, oies, chèvres, brebis, lapins, cochons nains, poussins."
359,Les Terrasses de Scalegiu,https://www.datatourisme.fr/ontology/core#PlaceOfInterest|https://www.datatourisme.fr/ontology/core#PointOfInterest|https://www.datatourisme.fr/ontology/core#Accommodation|https://www.datatourisme.fr/ontology/core#CollectiveAccommodation|https://www.datatourisme.fr/ontology/core#HolidayResort|http://schema.org/Accommodation|http://schema.org/LodgingBusiness,41.558466,9.314679,Route de Porra,20137,+33 3 20 67 73 35,info@scalegiu.com,http://www.scalegiu.com/,Porto-Vecchio,"À seulement 10 min à pied de Palombaggia, avec vue imprenable, Les Terrasses de Scalegiu c’est :
- Les Casinas, jolies maisons très confortables.
- La Villa, surplombant la résidence, avec ses grandes pièces à vivre, peut accueillir jusqu’à 14 personnes."
360,Le Splendid,https://www.datatourisme.fr/ontology/core#FoodEstablishment|https://www.datatourisme.fr/ontology/core#PlaceOfInterest|https://www.datatourisme.fr/ontology/core#PointOfInterest|https://www.datatourisme.fr/ontology/core#Restaurant|https://www.datatourisme.fr/ontology/core#Accommodation|https://www.datatourisme.fr/ontology/core#Hotel|https://www.datatourisme.fr/ontology/core#HotelRestaurant|https://www.datatourisme.fr/ontology/core#HotelTrade|http://schema.org/Accommodation|http://schema.org/FoodEstablishment|http://schema.org/LodgingBusiness|http://schema.org/Restaurant|http://schema.org/Hotel,42.633047,8.94109,Avenue Comte Valery,20220,+33 4 95 60 00 24,info@le-splendid-hotel.com,http://www.le-splendid-hotel.com/,L'Île-Rousse,Cet hôtel-restaurant vous propose un séjour de qualité à quelques mètres de la plage de L'Ile-Rousse et du centre ville. Vous pourrez aussi vous détendre au bord de la piscine privée ou au bar cocktail et déguster une cuisine méditerranéenne de qualité.
364,Calvi Promenade en Mer,https://www.datatourisme.fr/ontology/core#PlaceOfInterest|https://www.datatourisme.fr/ontology/core#PointOfInterest|https://www.datatourisme.fr/ontology/core#SportsAndLeisurePlace|https://www.datatourisme.fr/ontology/core#SightseeingBoat|http://schema.org/LocalBusiness,42.565364,8.757207,Port de Plaisance,20260,+33 6 43 34 30 58,contact@calvipromenadeenmer.com,https://www.calvipromenadeenmer.com/,Calvi,"Pour visiter les plus beaux joyaux des côtes de la Balagne et de la Corse, embarquez à bord de nos bateaux de Calvi Promenade en mer, alliant plaisir et écologie."
365,Calvi Aventure,https://www.datatourisme.fr/ontology/core#PlaceOfInterest|https://www.datatourisme.fr/ontology/core#PointOfInterest|https://www.datatourisme.fr/ontology/core#SportsAndLeisurePlace|https://www.datatourisme.fr/ontology/core#SightseeingBoat|http://schema.org/LocalBusiness,42.565574,8.757271,Port de Plaisance,20260,+33 7 88 07 72 69,calvi.aventure@gmail.com,https://www.calvi-aventure.com/,Calvi,Partez à la découverte des joyaux du littoral corse avec Calvi Aventure; embarquez à bord de nos semi-rigides depuis Calvi en Balagne !
368,Funtana a l'Ora,https://www.datatourisme.fr/ontology/core#PlaceOfInterest|https://www.datatourisme.fr/ontology/core#PointOfInterest|https://www.datatourisme.fr/ontology/core#Accommodation|https://www.datatourisme.fr/ontology/core#Camping|https://www.datatourisme.fr/ontology/core#CampingAndCaravanning|http://schema.org/Accommodation|http://schema.org/LodgingBusiness,42.253737,8.722483,Route d'Evisa,20198,+33 4 95 26 11 65,funtana.contact@gmail.com,https://www.funtanaalora.fr/,Ota,"Choisir le camping Funtana a l'Ora c'est choisir un camping atypique entre mer et montagne. Vous y séjournerez en location de chalets en bois, mobile-homes ou en emplacements de tente."
369,Le Mariosa,https://www.datatourisme.fr/ontology/core#FoodEstablishment|https://www.datatourisme.fr/ontology/core#PlaceOfInterest|https://www.datatourisme.fr/ontology/core#PointOfInterest|https://www.datatourisme.fr/ontology/core#Restaurant|https://www.datatourisme.fr/ontology/core#Accommodation|https://www.datatourisme.fr/ontology/core#Hotel|https://www.datatourisme.fr/ontology/core#HotelRestaurant|https://www.datatourisme.fr/ontology/core#HotelTrade|http://schema.org/Accommodation|http://schema.org/FoodEstablishment|http://schema.org/LodgingBusiness|http://schema.org/Restaurant|http://schema.org/Hotel,41.588729,9.304513,Route de Palombaggia par Piccovaggia,20137,+33 4 95 70 17 77,contact@hotelmariosa.com,http://www.hotelmariosa.com/,Porto-Vecchio,"Hôtel 4 étoiles, pieds dans l’eau, construction contemporaine avec bar, restaurant, piscine, plage, parking privé, accès wifi. Chambre en open space, accessibilité aux personnes à mobilité réduite."
370,Calvi Evasion Promenades en Mer,https://www.datatourisme.fr/ontology/core#PlaceOfInterest|https://www.datatourisme.fr/ontology/core#PointOfInterest|https://www.datatourisme.fr/ontology/core#SportsAndLeisurePlace|https://www.datatourisme.fr/ontology/core#SightseeingBoat|http://schema.org/LocalBusiness,42.564723,8.756556,Quai Landry Port de plaisance (face à l'amphithéâtre - guichet bleu),20260,+33 7 87 13 59 95,calvievasion@gmail.com,https://www.calvi-evasion.com/,Calvi,Promenade en mer en Corse... naviguez le long des côtes de Balagne avec Calvi Evasion...
371,U Paviddonu,https://www.datatourisme.fr/ontology/core#PlaceOfInterest|https://www.datatourisme.fr/ontology/core#PointOfInterest|https://www.datatourisme.fr/ontology/core#Accommodation|https://www.datatourisme.fr/ontology/core#CollectiveAccommodation|https://www.datatourisme.fr/ontology/core#HolidayResort|http://schema.org/Accommodation|http://schema.org/LodgingBusiness,41.600305,9.334243,Lieu dit Pavellone Route de Palombaggia,20137,+33 6 15 57 31 21,info@paviddonu.com,http://www.paviddonu.com/,Porto-Vecchio,"Au sud du golfe de Porto Vecchio, la résidence U PAVIDDONU*** avec sa piscine chauffée, son restaurant et son accès direct à la mer est heureuse de vous accueillir dans 20 mini-villas climatisées tout confort, les pieds dans l'eau."
372,La Pietra,https://www.datatourisme.fr/ontology/core#FoodEstablishment|https://www.datatourisme.fr/ontology/core#PlaceOfInterest|https://www.datatourisme.fr/ontology/core#PointOfInterest|https://www.datatourisme.fr/ontology/core#Restaurant|https://www.datatourisme.fr/ontology/core#Accommodation|https://www.datatourisme.fr/ontology/core#Hotel|https://www.datatourisme.fr/ontology/core#HotelRestaurant|https://www.datatourisme.fr/ontology/core#HotelTrade|http://schema.org/Accommodation|http://schema.org/FoodEstablishment|http://schema.org/LodgingBusiness|http://schema.org/Restaurant|http://schema.org/Hotel,42.643407,8.936702,Chemin du phare,20220,+33 4 95 63 02 30,info@hotel-lapietra.com,http://www.hotel-lapietra.com/,L'Île-Rousse,"Depuis 1961, l'hôtel La Pietra, idéalement situé sur l'île du même nom, vous reçoit les pieds dans l'eau avec une vue imprenable sur le Cap Corse. Spa, salle de massage, restaurant, bar: vivez une expérience élégante et voluptueuse dans un cadre unique."
374,Golfe Hôtel,https://www.datatourisme.fr/ontology/core#PlaceOfInterest|https://www.datatourisme.fr/ontology/core#PointOfInterest|https://www.datatourisme.fr/ontology/core#Accommodation|https://www.datatourisme.fr/ontology/core#Hotel|https://www.datatourisme.fr/ontology/core#HotelTrade|http://schema.org/Accommodation|http://schema.org/LodgingBusiness|http://schema.org/Hotel,41.581376,9.276602,Rue du 9 septembre 1943,20137,+33 4 95 70 48 20,info@golfehotel-corse.com,http://www.golfehotel-corse.com/,Porto-Vecchio,"Le Golfe Hôtel vous propose une escale zen et charme, à quelques pas du centre ville et du port.
Sa situation centrale vous permettra de découvrir la Corse du Sud."
376,La Revellata,https://www.datatourisme.fr/ontology/core#PlaceOfInterest|https://www.datatourisme.fr/ontology/core#PointOfInterest|https://www.datatourisme.fr/ontology/core#Accommodation|https://www.datatourisme.fr/ontology/core#Hotel|https://www.datatourisme.fr/ontology/core#HotelTrade|http://schema.org/Accommodation|http://schema.org/LodgingBusiness|http://schema.org/Hotel,42.568,8.7535,Avenue Napoléon Route de Porto par la côte,20260,+33 4 95 65 01 89,hotelrevellata@orange.fr,https://www.hotelrevellata.com/,Calvi,"De style contemporain et design, cet hôtel vous offre une vue imprenable sur la mer, la citadelle de Calvi et la presqu'île de laquelle il tire son nom. Nous vous souhaitons un agréable séjour en Balagne et en Corse."
388,Jardin botanique fruitier d'Avapessa,https://www.datatourisme.fr/ontology/core#CulturalSite|https://www.datatourisme.fr/ontology/core#ParkAndGarden|https://www.datatourisme.fr/ontology/core#PlaceOfInterest|https://www.datatourisme.fr/ontology/core#PointOfInterest|http://schema.org/Park,42.559385,8.90357,Domaine du Gros Chêne,20225,+33 4 95 61 81 91,contact@jardinfruitieravapessa.com,http://www.jardinfruitieravapessa.com/,Avapessa,"Un jardin botanique fruitier de collection et expérimental unique en France de part sa diversité, son mode de culture entièrement naturel, sans engrais chimiques et sans pesticides. A découvrir avec les conseils du maître des lieux."
391,Les Pins de Santa Giulia,https://www.datatourisme.fr/ontology/core#PlaceOfInterest|https://www.datatourisme.fr/ontology/core#PointOfInterest|https://www.datatourisme.fr/ontology/core#Accommodation|https://www.datatourisme.fr/ontology/core#CollectiveAccommodation|https://www.datatourisme.fr/ontology/core#HolidayResort|http://schema.org/Accommodation|http://schema.org/LodgingBusiness,41.535,9.2625,Route de Bonifacio,20137,+33 4 95 70 57 01,contact@lespinsdesantagiulia.com,http://www.lespinsdesantagiulia.com/,Porto-Vecchio,"Au sein d’une résidence calme classée ***, 16 villas climatisées et entièrement équipées avec piscine chauffée près de Santa Giulia dont 6 avec jardin privatif, petit-déjeuner livrés en villa."
392,Le Popeye,https://www.datatourisme.fr/ontology/core#PlaceOfInterest|https://www.datatourisme.fr/ontology/core#PointOfInterest|https://www.datatourisme.fr/ontology/core#SportsAndLeisurePlace|https://www.datatourisme.fr/ontology/core#SightseeingBoat|http://schema.org/LocalBusiness,42.679154,9.301499,Port de Plaisance,20298,+33 4 95 37 19 07,,http://www.lepopeye.com/,Saint-Florent,"Accédez en bateau aux magnifiques plages de Saleccia et du Lotu avec la compagnie Le Popeye et U Saleccia au départ de Saint Florent. Pour une découverte de la côte jusqu'au Cap Corse, le Popeye vous propose également des promenades guidées en mer."
394,Hôtel Moderne,https://www.datatourisme.fr/ontology/core#PlaceOfInterest|https://www.datatourisme.fr/ontology/core#PointOfInterest|https://www.datatourisme.fr/ontology/core#Accommodation|https://www.datatourisme.fr/ontology/core#Hotel|https://www.datatourisme.fr/ontology/core#HotelTrade|http://schema.org/Accommodation|http://schema.org/LodgingBusiness|http://schema.org/Hotel,41.590697,9.279419,10 cours Napoléon,20137,+33 4 95 70 06 36,contact@hotel-moderne.com,https://www.hotel-moderne.com/,Porto-Vecchio,Hôtel 4 étoiles contemporain et intimiste en plein coeur du centre historique de Porto-Vecchio.
395,L'Olivella,https://www.datatourisme.fr/ontology/core#PlaceOfInterest|https://www.datatourisme.fr/ontology/core#PointOfInterest|https://www.datatourisme.fr/ontology/core#Accommodation|https://www.datatourisme.fr/ontology/core#CollectiveAccommodation|https://www.datatourisme.fr/ontology/core#HolidayResort|http://schema.org/Accommodation|http://schema.org/LodgingBusiness,42.626342,8.921361,Route de Calvi Col de Fogata,20220,+33 6 03 88 99 54,contact@residence-olivella.fr,https://www.residence-olivella.fr/,Corbara,"Séjournez dans un cadre exceptionnel en plein cœur d’une oliveraie à l'Ile Rousse en Haute-Corse.
L’Olivella, résidence de tourisme agréable et accueillante vous offre un bel esprit de vacances et un panorama exceptionnel sur la mer."
396,Musée de la Résistance de Zonza,http://schema.org/Museum|https://www.datatourisme.fr/ontology/core#CulturalSite|https://www.datatourisme.fr/ontology/core#Museum|https://www.datatourisme.fr/ontology/core#PlaceOfInterest|https://www.datatourisme.fr/ontology/core#PointOfInterest|https://www.datatourisme.fr/ontology/core#DefenceSite|http://schema.org/LocalBusiness,41.750492,9.171051,Village,20124,+33 4 95 78 56 33,musee-resistance-zonza@orange.fr,http://www.musee-resistance-zonza.fr/,Zonza,Découvrez l'histoire héroïque de la Résistance corse au Musée de la Résistance à Zonza. Plongez dans la seconde guerre mondiale à travers des documents authentiques. Des faits exemplaires de courage vous attendent dans ce haut-lieu de mémoire.
398,Les Tamaris 2,https://www.datatourisme.fr/ontology/core#PlaceOfInterest|https://www.datatourisme.fr/ontology/core#PointOfInterest|https://www.datatourisme.fr/ontology/core#Accommodation|https://www.datatourisme.fr/ontology/core#CollectiveAccommodation|https://www.datatourisme.fr/ontology/core#HolidayResort|http://schema.org/Accommodation|http://schema.org/LodgingBusiness,41.637925,9.338899,2 corsu Napoleonu San  Ciprianu,20137,+33 6 09 09 54 69,residence.tamaris.portovecchio@wanadoo.fr,https://www.tamaris-2.fr/,Lecci,Résidence de tourisme à caractère familial pour des vacances avec enfants à proximité de la plage et des commerces. Ensemble de 12 maisons groupées par 3 avec chacune une terrasse et jardin privatif.
403,Balanea,https://www.datatourisme.fr/ontology/core#PlaceOfInterest|https://www.datatourisme.fr/ontology/core#PointOfInterest|https://www.datatourisme.fr/ontology/core#Accommodation|https://www.datatourisme.fr/ontology/core#Camping|https://www.datatourisme.fr/ontology/core#CampingAndCaravanning|http://schema.org/Accommodation|http://schema.org/LodgingBusiness,42.607562,8.888071,Route d'Algajola,20256,+33 4 95 60 11 77,contact@balanea.net,http://www.balanea.net/,Corbara,"Petit camping familial situé sur un terrain ombragé de chênes, d'eucalyptus, de saules et de mimosas, à 1 km à vole d'oiseau de la magnifique plage de sable fin d'Algajola. Très apprécié pour son ombrage et ses emplacements spacieux."
404,Casa Legna,https://www.datatourisme.fr/ontology/core#PlaceOfInterest|https://www.datatourisme.fr/ontology/core#PointOfInterest|https://www.datatourisme.fr/ontology/core#Accommodation|https://www.datatourisme.fr/ontology/core#Hotel|https://www.datatourisme.fr/ontology/core#HotelTrade|http://schema.org/Accommodation|http://schema.org/LodgingBusiness|http://schema.org/Hotel,42.605477,8.884297,Lieu dit Biccalli Route du Ranch,20220,+33 4 95 34 03 64,contact@casalegna.com,https://www.casalegna.com/,Pigna,L'Hôtel Ecolodge Casa Legna vous accueille dans un écrin de verdure au coeur de la vallée de Pigna. C'est dans un environnement exceptionnel que vous séjournerez dans un confort de haut standing et de bien-être inoubliable.
407,Village de L'Ostriconi - Camping,https://www.datatourisme.fr/ontology/core#PlaceOfInterest|https://www.datatourisme.fr/ontology/core#PointOfInterest|https://www.datatourisme.fr/ontology/core#Accommodation|https://www.datatourisme.fr/ontology/core#Camping|https://www.datatourisme.fr/ontology/core#CampingAndCaravanning|http://schema.org/Accommodation|http://schema.org/LodgingBusiness,42.653704,9.06709,Route du bord de mer - T30 Village Camping de l'Ostriconi,20226,+33 4 95 60 10 05,info@village-ostriconi.com,http://www.village-ostriconi.com/,Palasca,"En pleine nature, au cœur du maquis corse, à la limite de l'Agriate, le camping de l'Ostriconi vous accueille pour des vacances sous le signe de la détente. Vous séjournerez dans un confort agréable avec de nombreuses distractions pour toute la famille."
417,Cala Di Sole,https://www.datatourisme.fr/ontology/core#PlaceOfInterest|https://www.datatourisme.fr/ontology/core#PointOfInterest|https://www.datatourisme.fr/ontology/core#Accommodation|https://www.datatourisme.fr/ontology/core#CollectiveAccommodation|https://www.datatourisme.fr/ontology/core#HolidayResort|http://schema.org/Accommodation|http://schema.org/LodgingBusiness,41.637556,9.346176,68 Corsu Napoleoni San Ciprianu,20137,+33 4 95 71 66 74,contact@terrazzoni.com,http://www.caladisole-corse.com/,Lecci,"La Résidence Cala di Sole, près de Porto-Vecchio en Corse du Sud (Commune de Lecci), vous propose ses 8 charmants appartements joliment aménagés avec vue sur la mer ou/et sur le lac marin de Saint Cyprien."
422,Petralegna - Jardins du Golfe,https://www.datatourisme.fr/ontology/core#PlaceOfInterest|https://www.datatourisme.fr/ontology/core#PointOfInterest|https://www.datatourisme.fr/ontology/core#Accommodation|https://www.datatourisme.fr/ontology/core#Camping|https://www.datatourisme.fr/ontology/core#CampingAndCaravanning|http://schema.org/Accommodation|http://schema.org/LodgingBusiness,41.57332,9.28991,Route de Palombaggia Les Jardins du Golfe,20137,+33 6 44 67 59 49,contact@petralegna.com,https://www.petralegna.com/,Porto-Vecchio,"Profiter du calme et de la sérénité de PetraLegna situé au cœur d’une forêt de chênes-lièges, entre mer et montage. Tous les hébergements sont climatisés pour un séjour à proximité de Porto-Vecchio et des plus belles plages de Corse."
424,Corse Nautic Escape,https://www.datatourisme.fr/ontology/core#PlaceOfInterest|https://www.datatourisme.fr/ontology/core#PointOfInterest|https://www.datatourisme.fr/ontology/core#SportsAndLeisurePlace|https://www.datatourisme.fr/ontology/core#SightseeingBoat|http://schema.org/LocalBusiness,41.38927,9.162383,Port de Plaisance Port de Bonifacio 20169 Bonifacio,20169,+33 7 57 46 55 61,hello@corse-nautic-escape.com,https://www.corse-nautic-escape.com/,Bonifacio,"Voguez d’île en île, au cœur des plus beaux sites sauvages du Sud de la Corse, du Parc Marin International des Bouches de Bonifacio. Les archipels des îles Lavezzi et des îles de la Maddalena n’attendent que vous !"
428,Napoléon Bonaparte,https://www.datatourisme.fr/ontology/core#FoodEstablishment|https://www.datatourisme.fr/ontology/core#PlaceOfInterest|https://www.datatourisme.fr/ontology/core#PointOfInterest|https://www.datatourisme.fr/ontology/core#Restaurant|https://www.datatourisme.fr/ontology/core#Accommodation|https://www.datatourisme.fr/ontology/core#Hotel|https://www.datatourisme.fr/ontology/core#HotelRestaurant|https://www.datatourisme.fr/ontology/core#HotelTrade|http://schema.org/Accommodation|http://schema.org/FoodEstablishment|http://schema.org/LodgingBusiness|http://schema.org/Restaurant|http://schema.org/Hotel,42.633454,8.939181,3 Place Paoli,20220,+33 4 95 60 06 09,napoleon@langley.eu,http://www.langleyhotels.eu/fr/our-hotels/resort-napoleon-bonaparte/,L'Île-Rousse,"Ancien château construit en 1837 par Sébastien Piccioni, transformé en 1929 en hôtel de tourisme, l'Hôtel Napoléon Bonaparte fait partie des établissements de vacances les plus chargés d'histoire de toute la Corse."
429,E Cinque Arcate,https://www.datatourisme.fr/ontology/core#PlaceOfInterest|https://www.datatourisme.fr/ontology/core#PointOfInterest|https://www.datatourisme.fr/ontology/core#Accommodation|https://www.datatourisme.fr/ontology/core#Hotel|https://www.datatourisme.fr/ontology/core#HotelTrade|http://schema.org/Accommodation|http://schema.org/LodgingBusiness|http://schema.org/Hotel,42.411585,8.682825,Pont des Cinque Arcate,20245,+33 4 95 62 02 54,arcades@wanadoo.fr,https://www.hotelcorse-galeria.com/fr,Galéria,"Cet hôtel situé en Balagne vous séduira par sa situation à la fois proche du village de Galeria et sa proximité avec la célèbre rivière du Fangu.
Vous pourrez également profiter de moment de détente sur sa grande terrasse. Bonnes vacances en Corse !"
430,Hostellerie L'Abbaye,https://www.datatourisme.fr/ontology/core#PlaceOfInterest|https://www.datatourisme.fr/ontology/core#PointOfInterest|https://www.datatourisme.fr/ontology/core#Accommodation|https://www.datatourisme.fr/ontology/core#Hotel|https://www.datatourisme.fr/ontology/core#HotelTrade|http://schema.org/Accommodation|http://schema.org/LodgingBusiness|http://schema.org/Hotel,42.563826,8.75423,Route de Santore,20260,+33 4 95 65 04 27,abbaye.hotel@wanadoo.fr,http://www.hostellerie-abbaye.com/,Calvi,"Réservez dès à présent votre hôtel de charme en Corse...
Aménagé dans les murs de l'ancien couvent St François du XVIème siècle, l'hostellerie de l'Abbaye se situe en Balagne, à 150 m. du centre ville et 200 m. de la plage de sable fin de Calvi."
432,Corse Émotion,https://www.datatourisme.fr/ontology/core#PlaceOfInterest|https://www.datatourisme.fr/ontology/core#PointOfInterest|https://www.datatourisme.fr/ontology/core#SportsAndLeisurePlace|https://www.datatourisme.fr/ontology/core#SightseeingBoat|http://schema.org/LocalBusiness,42.268743,8.693389,Place de la Marine Porto Hôtel des Flots Bleus,20150,+33 6 68 58 94 94,corse-emotion@orange.fr,http://www.corse-emotion.com/,Ota,"Venez découvrir les sites de SCANDOLA, les calanques de Piana, Capo Rosso, Girolata et le fond du golfe de Porto à bord de bateaux de 12 places et de notre semi sous-marin et faites votre choix avec des balades de 45 mn à 3h"
437,Mare Bellu,https://www.datatourisme.fr/ontology/core#PlaceOfInterest|https://www.datatourisme.fr/ontology/core#PointOfInterest|https://www.datatourisme.fr/ontology/core#SportsAndLeisurePlace|https://www.datatourisme.fr/ontology/core#SightseeingBoat|http://schema.org/LocalBusiness,42.066179,8.737414,Centre village Tiuccia,20111,+33 6 99 32 03 08,contact@mare-bellu.com,http://www.mare-bellu.com/,Casaglione,"Mare Bellu propose des excursions en mer pour visiter les calanques de Piana, Girolata, Scandola, îles Sanguinaires et Bonifacio. Visite des grottes, baignades, apéritif et coucher de soleil. En petit comité avec des bateaux tout confort et tout équipés."
441,Les Toits de Santa Giulia,https://www.datatourisme.fr/ontology/core#PlaceOfInterest|https://www.datatourisme.fr/ontology/core#PointOfInterest|https://www.datatourisme.fr/ontology/core#Accommodation|https://www.datatourisme.fr/ontology/core#CollectiveAccommodation|https://www.datatourisme.fr/ontology/core#HolidayResort|http://schema.org/Accommodation|http://schema.org/LodgingBusiness,41.542769,9.281129,Route de Petriaggione,20137,+33 4 95 70 02 54,contact@asantagiulia.com,http://www.asantagiulia.com/,Porto-Vecchio,Un sentiment immense de quiétude s'installe dès que l'on pénètre cet écrin de verdure où se nichent coquettement 15 demeures de charme et une piscine chauffée. Un nid confortable dans un écrin de verdure à 1300 mètre de la magnifique plage de Santa Giulia
442,Christophe Colomb,https://www.datatourisme.fr/ontology/core#FoodEstablishment|https://www.datatourisme.fr/ontology/core#PlaceOfInterest|https://www.datatourisme.fr/ontology/core#PointOfInterest|https://www.datatourisme.fr/ontology/core#Restaurant|https://www.datatourisme.fr/ontology/core#Accommodation|https://www.datatourisme.fr/ontology/core#Hotel|https://www.datatourisme.fr/ontology/core#HotelRestaurant|https://www.datatourisme.fr/ontology/core#HotelTrade|http://schema.org/Accommodation|http://schema.org/FoodEstablishment|http://schema.org/LodgingBusiness|http://schema.org/Restaurant|http://schema.org/Hotel,42.568301,8.757606,Place Bel Ombra,20260,+33 4 95 65 06 04,hotelchristophecolombcalvi@gmail.com,http://www.hotelchristophecolomb.com/,Calvi,"Optez pour cet hôtel-restaurant de charme, entièrement rénové, en centre ville, face à la mer et à la Citadelle de Calvi pour votre séjour en Balagne et en Corse."
443,Le Saint Christophe,https://www.datatourisme.fr/ontology/core#FoodEstablishment|https://www.datatourisme.fr/ontology/core#PlaceOfInterest|https://www.datatourisme.fr/ontology/core#PointOfInterest|https://www.datatourisme.fr/ontology/core#Restaurant|https://www.datatourisme.fr/ontology/core#Accommodation|https://www.datatourisme.fr/ontology/core#Hotel|https://www.datatourisme.fr/ontology/core#HotelRestaurant|https://www.datatourisme.fr/ontology/core#HotelTrade|http://schema.org/Accommodation|http://schema.org/FoodEstablishment|http://schema.org/LodgingBusiness|http://schema.org/Restaurant|http://schema.org/Hotel,42.568729,8.75694,Place Bel Ombra,20260,+33 4 95 65 05 74,info@hotel-saint-christophe.com,http://www.hotel-saint-christophe.com/,Calvi,"Avec la citadelle pour confidente et la mer à ses pieds, le Saint Christophe offre une vue exceptionnelle avec pour horizon un séjour inoubliable en Balagne, doux comme le sable des plages environnantes et fort comme les contrastes des paysages de Corse."
444,Office de Tourisme de L'Île-Rousse Balagne,https://www.datatourisme.fr/ontology/core#PlaceOfInterest|https://www.datatourisme.fr/ontology/core#PointOfInterest|https://www.datatourisme.fr/ontology/core#Store|https://www.datatourisme.fr/ontology/core#LocalTouristOffice|https://www.datatourisme.fr/ontology/core#TouristInformationCenter|http://schema.org/LocalBusiness|http://schema.org/TouristInformationCenter,42.633765,8.940127,Avenue Calizi,20220,+33 4 95 60 04 35,info@ileroussetourisme.com,https://www.balagne-corsica.com/<>https://balagne-corsica.com/office-de-tourisme-lile-rousse-balagne/,L'Île-Rousse,L'Office de Tourisme de L'Île-Rousse est à votre entière disposition pour l'organisation de votre séjour en Balagne et en Corse. Nos conseillers en séjour sont à votre écoute et répondent à toutes vos questions.
450,La Matonara,https://www.datatourisme.fr/ontology/core#PlaceOfInterest|https://www.datatourisme.fr/ontology/core#PointOfInterest|https://www.datatourisme.fr/ontology/core#Accommodation|https://www.datatourisme.fr/ontology/core#Camping|https://www.datatourisme.fr/ontology/core#CampingAndCaravanning|http://schema.org/Accommodation|http://schema.org/LodgingBusiness,41.595187,9.274362,Les 4 chemins Lieu dit Matonara,20137,+33 4 95 70 37 05,lamatonara@wanadoo.fr,http://www.camping-matonara.fr/,Porto-Vecchio,"Camp de vacances de 10 hectares de chênes-lièges et d'oliviers séculaires à proximité des 4 chemins, à l'entrée nord de Porto-Vecchio à proximité de tous les commerces mais à l'écart des embarras.
Nous louons également des chalets de 4/5 personnes."
451,Palazzu Pigna,https://www.datatourisme.fr/ontology/core#FoodEstablishment|https://www.datatourisme.fr/ontology/core#PlaceOfInterest|https://www.datatourisme.fr/ontology/core#PointOfInterest|https://www.datatourisme.fr/ontology/core#Restaurant|https://www.datatourisme.fr/ontology/core#Accommodation|https://www.datatourisme.fr/ontology/core#Hotel|https://www.datatourisme.fr/ontology/core#HotelRestaurant|https://www.datatourisme.fr/ontology/core#HotelTrade|http://schema.org/Accommodation|http://schema.org/FoodEstablishment|http://schema.org/LodgingBusiness|http://schema.org/Restaurant|http://schema.org/Hotel,42.599914,8.902531,Pigna,20220,+33 4 95 35 16 47,palazzupigna@wanadoo.fr,http://www.palazzu-pigna.com/,Pigna,"En haut du village de la musique et de l'artisanat : PIGNA, l'hôtel d'hôtes,  vous accueille dans une demeure familiale du XVIIIe. Vous logerez dans des suites simples, spacieuses, raffinées avec vue  panoramique sur la mer et les montagnes alentours ."
455,Case Latine,https://www.datatourisme.fr/ontology/core#FoodEstablishment|https://www.datatourisme.fr/ontology/core#PlaceOfInterest|https://www.datatourisme.fr/ontology/core#PointOfInterest|https://www.datatourisme.fr/ontology/core#Restaurant|https://www.datatourisme.fr/ontology/core#Accommodation|https://www.datatourisme.fr/ontology/core#Hotel|https://www.datatourisme.fr/ontology/core#HotelRestaurant|https://www.datatourisme.fr/ontology/core#HotelTrade|http://schema.org/Accommodation|http://schema.org/FoodEstablishment|http://schema.org/LodgingBusiness|http://schema.org/Restaurant|http://schema.org/Hotel,42.575048,9.171653,Route du haut du village,20218,+33 6 22 37 14 16,info@caselatine.com,http://www.caselatine.com/,Lama,"Magnifique hôtel de caractère situé à flanc de colline au cœur du village de Lama, offrant une vue imprenable sur la vallée de l'Ostriconi à 15 km des plages de Balagne et 20 km des Agriates."
456,Les Cigales,https://www.datatourisme.fr/ontology/core#PlaceOfInterest|https://www.datatourisme.fr/ontology/core#PointOfInterest|https://www.datatourisme.fr/ontology/core#Accommodation|https://www.datatourisme.fr/ontology/core#CollectiveAccommodation|https://www.datatourisme.fr/ontology/core#HolidayResort|http://schema.org/Accommodation|http://schema.org/LodgingBusiness,41.595387,9.270487,Rue Antoine Filippi Résidence Les Cigales,20137,+33 4 95 70 06 66,lescigalessudcorse@wanadoo.fr,,Porto-Vecchio,"Situées dans un parc boisé, fleuri et calme, à 15/20 minutes des belles plages et 5 du centre du village.
Nos mini-villas, entièrement équipées, disposent de terrasses couvertes, salons de jardin et barbecues, wifi, climatisation, parking."
459,Dolce Vita,https://www.datatourisme.fr/ontology/core#PlaceOfInterest|https://www.datatourisme.fr/ontology/core#PointOfInterest|https://www.datatourisme.fr/ontology/core#Accommodation|https://www.datatourisme.fr/ontology/core#Camping|https://www.datatourisme.fr/ontology/core#CampingAndCaravanning|http://schema.org/Accommodation|http://schema.org/LodgingBusiness,42.554369,8.790298,Lieu dit Ponte Bambinu RT 30,20260,+33 4 95 65 05 99,dolce-vita.office@orange.fr,https://www.dolce-vita-calvi.com/,Calvi,"Réservez dès à présent votre camping au bord de l'eau à Calvi en Corse situé au coeur de la Balagne, une des régions les plus préservées de la Corse, au bord d’une charmante rivière donnant directement sur la plage de sable fin de Calvi."
461,Les Mouettes,https://www.datatourisme.fr/ontology/core#FoodEstablishment|https://www.datatourisme.fr/ontology/core#PlaceOfInterest|https://www.datatourisme.fr/ontology/core#PointOfInterest|https://www.datatourisme.fr/ontology/core#Restaurant|https://www.datatourisme.fr/ontology/core#Accommodation|https://www.datatourisme.fr/ontology/core#Hotel|https://www.datatourisme.fr/ontology/core#HotelRestaurant|https://www.datatourisme.fr/ontology/core#HotelTrade|http://schema.org/Accommodation|http://schema.org/FoodEstablishment|http://schema.org/LodgingBusiness|http://schema.org/Restaurant|http://schema.org/Hotel,42.627259,9.011729,Lieu-dit Losari Route de Belgodère,20226,+33 4 95 60 03 23,info@hotel-lozari.com,https://www.hotel-lesmouettes-lozari.com/,Belgodère,L'hôtel & Restaurant Les Mouettes *** vous promet un moment de calme et volupté. Un séjour inoubliable dans un cadre arboré avec piscine pour se relaxer.
470,La Pinède,https://www.datatourisme.fr/ontology/core#PlaceOfInterest|https://www.datatourisme.fr/ontology/core#PointOfInterest|https://www.datatourisme.fr/ontology/core#Accommodation|https://www.datatourisme.fr/ontology/core#Camping|https://www.datatourisme.fr/ontology/core#CampingAndCaravanning|http://schema.org/Accommodation|http://schema.org/LodgingBusiness,42.554359,8.769469,Route de la Pinède,20260,+33 4 95 65 17 80,info@camping-calvi.com,https://www.camping-calvi.com/,Calvi,"Réservez dès à présent votre camping en Corse, à Calvi...
A deux minutes à pied de l’une des plus belles plages de Corse, à moins d’un quart d’heure du centre-ville de Calvi, venez poser vos valises au cœur d’un parc forestier calme et ombragé."
472,Pitrera Village,https://www.datatourisme.fr/ontology/core#PlaceOfInterest|https://www.datatourisme.fr/ontology/core#PointOfInterest|https://www.datatourisme.fr/ontology/core#Accommodation|https://www.datatourisme.fr/ontology/core#Camping|https://www.datatourisme.fr/ontology/core#CampingAndCaravanning|http://schema.org/Accommodation|http://schema.org/LodgingBusiness,41.634,9.2945,RT10 Village de Trinité,20137,+33 4 95 70 20 10,pitrera@orange.fr,http://www.pitrera.com/,Porto-Vecchio,"Agréable et ombragé, notre camping se situe à 5 km de Porto-Vecchio.
Vous pourrez profiter de la piscine chauffée, du bar-restaurant et de nos toboggans. Ouvert d’avril à octobre, nous vous attendons en chalets ou en tentes."
475,Il Tramonto,https://www.datatourisme.fr/ontology/core#PlaceOfInterest|https://www.datatourisme.fr/ontology/core#PointOfInterest|https://www.datatourisme.fr/ontology/core#Accommodation|https://www.datatourisme.fr/ontology/core#Hotel|https://www.datatourisme.fr/ontology/core#HotelTrade|http://schema.org/Accommodation|http://schema.org/LodgingBusiness|http://schema.org/Hotel,42.568,8.750911,Route de Porto,20260,+33 4 95 65 04 17,il.tramonto.calvi@gmail.com,http://www.hoteliltramonto.com/,Calvi,"Il Tramonto en Balagne est un petit hôtel familial et chaleureux.
Idéalement situé, à 800 m. du centre-ville de Calvi, offrant une vue panoramique remarquable sur la mer et la Revellata... Son coucher de soleil fait partie des plus beaux de Corse."
477,Sole Mare,https://www.datatourisme.fr/ontology/core#PlaceOfInterest|https://www.datatourisme.fr/ontology/core#PointOfInterest|https://www.datatourisme.fr/ontology/core#Accommodation|https://www.datatourisme.fr/ontology/core#Hotel|https://www.datatourisme.fr/ontology/core#HotelTrade|http://schema.org/Accommodation|http://schema.org/LodgingBusiness|http://schema.org/Hotel,42.569502,8.755989,Pointe St François,20260,+33 4 95 65 09 50,info@calvi-location.fr,http://www.calvi-location.fr/,Calvi,"Hôtel situé en Balagne en Corse, au calme, à seulement 2 minutes à pied des plages rocheuses et d'une petite crique de sable, à proximité de la citadelle, à 5 minutes du centre ville de Calvi et de sa zone piétonne."
480,Méditerranée,https://www.datatourisme.fr/ontology/core#PlaceOfInterest|https://www.datatourisme.fr/ontology/core#PointOfInterest|https://www.datatourisme.fr/ontology/core#Accommodation|https://www.datatourisme.fr/ontology/core#Hotel|https://www.datatourisme.fr/ontology/core#HotelTrade|http://schema.org/Accommodation|http://schema.org/LodgingBusiness|http://schema.org/Hotel,42.568717,8.756545,Avenue Napoléon,20260,+33 4 95 65 08 58,contact@hotel-corse-mediterranee.com,https://www.hotel-corse-mediterranee.com/,Calvi,"Cet hôtel, au design épuré, dispose d'une situation privilégiée; certaines de ses chambres possèdent un balcon et vue sur la mer pour profiter d'un des plus beaux couchers de soleil de Balagne et de Corse... Bon séjour à Calvi !"
485,L'Alivu,https://www.datatourisme.fr/ontology/core#FoodEstablishment|https://www.datatourisme.fr/ontology/core#PlaceOfInterest|https://www.datatourisme.fr/ontology/core#PointOfInterest|https://www.datatourisme.fr/ontology/core#Restaurant|https://www.datatourisme.fr/ontology/core#Accommodation|https://www.datatourisme.fr/ontology/core#Hotel|https://www.datatourisme.fr/ontology/core#HotelRestaurant|https://www.datatourisme.fr/ontology/core#HotelTrade|http://schema.org/Accommodation|http://schema.org/FoodEstablishment|http://schema.org/LodgingBusiness|http://schema.org/Restaurant|http://schema.org/Hotel,42.412022,8.644852,Route de la mer,20245,+33 4 95 62 01 93,canava.dominique@orange.fr,http://www.hotel-lalivu.com/,Galéria,"Bienvenue dans cet hôtel à Galeria en Balagne, situé à 50 m. de la plage, avec piscine chauffée et chambres modernes très confortables avec balcon offrant une vue sur la mer ou le jardin pour un séjour en Corse inoubliable !"
489,Colombo Line,https://www.datatourisme.fr/ontology/core#PlaceOfInterest|https://www.datatourisme.fr/ontology/core#PointOfInterest|https://www.datatourisme.fr/ontology/core#SportsAndLeisurePlace|https://www.datatourisme.fr/ontology/core#SightseeingBoat|http://schema.org/LocalBusiness,42.565929,8.757507,Port de plaisance Quai Landry,20260,+33 6 22 96 88 70,infos@colombo-line.com,https://colomboline.resamare.com/<>https://www.colombo-line.com/,Calvi,"Visite commentée de la Réserve Naturelle de Scandola en vedette aquavision ou en semi-rigide au départ de Calvi en Corse.
Ancienne famille de pêcheurs, la famille Colombani propose des visites autour de la Réserve de Scandola depuis plus de 40 ans."
492,Corsica Zoo,http://schema.org/Zoo|https://www.datatourisme.fr/ontology/core#PlaceOfInterest|https://www.datatourisme.fr/ontology/core#PointOfInterest|https://www.datatourisme.fr/ontology/core#SportsAndLeisurePlace|https://www.datatourisme.fr/ontology/core#ZooAnimalPark|http://schema.org/LocalBusiness,42.623,9.3197,Lieu-dit Troscia Plaine du Nebbiu,20232,+33 4 95 56 77 50,zoodicorsica@gmail.com,https://www.corsicazoo.com/,Olmeta-di-Tuda,"Corsica Zoo, premier zoo en Corse, vous invite à découvrir son parc animalier riche de plus de 60 espèces et son parc botanique."
494,Les Oliviers de Palombaggia,https://www.datatourisme.fr/ontology/core#PlaceOfInterest|https://www.datatourisme.fr/ontology/core#PointOfInterest|https://www.datatourisme.fr/ontology/core#Accommodation|https://www.datatourisme.fr/ontology/core#CollectiveAccommodation|https://www.datatourisme.fr/ontology/core#HolidayResort|http://schema.org/Accommodation|http://schema.org/LodgingBusiness,41.579225,9.33383,Route de Palombaggia Km 9,20137,+33 4 95 70 36 42,contact@lesoliviersdepalombaggia.com,https://www.lesoliviersdepalombaggia.fr/,Porto-Vecchio,"Proche de Carataggia, Palombaggia, plages de sable fin, ou criques le Domaine vous accueille avec 13 bergeries,  en villas de pierres sèches, avec piscines, subtile alliance entre tradition et modernité pour un séjour en couple, entre amis ou en famille."
498,L'Escale Côté Port,https://www.datatourisme.fr/ontology/core#PlaceOfInterest|https://www.datatourisme.fr/ontology/core#PointOfInterest|https://www.datatourisme.fr/ontology/core#Accommodation|https://www.datatourisme.fr/ontology/core#Hotel|https://www.datatourisme.fr/ontology/core#HotelTrade|http://schema.org/Accommodation|http://schema.org/LodgingBusiness|http://schema.org/Hotel,42.637489,8.933032,Lotissement des îles,20220,+33 4 95 60 27 08,coteport@hotelilerousse.com,http://www.hotel-ilerousse.com/,L'Île-Rousse,"Hôtel contemporain composé de grandes chambres et d'appartements entièrement climatisés. Vous profiterez de sa situation idéale à 30m de la plage, 300m du centre historique de la ville et 100m du port."
499,Résidence Santa Maria,https://www.datatourisme.fr/ontology/core#PlaceOfInterest|https://www.datatourisme.fr/ontology/core#PointOfInterest|https://www.datatourisme.fr/ontology/core#Accommodation|https://www.datatourisme.fr/ontology/core#CollectiveAccommodation|https://www.datatourisme.fr/ontology/core#HolidayResort|http://schema.org/Accommodation|http://schema.org/LodgingBusiness,42.637671,8.934751,Lotissement des îles,20220,+33 6 25 33 13 49,info@residence-ile-rousse.fr,https://www.residence-ile-rousse.fr/,L'Île-Rousse,"La Résidence Santa Maria est le lieu idéal pour votre séjour. Située à proximité de la plage et à 500m du centre historique de L'Ile-Rousse, la résidence vous propose 21 studios tout confort et 4 suites avec toutes les prestations d'un établissement luxe."
502,Golden Tulip Porto-Vecchio,https://www.datatourisme.fr/ontology/core#FoodEstablishment|https://www.datatourisme.fr/ontology/core#PlaceOfInterest|https://www.datatourisme.fr/ontology/core#PointOfInterest|https://www.datatourisme.fr/ontology/core#Restaurant|https://www.datatourisme.fr/ontology/core#Accommodation|https://www.datatourisme.fr/ontology/core#Hotel|https://www.datatourisme.fr/ontology/core#HotelRestaurant|https://www.datatourisme.fr/ontology/core#HotelTrade|http://schema.org/Accommodation|http://schema.org/FoodEstablishment|http://schema.org/LodgingBusiness|http://schema.org/Restaurant|http://schema.org/Hotel,41.597303,9.277991,Rue Henri Frenay,20137,+33 4 13 96 18 13,info@goldentulipportovecchio.com,http://www.goldentulipportovecchio.com/,Porto-Vecchio,"Un nouvel hôtel 4 étoiles tout neuf à Porto-Vecchio, alliant modernité et chaleur méditerranéenne. Appréciez le calme et la vue depuis le balcon privatif de votre chambre."
503,Le Pass'Partout,https://www.datatourisme.fr/ontology/core#PlaceOfInterest|https://www.datatourisme.fr/ontology/core#PointOfInterest|https://www.datatourisme.fr/ontology/core#SportsAndLeisurePlace|https://www.datatourisme.fr/ontology/core#SightseeingBoat|http://schema.org/LocalBusiness,42.268319,8.694044,Place de la Marine Porto Anthony Boutique,20150,+33 6 29 47 10 00,montesenino@wanadoo.fr,http://www.lepasspartout.com/<>https://www.promenadesenmerporto.com/,Ota,"Découvrez la Réserve Naturelle de Scandola, Girolata, les calanche de Piana et leurs grottes à bord de petites navettes de 12 places tout confort, et une vedette hybride pour 35 pers. avec vision sous-marine par caméra."
504,Arutoli,https://www.datatourisme.fr/ontology/core#PlaceOfInterest|https://www.datatourisme.fr/ontology/core#PointOfInterest|https://www.datatourisme.fr/ontology/core#Accommodation|https://www.datatourisme.fr/ontology/core#Camping|https://www.datatourisme.fr/ontology/core#CampingAndCaravanning|http://schema.org/Accommodation|http://schema.org/LodgingBusiness,41.602,9.2672,Route de l'Ospedale,20137,+33 4 95 70 12 73,info@arutoli.com,http://www.arutoli.com/,Porto-Vecchio,"Esprit convivial et familial. Camping ombragé, idéalement situé pour rayonner à la découverte de l'Extrême-Sud et de l'Alta Rocca tout en étant proche des services et des commerces."
505,Le Goéland,https://www.datatourisme.fr/ontology/core#PlaceOfInterest|https://www.datatourisme.fr/ontology/core#PointOfInterest|https://www.datatourisme.fr/ontology/core#SportsAndLeisurePlace|https://www.datatourisme.fr/ontology/core#SightseeingBoat|http://schema.org/LocalBusiness,42.266251,8.693779,Rive gauche Port de Porto,20150,+33 6 09 49 06 10,legoeland.porto@gmail.com,http://www.goeland-porto.fr/,Ota,"Embarquez avec le Goéland pour découvrir la Réserve Naturelle de Scandola et les Calanche de Piana. Fort de nos 20 ans d'expérience, le Golfe de Porto n'aura plus de secret pour vous. Réservation en ligne possible. -10% avec le code promo ot2020"
512,Les Alizés,https://www.datatourisme.fr/ontology/core#PlaceOfInterest|https://www.datatourisme.fr/ontology/core#PointOfInterest|https://www.datatourisme.fr/ontology/core#Accommodation|https://www.datatourisme.fr/ontology/core#CollectiveAccommodation|https://www.datatourisme.fr/ontology/core#HolidayResort|http://schema.org/Accommodation|http://schema.org/LodgingBusiness,42.629741,8.954928,Lotissement Castellaccio Route de Bastia,20220,+33 4 95 60 08 06,residencealizes@gmail.com,http://www.motel-lesalizes.com/,L'Île-Rousse,"A proximité de L'Ile-Rousse et des plages, la résidence Les Alizés vous offre une vue remarquable sur les montagnes et le village de Monticello.  Pour votre confort, des appartements spacieux,
 Deux piscines, salle fitness, bain à remous et hammam."
513,Costa Salina,https://www.datatourisme.fr/ontology/core#FoodEstablishment|https://www.datatourisme.fr/ontology/core#PlaceOfInterest|https://www.datatourisme.fr/ontology/core#PointOfInterest|https://www.datatourisme.fr/ontology/core#Restaurant|https://www.datatourisme.fr/ontology/core#Accommodation|https://www.datatourisme.fr/ontology/core#Hotel|https://www.datatourisme.fr/ontology/core#HotelRestaurant|https://www.datatourisme.fr/ontology/core#HotelTrade|http://schema.org/Accommodation|http://schema.org/FoodEstablishment|http://schema.org/LodgingBusiness|http://schema.org/Restaurant|http://schema.org/Hotel,41.588458,9.286725,Quai Pascal Paoli,20137,+33 4 95 28 45 22,contact@hotelcostasalina.com,http://www.hotelcostasalina.com/,Porto-Vecchio,"Hôtel avec piscine, hammam, jacuzzi, espace bien-être et aire de jeux, situé sur le port, à deux pas des commerces et restaurants.
Chambres et suites spacieuses, avec vue mer, piscine, marais salants ou jardin. Accueil chaleureux dans un cadre harmonieux."
515,1 - L’usine Saint Joseph,https://www.datatourisme.fr/ontology/core#CulturalSite|https://www.datatourisme.fr/ontology/core#PlaceOfInterest|https://www.datatourisme.fr/ontology/core#PointOfInterest|https://www.datatourisme.fr/ontology/core#IndustrialSite|https://www.datatourisme.fr/ontology/core#TechnicalHeritage,41.59109,9.28339,Quai Pascal Paoli,20137,+33 4 95 70 09 58,accueil@destination-sudcorse.com,http://www.ot-portovecchio.com/,Porto-Vecchio,
521,Brewpub Gloria,https://www.datatourisme.fr/ontology/core#FoodEstablishment|https://www.datatourisme.fr/ontology/core#PlaceOfInterest|https://www.datatourisme.fr/ontology/core#PointOfInterest|https://www.datatourisme.fr/ontology/core#SportsAndLeisurePlace|https://www.datatourisme.fr/ontology/core#BistroOrWineBar|http://schema.org/FoodEstablishment|http://schema.org/Winery,42.551229,8.778396,RT 30 Lieu dit Valle al Legnu,20260,+33 6 11 99 13 17,info@brasseriegloria.com,https://www.brasseriegloria.com/,Calvi,"Venez découvrir ces bières d'un autre genre...Gloria, la bière made in Calvi en Corse ! Chaque bière est associée à un personnage, à une histoire et à un nom, le tout résumé sur chaque bouteille. Bonne dégustation et bonne lecture !"
525,Grand Hôtel de Cala Rossa,https://www.datatourisme.fr/ontology/core#FoodEstablishment|https://www.datatourisme.fr/ontology/core#PlaceOfInterest|https://www.datatourisme.fr/ontology/core#PointOfInterest|https://www.datatourisme.fr/ontology/core#Restaurant|https://www.datatourisme.fr/ontology/core#Accommodation|https://www.datatourisme.fr/ontology/core#Hotel|https://www.datatourisme.fr/ontology/core#HotelRestaurant|https://www.datatourisme.fr/ontology/core#HotelTrade|http://schema.org/Accommodation|http://schema.org/FoodEstablishment|http://schema.org/LodgingBusiness|http://schema.org/Restaurant|http://schema.org/Hotel,41.621827,9.338508,Route de Cala Rossa,20137,+33 4 95 71 61 51,info@hotel-calarossa.com,https://www.hotel-calarossa.com/,Lecci,"Un bel hôtel de famille, qui a jeté l'ancre sur la presqu'ile de Cala Rossa, les pieds dans l'eau le long d'une immense plage de sable fin.
Membre Relais & Châteaux et Cercle des Grandes Maisons Corses."
526,Cala Rossa Bay Resort,https://www.datatourisme.fr/ontology/core#PlaceOfInterest|https://www.datatourisme.fr/ontology/core#PointOfInterest|https://www.datatourisme.fr/ontology/core#Accommodation|https://www.datatourisme.fr/ontology/core#CollectiveAccommodation|https://www.datatourisme.fr/ontology/core#HolidayResort|http://schema.org/Accommodation|http://schema.org/LodgingBusiness,41.628354,9.334957,Route de Cala Rossa,20137,+33 7 87 19 07 56,calabayresort@gmail.com,https://www.calarossabay.com/,Lecci,"Cala Rossa Bay Resort est la promesse d'une expérience unique dans l'une des plus belles baies du sud Corse. Sur le site exceptionnel de Cala Rossa, près de la plage, résidence de villas de grand standing avec prestations hôtelières assurées au quotidien."
527,Les Villas de Porto-Vecchio,https://www.datatourisme.fr/ontology/core#PlaceOfInterest|https://www.datatourisme.fr/ontology/core#PointOfInterest|https://www.datatourisme.fr/ontology/core#Accommodation|https://www.datatourisme.fr/ontology/core#CollectiveAccommodation|https://www.datatourisme.fr/ontology/core#HolidayResort|http://schema.org/Accommodation|http://schema.org/LodgingBusiness,41.642375,9.331556,Lieu dit Mora Dell Onda,20137,+33 4 95 73 47 69,contact@lesvillas.fr,https://www.pierreetvacances.com/fr-fr/fp_UBV_location-residence-premium-les-villas-de-porto-vecchio,Lecci,"La résidence Les Villas de Porto-Vecchio vous offre le parfait combo eaux turquoises, sable fin et petits commerces (à moins de 5 minutes de voiture)."
528,"La plage d'i Pini, péninsule de Palombaggia",https://www.datatourisme.fr/ontology/core#PlaceOfInterest|https://www.datatourisme.fr/ontology/core#PointOfInterest|https://www.datatourisme.fr/ontology/core#SportsAndLeisurePlace|https://www.datatourisme.fr/ontology/core#Beach|https://www.datatourisme.fr/ontology/core#NaturalHeritage|http://schema.org/Landform,41.560557,9.336311,Palombaggia,20137,+33 4 95 70 09 58,,,Porto-Vecchio,"Une aquarelle de bleu.
Cette pure merveille compte parmi les plus belles de l’île. Ses eaux peu profondes en font aussi le paradis des enfants."
529,"La plage de Tamaricciu, A Folacca",https://www.datatourisme.fr/ontology/core#PlaceOfInterest|https://www.datatourisme.fr/ontology/core#PointOfInterest|https://www.datatourisme.fr/ontology/core#SportsAndLeisurePlace|https://www.datatourisme.fr/ontology/core#Beach|https://www.datatourisme.fr/ontology/core#NaturalHeritage|http://schema.org/Landform,41.549863,9.309703,Palombaggia,20137,+33 4 95 70 09 58,,,Porto-Vecchio,"A Punta Columbara, pointe rocheuse de porphyre rouge, constitue le coeur de ce merveilleux site. 
Tamaricciu offre un cadre idyllique : sable blanc, amas de roches, pins parasols, maquis dense…"
538,Giru Mare,https://www.datatourisme.fr/ontology/core#PlaceOfInterest|https://www.datatourisme.fr/ontology/core#PointOfInterest|https://www.datatourisme.fr/ontology/core#SportsAndLeisurePlace|https://www.datatourisme.fr/ontology/core#SightseeingBoat|http://schema.org/LocalBusiness,42.565604,8.757349,Port de Calvi,20260,+33 6 76 37 64 53,contact@girumare.com,https://www.girumare.com/,Calvi,"Promenade en mer, de Piana à Centuri en passant par Scandola, votre capitaine, Claude, vous propose une expérience conviviale à bord d'un semi rigide de 11 mètres, en petit comité. Claude vous révèlera tous les secrets et les merveilles de la Corse."
539,U casteddu d’Araghju,https://www.datatourisme.fr/ontology/core#ArcheologicalSite|https://www.datatourisme.fr/ontology/core#CulturalSite|https://www.datatourisme.fr/ontology/core#PlaceOfInterest|https://www.datatourisme.fr/ontology/core#PointOfInterest,41.656311,9.279691,Araghju,20170,+33 4 95 70 09 58,,,San-Gavino-di-Carbini,"Forteresse cyclopéenne, aux remparts démesurés, plus de 2 mètres de largeur pour certains, le casteddu d’Araghju domine depuis plus de 4000 ans, la vaste plaine qui s’étend sous ses pieds offrant une vue imprenable le golfe de Porto-Vecchio."
540,"Ceccia, site archéologique de l’âge du Bronze",https://www.datatourisme.fr/ontology/core#ArcheologicalSite|https://www.datatourisme.fr/ontology/core#CulturalSite|https://www.datatourisme.fr/ontology/core#PlaceOfInterest|https://www.datatourisme.fr/ontology/core#PointOfInterest,41.560031,9.242944,Village de Ceccia,20137,+33 4 95 70 09 58,,,Porto-Vecchio,"À 5 min de Porto-Vecchio, un petit sentier au centre du village vous mènera à un monument circulaire d’environ 12 m de diamètre datant de 1350 av JC. Le panorama y est exceptionnel."
541,U Casteddu di Tappa,https://www.datatourisme.fr/ontology/core#ArcheologicalSite|https://www.datatourisme.fr/ontology/core#CulturalSite|https://www.datatourisme.fr/ontology/core#PlaceOfInterest|https://www.datatourisme.fr/ontology/core#PointOfInterest,41.552136,9.230978,Après le village de Ceccia Route de Sotta,20137,+33 4 95 70 09 58,,,Porto-Vecchio,"À 10 min de Porto-Vecchio, découvrez ce complexe archéologique datant du IVe millénaire avant notre ère (âge du bronze) offrant un point de vue superbe.
Constitué d’une enceinte cyclopéenne entourant un village et renfermant une « torre » monumentale."
551,Parcours A Marina,https://www.datatourisme.fr/ontology/core#PlaceOfInterest|https://www.datatourisme.fr/ontology/core#PointOfInterest|https://www.datatourisme.fr/ontology/core#SportsAndLeisurePlace|https://www.datatourisme.fr/ontology/core#Tour|https://www.datatourisme.fr/ontology/core#WalkingTour|https://www.datatourisme.fr/ontology/core#EducationalTrail|http://purl.org/ontology/olo/core#OrderedList,41.586854,9.290255,Quai Syracuse,20137,+33 4 95 70 09 58,accueil@destination-sudcorse.com,http://www.ot-portovecchio.com/,Porto-Vecchio,"Cette balade au fil de l’eau, emprunte les quais depuis le port de plaisance jusqu'au port de commerce et vous mène jusqu'à l'embouchure du Stabiacciu. Pour démarrer, rendez-vous à la gare routière."
552,Parcours A Citadedda,https://www.datatourisme.fr/ontology/core#PlaceOfInterest|https://www.datatourisme.fr/ontology/core#PointOfInterest|https://www.datatourisme.fr/ontology/core#SportsAndLeisurePlace|https://www.datatourisme.fr/ontology/core#Tour|https://www.datatourisme.fr/ontology/core#WalkingTour|https://www.datatourisme.fr/ontology/core#EducationalTrail|http://purl.org/ontology/olo/core#OrderedList,41.591983,9.278853,Quai Syracuse,20137,+33 4 95 70 09 58,accueil@destination-sudcorse.com,http://www.ot-portovecchio.com/,Porto-Vecchio,"Rendez-vous dans la haute-ville de Portivechju pour une incursion dans le cœur de ville des Porto-Vecchiais ! Nous vous attendons sur l’esplanade de l’Espace Jean-Paul De Rocca Serra, à quelques mètres de l’Office de Tourisme."
554,0 - Introitu,https://www.datatourisme.fr/ontology/core#PlaceOfInterest|https://www.datatourisme.fr/ontology/core#PointOfInterest|https://www.datatourisme.fr/ontology/core#SportsAndLeisurePlace|https://www.datatourisme.fr/ontology/core#Tour|https://www.datatourisme.fr/ontology/core#WalkingTour|https://www.datatourisme.fr/ontology/core#EducationalTrail|http://purl.org/ontology/olo/core#OrderedList,41.592128,9.283796,Quai Syracuse,20137,+33 4 95 70 09 58,accueil@destination-sudcorse.com,http://www.ot-portovecchio.com/,Porto-Vecchio,
556,La plage de Furnellu,https://www.datatourisme.fr/ontology/core#PlaceOfInterest|https://www.datatourisme.fr/ontology/core#PointOfInterest|https://www.datatourisme.fr/ontology/core#SportsAndLeisurePlace|https://www.datatourisme.fr/ontology/core#Beach|https://www.datatourisme.fr/ontology/core#NaturalHeritage|http://schema.org/Landform,41.475454,9.071438,Furnellu,20171,+33 4 95 71 80 06,,,Monacia-d'Aullène,"Petite plage dans un anse longue et étroite qui abrite un étang lagunaire à la confluence des embouchures de plusieurs ruisseaux locaux.
Vous pouvez profiter d'un panorama exceptionnel sur cette côte accidenté avec le sentier qui mène à la tour génoise."
557,La plage de Pianottoli-Caldarello,https://www.datatourisme.fr/ontology/core#PlaceOfInterest|https://www.datatourisme.fr/ontology/core#PointOfInterest|https://www.datatourisme.fr/ontology/core#SportsAndLeisurePlace|https://www.datatourisme.fr/ontology/core#Beach|https://www.datatourisme.fr/ontology/core#NaturalHeritage|http://schema.org/Landform,41.475454,9.071438,Capitainerie,20131,+33 4 95 71 80 06,,,Pianottoli-Caldarello,"Les plages pianottolaises font toutes partie de la réserve naturelle des Bouches de Bonifacio. Eau turquoise, sable fin, cadre paradisiaque. L’émerveillement et le dépaysement sont au bout des chemins…"
558,La plage d'Acciaghju,https://www.datatourisme.fr/ontology/core#PlaceOfInterest|https://www.datatourisme.fr/ontology/core#PointOfInterest|https://www.datatourisme.fr/ontology/core#SportsAndLeisurePlace|https://www.datatourisme.fr/ontology/core#Beach|https://www.datatourisme.fr/ontology/core#NaturalHeritage|http://schema.org/Landform,41.545896,9.305777,Route de Palombaggia Acciaghju,20137,+33 4 95 70 09 58,,,Porto-Vecchio,"Moins connue, a Cala d’Acciaghju, est la dernière anse de la péninsule de Palombaggia. Sa partie méridionale constitue un abris les jours de vent d’Est. Elle se caractérise par une eau translucide, un sable fin, des dunes blanches entourées de genévriers."
559,La plage de la Tonnara,https://www.datatourisme.fr/ontology/core#PlaceOfInterest|https://www.datatourisme.fr/ontology/core#PointOfInterest|https://www.datatourisme.fr/ontology/core#SportsAndLeisurePlace|https://www.datatourisme.fr/ontology/core#Beach|https://www.datatourisme.fr/ontology/core#NaturalHeritage|http://schema.org/Landform,41.42669,9.105352,D388 La Tonnara,20169,+33 4 95 70 09 58,,,Bonifacio,"En forme de petit lagon protégé par des îlets, son sable et son eau translucide, la plage reste très « nature », même si un grand parking gratuit et plusieurs restaurants sont à votre disposition à quelques mètres."
560,La plage de Cala di Lume,https://www.datatourisme.fr/ontology/core#PlaceOfInterest|https://www.datatourisme.fr/ontology/core#PointOfInterest|https://www.datatourisme.fr/ontology/core#SportsAndLeisurePlace|https://www.datatourisme.fr/ontology/core#Beach|https://www.datatourisme.fr/ontology/core#NaturalHeritage|http://schema.org/Landform,41.557985,9.325567,Route de Palombaggia Cala di Lume,20137,+33 4 95 70 09 58,,,Porto-Vecchio,"La «plage des Lumière"" doit son nom à la famille des frères Lumière, Auguste et Louis, pionniers de la photographie, qui y possédaient une maison toute proche."
561,La plage de Rondinara,https://www.datatourisme.fr/ontology/core#PlaceOfInterest|https://www.datatourisme.fr/ontology/core#PointOfInterest|https://www.datatourisme.fr/ontology/core#SportsAndLeisurePlace|https://www.datatourisme.fr/ontology/core#Beach|https://www.datatourisme.fr/ontology/core#NaturalHeritage|http://schema.org/Landform,41.468379,9.266488,Rondinara,20169,+33 4 95 70 09 58,,,Bonifacio,"À mi-chemin entre Porto-Vecchio et Bonifacio, la plage de la Rondinara se distingue des autres plages par son aspect particulier."
562,La plage de Figari,https://www.datatourisme.fr/ontology/core#PlaceOfInterest|https://www.datatourisme.fr/ontology/core#PointOfInterest|https://www.datatourisme.fr/ontology/core#SportsAndLeisurePlace|https://www.datatourisme.fr/ontology/core#Beach|https://www.datatourisme.fr/ontology/core#NaturalHeritage|http://schema.org/Landform,41.465614,9.070365,port de Figari,20114,+33 4 95 71 00 23,,,Figari,"Entre les marais de Soprane et de Sottane, on trouve une petite plage de sable avec quelques rochers de granit. L’environnement est très agréable mais la plage est très étroite."
563,Eco-Voile,https://www.datatourisme.fr/ontology/core#PlaceOfInterest|https://www.datatourisme.fr/ontology/core#PointOfInterest|https://www.datatourisme.fr/ontology/core#SportsAndLeisurePlace|https://www.datatourisme.fr/ontology/core#SightseeingBoat|http://schema.org/LocalBusiness,41.621146,9.304465,Pezza Cardo Route de Pezza Cardo,20137,+33 6 14 84 61 50,,,Porto-Vecchio,"Découvrez l'art de naviguer en voilier habitable et vivez une expérience unique avec Eco-Voile à Porto-Vecchio. Embarquez pour des sorties voile exceptionnelles, synonymes de liberté et de plaisirs marins."
565,Casa Paradisu,https://www.datatourisme.fr/ontology/core#FoodEstablishment|https://www.datatourisme.fr/ontology/core#PlaceOfInterest|https://www.datatourisme.fr/ontology/core#PointOfInterest|https://www.datatourisme.fr/ontology/core#Restaurant|https://www.datatourisme.fr/ontology/core#Accommodation|https://www.datatourisme.fr/ontology/core#Hotel|https://www.datatourisme.fr/ontology/core#HotelRestaurant|https://www.datatourisme.fr/ontology/core#HotelTrade|http://schema.org/Accommodation|http://schema.org/FoodEstablishment|http://schema.org/LodgingBusiness|http://schema.org/Restaurant|http://schema.org/Hotel,42.633572,8.962044,15 Lotissement l'Alivu,20220,+33 4 95 39 12 55,contact@casaparadisu.fr,https://www.casaparadisu.fr/,Monticello,"Niché dans un coin de paradis, à proximité de la jolie ville de l’Île-Rousse et en même temps à l’écart du monde, à quelques mètres de la mer, se cache un nouvel hôtel de luxe 5 étoiles Casa Paradisu où réside calme et élégance dans les moindres détails."
566,Spassighj'Agriates,https://www.datatourisme.fr/ontology/core#PlaceOfInterest|https://www.datatourisme.fr/ontology/core#PointOfInterest|https://www.datatourisme.fr/ontology/core#SportsAndLeisurePlace|https://www.datatourisme.fr/ontology/core#SightseeingBoat|http://schema.org/LocalBusiness,42.679154,9.300453,Port de plaisance,20217,+33 7 85 74 60 88,florentlouis@orange.fr,https://lorizonte.fr/,Saint-Florent,"Spassigh'Agriate vous propose ses taxis-bateaux pour rejoindre les magnifiques plages de Saleccia et du Lotu situées au coeur de l'Agriate. Découvrez des endroits insolites à bord de nos navettes L'Alba et l'Orizonte comme le Cap Corse.
Réservez en ligne!"
567,Bella Vita Catamaran,https://www.datatourisme.fr/ontology/core#PlaceOfInterest|https://www.datatourisme.fr/ontology/core#PointOfInterest|https://www.datatourisme.fr/ontology/core#SportsAndLeisurePlace|https://www.datatourisme.fr/ontology/core#SightseeingBoat|http://schema.org/LocalBusiness,42.680335,9.300995,Port de plaisance,20217,+33 7 88 79 23 33,catamaranbellavita@gmail.com,https://www.catamaran-bellavita.com/,Saint-Florent,"Embarquement immédiat pour un voyage inoubliable en Corse !
Chers amoureux de la mer nous vous ferons découvrir les paysages et les joyaux de l'île de beauté"
568,Domaine du Reginu,https://www.datatourisme.fr/ontology/core#PlaceOfInterest|https://www.datatourisme.fr/ontology/core#PointOfInterest|https://www.datatourisme.fr/ontology/core#Accommodation|https://www.datatourisme.fr/ontology/core#Hotel|https://www.datatourisme.fr/ontology/core#HotelTrade|http://schema.org/Accommodation|http://schema.org/LodgingBusiness|http://schema.org/Hotel,42.580059,8.925416,Lieu-dit Cornu Grossu,20225,+33 6 60 56 92 82,info@domainedureginu.fr,https://www.domaine-du-reginu.fr/,Feliceto,"C'est au coeur de la Vallée du Reginu, dans un cadre naturel et verdoyant, que le Domaine du Reginu vous accueille pour un séjour intimiste et de qualité, avec ses 4 chambres et deux suites, ses services de standing, sa piscine."
571,Les Beaux Arts,https://www.datatourisme.fr/ontology/core#FoodEstablishment|https://www.datatourisme.fr/ontology/core#PlaceOfInterest|https://www.datatourisme.fr/ontology/core#PointOfInterest|https://www.datatourisme.fr/ontology/core#SportsAndLeisurePlace|https://www.datatourisme.fr/ontology/core#BistroOrWineBar|http://schema.org/FoodEstablishment|http://schema.org/Winery,41.591073,9.279736,20 cours Napoléon,20137,,lbaportovecchio@gmail.com,,Porto-Vecchio,"Dans le cœur de ville, le bar Les Beaux Arts vous propose de venir siroter ses cocktails et déguster ses tapas en intérieur ou sur sa belle terrasse ! 
Une carte simple, à base de produits frais et faits maison. Dans la bonne humeur et en musique !"
572,L'Othello,https://www.datatourisme.fr/ontology/core#FoodEstablishment|https://www.datatourisme.fr/ontology/core#PlaceOfInterest|https://www.datatourisme.fr/ontology/core#PointOfInterest|https://www.datatourisme.fr/ontology/core#SportsAndLeisurePlace|https://www.datatourisme.fr/ontology/core#BistroOrWineBar|http://schema.org/FoodEstablishment|http://schema.org/Winery,41.59,9.2794,65 rue Borgo,20137,,citizenfadda@gmail.com,,Porto-Vecchio,"Niché dans un des cinq bastions de la citadelle, l'Othello Bar vous invite sur sa terrasse panoramique. A déguster : cocktails, spiritueux et tapas dans un décor atypique avec vue sur la baie de Porto-Vecchio."
573,Promenades du Golfe,https://www.datatourisme.fr/ontology/core#FoodEstablishment|https://www.datatourisme.fr/ontology/core#PlaceOfInterest|https://www.datatourisme.fr/ontology/core#PointOfInterest|https://www.datatourisme.fr/ontology/core#SportsAndLeisurePlace|https://www.datatourisme.fr/ontology/core#BistroOrWineBar|http://schema.org/FoodEstablishment|http://schema.org/Winery,41.59132,9.283183,Port de Plaisance Quai Nord n° 2,20137,+33 6 15 07 34 68,promenadesdugolfe.ulysse@gmail.com,https://www.promenadesdugolfe.com/,Porto-Vecchio,"Cocktail dinatoire en mer à bord d'Ulysse en famille ou entre amis. 
Arrêt baignade, la nuit tombe, c’est l'heure des tapas maison ou barbecue ou plateau de charcuterie corse et fromage, vin du pays et musique d'ambiance ! Retour sous un ciel étoilé…"
574,Promenades du Golfe,https://www.datatourisme.fr/ontology/core#PlaceOfInterest|https://www.datatourisme.fr/ontology/core#PointOfInterest|https://www.datatourisme.fr/ontology/core#SportsAndLeisurePlace|https://www.datatourisme.fr/ontology/core#SightseeingBoat|http://schema.org/LocalBusiness,41.590132,9.283183,Port de Plaisance Quai Nord n° 2,20137,+33 6 15 07 34 68,promenadesdugolfe.ulysse@gmail.com,https://www.promenadesdugolfe.com/,Porto-Vecchio,"Promenades au rythme d'antan à bord d'Ulysse classé au patrimoine national ! Sorties en mer en dehors des circuits touristiques, repas à bord, barbecue, paddle, snorkeling, pêche à la palangrotte. Le soir apéritif dinatoire et retour sous les étoiles."
575,Le Bar à Vin,https://www.datatourisme.fr/ontology/core#FoodEstablishment|https://www.datatourisme.fr/ontology/core#PlaceOfInterest|https://www.datatourisme.fr/ontology/core#PointOfInterest|https://www.datatourisme.fr/ontology/core#SportsAndLeisurePlace|https://www.datatourisme.fr/ontology/core#BistroOrWineBar|http://schema.org/FoodEstablishment|http://schema.org/Winery,41.590307,9.277988,3 rue Général de Gaulle,20137,+33 6 12 31 56 66,,,Porto-Vecchio,"Dans une ambiance authentique, conviviale et musicale, dégustez un verre de vin ou un cocktail, accompagné d’une planche de charcuterie, un plateau de fromage ou des tapas maison. Rendez-vous pour un bon moment au Bar à Vin, chez Jean-Chri !"
576,Bar Le Vinyle,https://www.datatourisme.fr/ontology/core#FoodEstablishment|https://www.datatourisme.fr/ontology/core#PlaceOfInterest|https://www.datatourisme.fr/ontology/core#PointOfInterest|https://www.datatourisme.fr/ontology/core#SportsAndLeisurePlace|https://www.datatourisme.fr/ontology/core#BistroOrWineBar|http://schema.org/FoodEstablishment|http://schema.org/Winery,41.590537,9.280046,10 rue Borgo,20137,+33 7 85 02 97 99,barlevinyle@gmail.com,,Porto-Vecchio,"Bar à vin, tapas au cœur de la rue Borgu. 
Ce bar atypique vous fera voyager musicalement avec ses vinyles, ses playlists, ses sessions live, mais aussi avec ses vins des quatre coins de l'île et sa sélection de charcuterie et fromages."
577,Le Point de Vue,https://www.datatourisme.fr/ontology/core#FoodEstablishment|https://www.datatourisme.fr/ontology/core#PlaceOfInterest|https://www.datatourisme.fr/ontology/core#PointOfInterest|https://www.datatourisme.fr/ontology/core#SportsAndLeisurePlace|https://www.datatourisme.fr/ontology/core#BistroOrWineBar|http://schema.org/FoodEstablishment|http://schema.org/Winery,41.593,9.2785,Avenue Maréchal Leclerc Hôtel Best Western Alcyon,20137,+33 4 95 70 50 50,info@hotel-alcyon.com,https://hotel-alcyon.com/,Porto-Vecchio,"Situé sur le toit terrasse de l'Hôtel Alcyon, ouvert de 17h à minuit. 
Raffiné et convivial, avec une vue panoramique époustouflante. 
Vins, cocktails, tapas maison, charcuterie et fromages provenant de producteurs locaux dans le respect des traditions ."
578,Storia di Blue,https://www.datatourisme.fr/ontology/core#PlaceOfInterest|https://www.datatourisme.fr/ontology/core#PointOfInterest|https://www.datatourisme.fr/ontology/core#Accommodation|https://www.datatourisme.fr/ontology/core#CollectiveAccommodation|https://www.datatourisme.fr/ontology/core#HolidayResort|http://schema.org/Accommodation|http://schema.org/LodgingBusiness,41.561727,9.274886,Route de Bocca del'Oro,20137,+33 4 95 20 62 86,contact@storiadiblue.com,https://www.storiadiblue.com/,Porto-Vecchio,"Entre Palombaggia et Santa Giulia et à proximité du centre-ville, profitez de la situation centrale de notre résidence pour découvrir la région. À votre disposition appartements ou studios à la décoration chic et contemporaine avec terrasse aménagée."
579,Casa  e Mare,https://www.datatourisme.fr/ontology/core#PlaceOfInterest|https://www.datatourisme.fr/ontology/core#PointOfInterest|https://www.datatourisme.fr/ontology/core#SportsAndLeisurePlace|https://www.datatourisme.fr/ontology/core#SightseeingBoat|http://schema.org/LocalBusiness,41.590116,9.282796,Quai Pacal Paoli,20137,+33 6 62 82 90 47,stephanie.verpillon@gmail.com,,Porto-Vecchio,"Profitez d'une sortie en mer navigation au vent dans le confort du ""Vento"", catamaran Lagoon 440."
582,Salina Bay,https://www.datatourisme.fr/ontology/core#PlaceOfInterest|https://www.datatourisme.fr/ontology/core#PointOfInterest|https://www.datatourisme.fr/ontology/core#Accommodation|https://www.datatourisme.fr/ontology/core#CollectiveAccommodation|https://www.datatourisme.fr/ontology/core#HolidayResort|http://schema.org/Accommodation|http://schema.org/LodgingBusiness,41.584,9.2831,Rue des Révolutions de Corse 1729/1769,20137,+33 4 95 22 03 90,contact@residences-salinabay.com,http://www.residence-salinabay.com/,Porto-Vecchio,"À quelques pas du port de Porto-Vecchio, dans un site classé protégé, Salina Bay vous propose des appartements spacieux, modernes et raffinés avec une immense piscine et swim-up bar, dans le cadre relaxant des salines de Porto-Vecchio."
584,Casteddu di Capula,https://www.datatourisme.fr/ontology/core#ArcheologicalSite|https://www.datatourisme.fr/ontology/core#CulturalSite|https://www.datatourisme.fr/ontology/core#PlaceOfInterest|https://www.datatourisme.fr/ontology/core#PointOfInterest,41.718186,9.1287,Route de Cucuruzzu,20170,+33 4 95 78 47 93,,,Levie,"Le site de Capula fait partie de l'ensemble du site de Cucuruzzu. C'est en fin de promenade du site, après avoir passé Cucuruzzu, site datant de l'âge de bronze que l'on parvient, au terme de 20 de minutes dans les sous-bois, au casteddu de Capula."
585,Le site de Cucuruzzu,https://www.datatourisme.fr/ontology/core#ArcheologicalSite|https://www.datatourisme.fr/ontology/core#CulturalSite|https://www.datatourisme.fr/ontology/core#PlaceOfInterest|https://www.datatourisme.fr/ontology/core#PointOfInterest,41.718186,9.1287,Route de Cucuruzzu,20170,+33 4 95 78 47 93,,,Levie,"En traversant une forêt méditerranéenne au coeur d’un environnement préservé, vous découvrirez le Casteddu de Cucuruzzu, qui fait partie de la vingtaine de casteddi connus de l’île, situés essentiellement en Corse méridionale."
588,Musée de l'Alta Rocca,http://schema.org/Museum|https://www.datatourisme.fr/ontology/core#CulturalSite|https://www.datatourisme.fr/ontology/core#Museum|https://www.datatourisme.fr/ontology/core#PlaceOfInterest|https://www.datatourisme.fr/ontology/core#PointOfInterest|http://schema.org/LocalBusiness,41.658328,9.105345,Quartier Prato,20170,+33 4 95 78 00 73,musee.levie@corsedusud.fr,https://www.isula.cors,Levie,"Archéologie, Paléo-ethnographie et Histoire se rejoignent dans ce musée, reflet de 10 000 ans d’occupation humaine. Les collections exposées illustrent l’histoire et la vie quotidienne des populations de l’Alta Rocca depuis le VIIIe millénaire..."
589,Liberata,https://www.datatourisme.fr/ontology/core#PlaceOfInterest|https://www.datatourisme.fr/ontology/core#PointOfInterest|https://www.datatourisme.fr/ontology/core#Accommodation|https://www.datatourisme.fr/ontology/core#Hotel|https://www.datatourisme.fr/ontology/core#HotelTrade|http://schema.org/Accommodation|http://schema.org/LodgingBusiness|http://schema.org/Hotel,42.633774,8.941514,Boulevard Charles Marie Savelli,20220,+33 4 95 62 03 62,hotel.liberata@orange.fr,https://www.hotel-ilerousse.fr/,L'Île-Rousse,"Boutique hôtel Liberata & Spa est une demeure de style Art Nouveau de bord de mer, promesse d’élégance, de luxe et de bien-être
Situé au cœur de L'Ile Rousse, l’hôtel bénéficie d’un emplacement exceptionnel où tranquillité rime avec intimité des hôtes."
590,L'Isula Marina,https://www.datatourisme.fr/ontology/core#PlaceOfInterest|https://www.datatourisme.fr/ontology/core#PointOfInterest|https://www.datatourisme.fr/ontology/core#Accommodation|https://www.datatourisme.fr/ontology/core#Hotel|https://www.datatourisme.fr/ontology/core#HotelTrade|http://schema.org/Accommodation|http://schema.org/LodgingBusiness|http://schema.org/Hotel,42.633871,8.940986,Boulevard Charles Marie Savelli,20220,+33 4 95 31 19 89,contact@hotel-lisulamarina.com,https://www.hotel-lisulamarina.com/,L'Île-Rousse,"L'hôtel L'Isula Marina situé sur le front de mer du golfe de l'Ile-Rousse, à quelques pas de la promenade A Marinella et de sa plage, vous offre un cadre idyllique pour votre séjour avec ses nombreux services et ses chambres au confort de qualité."
591,Maria Stella,https://www.datatourisme.fr/ontology/core#PlaceOfInterest|https://www.datatourisme.fr/ontology/core#PointOfInterest|https://www.datatourisme.fr/ontology/core#Accommodation|https://www.datatourisme.fr/ontology/core#Hotel|https://www.datatourisme.fr/ontology/core#HotelTrade|http://schema.org/Accommodation|http://schema.org/LodgingBusiness|http://schema.org/Hotel,42.631219,8.931721,Avenue Pierre Pasquini,20220,+33 4 95 60 18 24,info@mariastella.com,https://www.mariastella.com/,L'Île-Rousse,"L'hôtel Maria Stella *** vous accueille à L'Ile-Rousse pour votre séjour. Situé à 5mn à pied du coeur historique de la ville, sur les hauteurs, il vous promet un séjour de qualité avec un accueil convivial, le confort des chambres et de ses équipements."
592,Storia d'Estate,https://www.datatourisme.fr/ontology/core#PlaceOfInterest|https://www.datatourisme.fr/ontology/core#PointOfInterest|https://www.datatourisme.fr/ontology/core#Accommodation|https://www.datatourisme.fr/ontology/core#CollectiveAccommodation|https://www.datatourisme.fr/ontology/core#HolidayResort|http://schema.org/Accommodation|http://schema.org/LodgingBusiness,42.626662,8.944365,Lieu-dit Funtana Marina,20220,+33 6 15 40 78 51,denissiamanovelli@gmail.com,,Monticello,"La résidence Storia d'Estate se situe sur les hauteurs de L'Ile-Rousse. Avec ses 1! appartements au design moderne, vous séjournerez dans une résidence de haut standing avec des services hôteliers de qualité."
593,Domaine Casale Olmia,https://www.datatourisme.fr/ontology/core#PlaceOfInterest|https://www.datatourisme.fr/ontology/core#PointOfInterest|https://www.datatourisme.fr/ontology/core#Accommodation|https://www.datatourisme.fr/ontology/core#Hotel|https://www.datatourisme.fr/ontology/core#HotelTrade|http://schema.org/Accommodation|http://schema.org/LodgingBusiness|http://schema.org/Hotel,42.507824,8.838009,A Casa Campagnola Lieu dit Fiuminale,20214,+33 6 83 48 91 85,contact@domaine-casale-olmia.com,https://www.domaine-casale-olmia.com/,Moncale,"Ancienne demeure de maître située à Moncale en Balagne, entièrement rénovée et transformée en 5 suites"
